Name,Email,Phone Number,Combined Address,Address, City, State,Zip,Website,GPS Coordinates,Par / Yards,Price Range /season,Twitter,Facebook
Achasta,"(Tom Fowler, Head Golf Professional) tfowler@achasta.com",(706) 867-7900,"
639 Birch River Drive, Dahlonega, GA","
639 Birch River Drive", Dahlonega,GA,30533,http://achasta.com,,,,@Achasta,https://www.facebook.com/achasta?ref=br_tf
Aiken GC,aikengc@gforcecable.com,803.649.6029,Aiken,,Aiken,SC,29801,http://www.aikengolfclub.com,,,,not listed on site,not listed on site
Ak-Chin Southern Dunes,"(Brady J. Wilson, PGA
General Manager)
bwilson@troongolf.com",480-367-8949,"48456 Arizona 238, Maricopa, AZ",48456 Arizona 238, Maricopa, AZ,85139,http://www.golfsoutherndunes.com/index.php,,not listed on site,$34-$99,@AkChin_SoDunes,https://www.facebook.com/AkChinSouthernDunes
Allegheny CC,information@alleghenycountryclub.net,(412) 741-7500,"250 Country Club Rd, Sewickley, PA",250 Country Club Rd, Sewickley, PA,15143,http://www.alleghenycountryclub.com,,,,no account,https://www.facebook.com/AlleghenyCounty/info
Alotian Club,,(501) 379-2568,"101 Alotian Dr, Roland, AR",101 Alotian Dr, Roland, AR,72135,,,,,,
Alpine CC,info@alpinecc.org,201-768-2121,"80 Anderson Avenue, Demarest NJ",80 Anderson Avenue, Demarest,NJ,07627,http://www.alpinecc.org,,,,,
"Amana Colonies
","*no email listed, contact form (asks for phone number)",(319) 622-6222,"451 U Ave, Amana, IA ",451 U Ave, Amana, IA ,52203,http://www.amanagolfcourse.com,,,,@goAmanaColonies,https://www.facebook.com/AmanaColoniesGolf
Anchorage GC,golf@anchoragegolfcourse.com,907-522-3363,"3651 O'Malley Rd, Anchroage, AK",3651 O'Malley Rd, Anchroage, AK,99507,http://www.anchoragegolfcourse.com,,*more than 1 course,Regular Season - $45 - $66,@AnchGolfCourse,https://www.facebook.com/anchoragegolfcourse
Angels Crossing,*no email listed,(269) 649-2700,"3600 West Avenue E, Vicksburg, MI ",3600 West Avenue E, Vicksburg, MI ,49097,http://www.golfangelscrossing.com,,,,no account,https://www.facebook.com/pages/Angels-Crossing-Golf-Club/109993572378837
Arcadia Bluffs,"(William Shriver, Chief Operating Officer) bshriver@arcadiabluffs.com",(231) 889-3001,"14710 Northwood Hwy, Arcadia, MI",14710 Northwood Hwy, Arcadia, MI,49613,http://arcadiabluffs.com,,,,@Arcadia_Bluffs,https://www.facebook.com/pages/Arcadia-Bluffs-Golf-Club/115332578489543
Architects GC,"(Lawrence J. Turco, Director of Operations) lturco@thearchitectsclub.com",(908) 213-3080,"700 Strykers Rd, Phillipsburg, NJ ",700 Strykers Rd, Phillipsburg, NJ ,08865,http://www.thearchitectsclub.com/2007/index.php,,,,@ArchitectsClub,
Arizona National,"(Jason Thorpe, General Manager) jthorpe@wctgolf.com",(520) 749-4089,"9777 E Sabino Greens Dr, Tucson, AZ",9777 E Sabino Greens Dr, Tucson, AZ,85749,http://www.arizonanationalgolfclub.com,,,$30-$105,@ArizonaNational,https://www.facebook.com/pages/Arizona-National-Golf-Club/127060336453
Aronimink GC,info@aronimink.org,(610) 356-8000,"3600 St Davids Rd, Newtown Square, PA",3600 St Davids Rd, Newtown Square, PA,19073,http://www.aronimink.org,,,,no account,no actual page
Arrowhead Pointe,"*no email, contact form",(706) 283-6000,"2790 Olympic Rowing Dr, Elberton, GA",2790 Olympic Rowing Dr, Elberton, GA,30635,http://georgiagolf.com/Arrowhead-Pointe,,,,no account,https://www.facebook.com/pages/Arrowhead-Pointe-Golf-Course/277063379128556
Atlanta Athletic Club,esmith@aac1.org,770-448-2166,"1930 Bobby Jones DriveJohns Creek, Georgia",1930 Bobby Jones Drive,Johns Creek,GA,30097,http://www.atlantaathleticclub.org/Amenities/Golf.aspx,,,,no account,no actual page
Atlantic City CC,*no email listed,(609) 236-4400,"1 Leo Fraser Dr, Northfield, NJ",1 Leo Fraser Dr, Northfield, NJ,08225,http://www.accountryclub.com/-home,,,,,
Atlantic City CC,,(609) 236-4400,"1 Leo Fraser Dr, Northfield, NJ",1 Leo Fraser Dr, Northfield, NJ,08225,http://www.accountryclub.com,,,,,https://www.facebook.com/ACCountryClub
Atlantic GC,mailbox@atlanticgolf.org,(631) 537-1818,"1040 Scuttle Hole Rd, Bridgehampton, NY",1040 Scuttle Hole Rd, Bridgehampton, NY,11932,https://www.atlanticgolf.org,,,,no account,no actual page
Augusta CC,,(706) 733-9426,"655 Milledge Rd, Augusta, GA",655 Milledge Rd, Augusta, GA,30904,http://www.augcc.com,,,,,
Augusta National GC,,(706) 667-6000,"2604 Washington Rd, Augusta, GA",2604 Washington Rd, Augusta, GA,30904,?,,,,,
Austin GC,,(512) 264-9787,"24900 State Highway 71 W, Spicewood, TX",24900 State Highway 71 W, Spicewood, TX,78669,?,,,,,
Back Creek,"*no email listed, contact form (form asks for mailing address)",(302) 378-6499,"01 Back Creek Dr, Middletown, DE",01 Back Creek Dr, Middletown, DE,19709,http://backcreekgc.com,,,,@Backcreekgolf,https://www.facebook.com/backcreekgc
Bald Head Island Club,*no email listed,(910) 457-7300,"1 Salt Meadow Trail, Bald Head Island, NC",1 Salt Meadow Trail, Bald Head Island, NC,28461,http://www.bhiclub.net/club/scripts/section/section.asp?GRP=15617&NS=GOLF,,,,@BHIGolfMa10ance,not listed on site
Ballamor GC,shewalter@ballamor.com,(609) 601-6220,"6071 English Creek Ave, Egg Harbor Township, NJ",6071 English Creek Ave, Egg Harbor Township, NJ,08234,http://www.ballamor.com/index.php,,,,@BallamorGC,https://www.facebook.com/ballamorgolfclub
Ballyneal,no email listed; contact form,(970) 854-5900,"1 Ballyneal Ln, Holyoke, CO
",1 Ballyneal Ln, Holyoke," CO
",80734,http://www.ballyneal.com,,,,@Ballyneal,https://www.facebook.com/pages/Ballyneal/121939227881056
Baltimore CC,"*no email listed, asks to call",410-889-4400.,"Timonium, MD",,Timonium, MD,,http://www.bcc1898.com,,,,,
Baltusrol GC (Lower),no email listed,(973) 376-1900,"201 Shunpike Rd, Springfield Township, NJ",201 Shunpike Rd, Springfield Township, NJ,07081,http://www.baltusrol.org/,,,,no account,no actual page
Baltusrol GC (Upper),no email listed,(973) 376-1900,"201 Shunpike Rd, Springfield Township, NJ",201 Shunpike Rd, Springfield Township, NJ,07081,http://www.baltusrol.org/,,,,no account,no actual page
Bandon Dunes,"(Jake Sestero, Golf Professional) jsestero@bandondunesgolf.com",888-345-6008,"57744 Round Lake Drive, Bandon, OR ",57744 Round Lake Drive, Bandon, OR ,97411,http://www.bandondunesgolf.com/pages/bandon_dunes/49.php,,,,@BandonDunesGolf,https://www.facebook.com/BandonDunesGolf
Bandon Trails,"(Jake Sestero, Golf Professional) jsestero@bandondunesgolf.com",888-345-6008,"57744 Round Lake Drive, Bandon, OR ",57744 Round Lake Drive, Bandon, OR ,97411,http://www.bandondunesgolf.com/pages/bandon_trails/51.php,,,,@BandonDunesGolf,https://www.facebook.com/BandonDunesGolf
Barefoot Landing (Fazio),"*no email listed, contact form (asks for phone number)",1-866-638-4818,North Myrtle Beach,,North Myrtle Beach,,29582,http://www.barefootgolf.com/Fazio-Course/the-fazio-course-at-barefoot.html,,,,not listed on site,https://www.facebook.com/BarefootResort
Barona Creek,info@barona.com,(619) 387-7018,"1932 Wildcat Canyon Rd, Lakeside, CA",1932 Wildcat Canyon Rd, Lakeside, CA,92040,http://www.barona.com/golf/,,,$40-$160,@BaronaCasino,https://www.facebook.com/BaronaCasino?ref=ts
Barton Creek (Fazio Canyons),"*no email listed, contact form (asks for email and phone)",512.329.4000,"8212 Barton Club Dr, Austin, TX",8212 Barton Club Dr, Austin, TX,78735,http://www.bartoncreek.com/fazio-canyons.aspx,,,,@OmniBartonCreek,https://www.facebook.com/OmniBartonCreek
Barton Creek (Fazio Foothills),"*no email listed, contact form",1 866 572 7369,"8212 Barton Club Dr, Austin, TX",8212 Barton Club Dr, Austin, TX,78735,http://www.bartoncreek.com/fazio-foothills.aspx,,,,@OmniBartonCreek,https://www.facebook.com/OmniBartonCreek
Barton Hills CC,barton@bartonhillscc.com,(734) 662-4955,"730 Country Club Rd, Ann Arbor, MI ",730 Country Club Rd, Ann Arbor, MI ,48105,http://www.bartonhillscc.com,,Par-71 // ?,,,
Bay Creek GC (Nicklaus),golfinfo@baycreek.net,(757) 331-8620,"
        1 Clubhouse Way, Cape Charles, VA","
        1 Clubhouse Way", Cape Charles, VA,23310,"
http://www.baycreekresort.com",,,,no account,https://www.facebook.com/pages/Bay-Creek-Golf-Course/93554255963
Bay Harbor (Links /Quarry),,,Bay Harbor,,Bay Harbor,,,,,,,@BayHarbor,https://www.facebook.com/RenaissanceLakeMichiganBayHarborInn
"Bay Hill Club
","(Brian Dom, Director of Golf) bdorn@bayhill.com",(407) 876-2429,"9000 Bay Hill Boulevard,
Orlando, FL",9000 Bay Hill Boulevard,"
Orlando", FL,32819,http://www.bayhill.com/Home-1.html,,,,@APBayHill,https://www.facebook.com/APBayHill
Bayonet GC,info@bayonetblackhorse.com,831.899.7271,"1 Golf Club Rd, Seaside, CA",1 Golf Club Rd, Seaside, CA,93955,http://bayonetblackhorse.memfirstweb.net/club/scripts/public/public.asp?NS=PUBLIC,,,,@BBHgolf,https://www.facebook.com/pages/Bayonet-Black-Horse-Golf-Courses/56300669658
Bayonne Golf Club,golfshop@bayonnegolfclub.com,201-823-4800,"One Lefante Way | Bayonne, NJ",One Lefante Way,Bayonne,NJ,07002,http://www.bayonnegolfclub.com/,,,,no account,no actual page
Bayside,info@baysidegolf.com,308.287.4653,"865 Lakeview West Rd, Lake McConaughy ",865 Lakeview West Rd, Lake McConaughy ,,69127,http://baysidegolf.com,,,,@GolfJodi,https://www.facebook.com/pages/Bayside-Golf/81769003690
Bayside Resort (GC),bcrowther@troongolf.com,(302) 436-3400,"11310 Signature Blvd, Selbyville, DE",11310 Signature Blvd, Selbyville, DE,19975,http://www.golfbayside.com,,,,@LiveBayside,https://www.facebook.com/baysidegolf?ref=br_tf
Baywood Greens,"*no email listed, contact form",(302) 947-9800,"32267 Clubhouse Way, Long Neck, DE",32267 Clubhouse Way, Long Neck, DE,19966,http://www.baywoodgreens.com,,,,@Baywood_Greens,https://www.facebook.com/Baywoodgreens
Bear Mountain Ranch GC,info@bearmt.com,(509) 682-8200,"1050 Bear Mountain Ranch Rd, Chelan, WAÂ ",1050 Bear Mountain Ranch Rd, Chelan, WAÂ ,98816,http://www.bearmt.com/index.html,,,,not listed on site,https://www.facebook.com/pages/Bear-Mountain-Ranch-Golf-Course/164841898423
Bear Trace (Cumberland Mountain),tn.golftrail@tn.gov,(931) 707-1640,"407 Wild Plum Ln, Crossville, TN ",407 Wild Plum Ln, Crossville, TN ,38572,http://www.tngolftrail.net,,,,@BearTraceHB,https://www.facebook.com/pages/The-Bear-Trace-Harrison-Bay/108872222469525
Bear's Best,"*no email listed, contact form",702.804.8500,"11111 W Flamingo Rd, Las Vegas, NV",11111 W Flamingo Rd, Las Vegas, NV,89135,http://www.clubcorp.com/Clubs/Bear-s-Best-Las-Vegas,,,,,https://www.facebook.com/bearsbestlasvegas
Bedford Springs,rleporati@omnihotels.com,(814) 623-8100,Bedford,,Bedford,,15522,http://www.omnihotels.com/FindAHotel/BedfordSprings/Golf.aspx,,,,@OmniHotels,https://www.facebook.com/omnihotels
Bel-Air CC,,(310) 472-9563,"10768 Bellagio Rd, Los Angeles, CA",10768 Bellagio Rd, Los Angeles, CA,90077,http://www.bel-aircc.org,,,,,
Belgrade Lakes GC,"*no email listed, contact form",(207) 495-4653,Belgrade Lakes,,Belgrade Lakes,ME,04918,https://www.belgradelakesgolf.com,,,,,
Bell Nob GC,"(Ricky Thielen, Recreation Desk Assistant) rat77@ccgov.net",(307) 685-3077,"4600 Overdale Dr, Gillette, WY",4600 Overdale Dr, Gillette, WY,82718,http://www.ccprd.com/Bell_Nob_Golf_Course.html,,,,no account,https://www.facebook.com/bellnobgolfclub
Bellerive GC,,(314) 434-4400,"12925 Ladue Rd, St Louis, MO",12925 Ladue Rd, St Louis, MO,63141,http://www.bellerivecc.org/,,Need to call,Members only,,
Belterra GC,*no email listed,(812) 427-7777,"777 Belterra Dr, Florence, IN",777 Belterra Dr, Florence, IN,47020,https://www.belterracasino.com/amenities/golf-course-and-clubhouse/,,,,Twitter link takes you to home page,https://www.facebook.com/BelterraCasinoResort
Belvedere GC,proshop@belvedereclub.net,231-547-2611,Charlevoix,,Charlevoix,,49720,http://www.belvederegolfclub.com,,,,,
Berkleigh GC,proshop@berkleighgolfclub.com,(610) 683-7368,"14623 Kutztown Rd, Kutztown, PA ",14623 Kutztown Rd, Kutztown, PA ,19530.1,http://www.berkleighgolfclub.com,,,,no account,https://www.facebook.com/pages/Berkleigh-Golf-Club/336178536518
Bethpage State Park (Black),call,(516) 249-0700,"99 Quaker Meetinghouse Road, Farmingdale, NY",99 Quaker Meetinghouse Road, Farmingdale, NY,11735,http://nysparks.com/golf-courses/11/details.aspx,,,,not listed on site,not listed on site
Bethpage State Park (Red),call,(516) 249-0700,"99 Quaker Meetinghouse Road, Farmingdale, NY",99 Quaker Meetinghouse Road, Farmingdale, NY,,http://nysparks.com/golf-courses/11/details.aspx,,,,not listed on site,not listed on site
Beverly CC,,,"Chicago, IL",,Chicago, IL,,http://www.beverlycc.org,,,,,
Big Creek GCC,membership@bigcreekgolf.com,(870) 425-0333,Mountain Home,,Mountain Home,,72653,http://www.bigcreekgolf.com,,,,not listed on site,https://www.facebook.com/bigcreekgolf
Biltmore Forest CC,,(828) 274-1261,"31 Stuyvesant Rd, Asheville, NC ",31 Stuyvesant Rd, Asheville, NC ,28803,http://www.biltmoreforestcc.com,,,,,
Birck Boilermaker Golf Complex (Kampen),bbgc@purdue.edu,765.494.3139,West Lafayette,,West Lafayette,,,http://www.purduegolf.com,,,,@PurdueGolf,https://www.facebook.com/purduegolfcourse
Black Bear GC,?,(318) 878-2162,"253 Black bear Dr, Delhi, LA",253 Black bear Dr, Delhi, LA,71232,?,,,,@golfblackbear,https://www.facebook.com/pages/Black-Bear-Golf-Club/171550312896173
Black Butte Ranch (Big Meadow),"(Katie Daiger, Media Contact) kdaiger@blackbutteranch.com",(866) 901-2961,Black Butte Ranch,,Black Butte Ranch,,97759,http://www.blackbutteranch.com/golf/big-meadow/,,,,@BlackButteRanch,https://www.facebook.com/BlackButteRanch
Black Diamond Ranch (Quarry),,,"Lecanto, FL",,Lecanto, FL,,,,,,,
Black Forest at Wilderness Valley,info@blackforestgolf.com,(231) 585-7090,"6500 Nicklaus Dr, Gaylord, MI ",6500 Nicklaus Dr, Gaylord, MI ,49735,http://blackforestgolf.com,,,,,https://www.facebook.com/pages/Black-Forest-Wilderness-Valley-Golf-Resort/158826854150962
Black Jack's Crossing,contact@lajitasgolfresort.com,(432) 424-5080,"        HC70 Clay Henry Blvd, Lajitas, TX",        HC70 Clay Henry Blvd, Lajitas, TX,79852,"
http://www.lajitasgolfresort.com/golf.html",,,,no account,https://www.facebook.com/pages/Black-Jacks-Crossing-Golf-Club/105674679513512
Black Lake,golfblacklake@yahoo.com,(989) 733-4653,"2800 Maxon Rd, Onaway, MI ",2800 Maxon Rd, Onaway, MI ,49765,"
http://www.blacklakegolf.com",,,,,https://www.facebook.com/pages/Black-Lake-Golf-Club-Grille/281205695266355
Black Mesa,info@blackmesagolfclub.com,(505) 747-8946,"115 State Road 399, EspaÃ±ola, NM",115 State Road 399, EspaÃ±ola, NM,87532,http://www.blackmesagolfclub.com,,,,@BlackMesaGC,https://www.facebook.com/BlackMesaGolfClub
Black Rock,,(208) 676-8999,"18168 S Kimberlite Dr, Coeur d'Alene, ID ",18168 S Kimberlite Dr, Coeur d'Alene, ID ,83814,https://www.blackrockidaho.com,,,,,
Black Sheep GC,*no email listed,(630) 879-2000,"2S610 Seavy Rd, Sugar Grove, IL ",2S610 Seavy Rd, Sugar Grove, IL ,60554,http://www.blacksheepgolfclub.com,,,,no account,no acutal page
Blackstone National,,(508) 865-2111,"227 Putnam Hill Rd, Sutton, MA",227 Putnam Hill Rd, Sutton, MA,01590,http://www.bngc.net,,,,@BlackstoneGolf,https://www.facebook.com/blackstonenationalgolfclub
Blackwolf Run (Meadow Valleys),no email listed,(920) 457-4446,"1111 W Riverside Dr, Kohler, WI",1111 W Riverside Dr, Kohler, WI,53044,http://www.americanclubresort.com/golf/bwr/bwr_index.html,,,,@TheAmericanClub,https://www.facebook.com/americanclub
Blackwolf Run (River),"(Leslie Stachowiak, Media Director)  leslie.stachowiak@kohler.com",(920) 457-4446,"1111 W Riverside Dr, Kohler, WI ",1111 W Riverside Dr, Kohler, WI ,53044,http://www.americanclubresort.com/golf/bwr/bwr_index.html,,,,@TheAmericanClub,https://www.facebook.com/americanclub
Blessings GC,,,"Johnson, AR",,Johnson, AR,,,,,,,
Blue Mound CC,no email listed,(414) 258-4656,"10122 W North Ave, Wauwatosa, WI",10122 W North Ave, Wauwatosa, WI,53226,http://www.bluemoundgcc.com,,"Par - ? // 6,672 yards",,,
Blue Top Ridge,info@riversidecasinoandresort.com,(319) 648-1234,"3184 Iowa 22, Riverside, IA ",3184 Iowa 22, Riverside, IA ,52327,http://www.bluetopridge.com,,,,no account,https://www.facebook.com/BlueTopRidge
Boot Ranch GC,*no email listed; contact form available,(830) 997-6200,"77 Boot Ranch Cir, Fredericksburg, TX",77 Boot Ranch Cir, Fredericksburg, TX,78624,http://www.bootranch.com,,,,@BootRanch,https://www.facebook.com/BootRanch
Boston Golf Club,,(781) 741-5123,"19 Old County Rd, Hingham, MA",19 Old County Rd, Hingham, MA,02043,http://www.bostongolfclub.org,,,,,
Boulder Creek,info@bouldercreekgc.com,(702) 294-6534,"1501 Veterans Memorial Dr, Boulder City, NV ",1501 Veterans Memorial Dr, Boulder City, NV ,89005,http://www.bouldercreekgc.com/-home,,,,@BoulderCreekGC,
Boulder Creek,andrea.salemi@gmail.com,330-626-2828,"9700 Page Rd, Streetsboro, OH",9700 Page Rd, Streetsboro, OH,44241,"
http://www.bouldercreekohio.com",,"Par 72, 7462 yards",$35-$64,@BoulderCreekOH,https://www.facebook.com/BoulderCreekGC
Boulders Resort (North),"
The_Boulders_Resort@waldorfastoria.com","
480-488-9009","34631 N Tom Darlington Dr, Carefree, AZ",34631 N Tom Darlington Dr, Carefree, AZ,85377,"
http://waldorfastoria3.hilton.com/en/hotels/arizona/the-boulders-a-waldorf-astoria-resort-PHXRSWA/index.html",,,,@BouldersResort,https://www.facebook.com/TheBoulders
Boulders Resort (South),The_Boulders_Resort@waldorfastoria.com,480-488-9009,"34631 N Tom Darlington Dr, Carefree, AZ",34631 N Tom Darlington Dr, Carefree, AZ,85377,http://waldorfastoria3.hilton.com/en/hotels/arizona/the-boulders-a-waldorf-astoria-resort-PHXRSWA/index.html,,,,@BouldersResort,https://www.facebook.com/TheBoulders
Bowes Creek,duffy_k@cityofelgin.org,(847) 468-1852,"3511 Tournament Dr, Elgin, IL",3511 Tournament Dr, Elgin, IL,60124,http://www.bowescreekcountryclub.com,,,,@Bowes_Creek_CC,https://www.facebook.com/BowesCreekCountryClub
Boyne Highlands Resort (Hills),"*no email listed, contact form",231.526.3000,"600 Boyne Highlands Dr, Harbor Springs, MI",600 Boyne Highlands Dr, Harbor Springs, MI,49740,https://www.boyne.com/boynehighlands,,,,@Boyne_Highlands,https://www.facebook.com/BoyneHighlands
Brackenridge Park,"*no email listed, contact form",(210) 226-5612,"3700 N St Mary's St, San Antonio, TX",3700 N St Mary's St, San Antonio, TX,78215,http://www.alamocitygolftrail.com/index.php/san-antonio-golf-courses/brackenridge-park,,,,not listed on site,not listed on site
Brae Burn CC,amberpursel@braeburngolf.com,617-244-0680,"326 Fuller Street, West Newton, MA",326 Fuller Street, West Newton, MA,00246,http://www.braeburngolf.com/,,?,?,no account,no actual page
Breakfast HIll,golf@breakfasthill.com,(603) 436-5001,"339 Breakfast Hill Rd, Greenland, NH",339 Breakfast Hill Rd, Greenland, NH,00384,http://breakfasthill.com,,,,@BreakfastHill,
Brickyard Crossing,*no email listed,(317) 492-6417,"4400 W 16th St, Indianapolis, IN",4400 W 16th St, Indianapolis, IN,46222,http://www.brickyardcrossing.com/Home.aspx,,,,no account,https://www.facebook.com/pages/Brickyard-Crossing-Golf-Course-the-Indianapolis-Motor-Speedway/10150098969855311
Briggs Ranch,,(210) 357-4200,"2818 Rustlers Trail, San Antonio, TX ",2818 Rustlers Trail, San Antonio, TX ,78245,http://www.briggsranchrealty.com,,,,,
Bright's Creek GC,no email listed; contact form available,(828) 694-4500,"2222 Palmer Rd, Mill Spring, NC ",2222 Palmer Rd, Mill Spring, NC ,28756,http://www.brightscreek.com,,,,@Brights_Creek,https://www.facebook.com/BrightsCreekClub
Brook Hollow GC,*no email listed,(214) 637-1900,"8301 Harry Hines Blvd, Dallas, TX",8301 Harry Hines Blvd, Dallas, TX,75235,http://www.brookhollowgc.org,,,,no account,https://www.facebook.com/BrookHollowGolfClub
Brooks GC,info@brooksgolfclub.com,712-332-5011,Okojobi,,Okojobi,,51355,http://www.brooksgolfclub.com,,,,@BrooksGC,https://www.facebook.com/pages/Brooks-Golf-Club/450261025061
Brookside CC,no email listed; contact form available,330.477.6505,"1800 Canton Avenue NW, Canton, OH",1800 Canton Avenue NW, Canton,OH,44708,http://www.brooksidecc.com,,,,@BrooksideGolfCC,no actual page
Buffalo Dunes,"(Cole Wasinger, Head Golf Professional) cole.wasinger@gardencityks.us (and contact form available)",(620) 276-1210,"5685 S US Hwy 83, Garden City, KS ",5685 S US Hwy 83, Garden City,KS,67846,http://www.buffalodunes.org,,,,@BuffaloDunes,https://www.facebook.com/pages/Buffalo-Dunes-Golf-Course/118228455279?ref=br_tf
Buffalo Ridge (Spring),,,Branson,,,,,,,,,,
Bulle Rock GC,Golf@BulleRock.com,(410) 939-8887,"320 Blenheim Ln, Havre de Grace, MD",320 Blenheim Ln, Havre de Grace,MD,21078,http://www.bullerockgolf.com,,,,@BulleRockGolf,https://www.facebook.com/BulleRockGolf
Bully Pulpit,bullypulpit@medora.com,701-623-4653,Medora,,Medora,,58645,http://www.medora.com/do/outdoor/bully-pulpit-golf-course/,,,,@MedoraND,https://www.facebook.com/MedoraND
Butler National GC,office@butlernational.org,(630) 990-3333,"2616 York Rd, Oak Brook, IL",2616 York Rd, Oak Brook,IL,60523,https://butlernationalgolf.memberstatements.com/,,,,no account,no acutal page
Butterfield CC,,(630) 323-1000,"2800 Midwest Rd, Oak Brook, IL",2800 Midwest Rd, Oak Brook,IL,60523,http://www.butterfieldcc.org,,,,no account,no page found
Butterfield Trail,info@butterfieldtrailgolf.com,(915) 772-1031,"1858 Cottonwoods, El Paso, TX",1858 Cottonwoods, El Paso,TX,79906,http://www.butterfieldtrailgolf.com/-home,,,,@BTGC,https://www.facebook.com/Butterfieldtrail
"Caledonia Golf, Fish Club",truebluegolf@sccoast.net,(843) 235-0900,"369 Caledonia Drive, Pawleys Island, SC",369 Caledonia Drive, Pawleys Island,SC,29585,http://www.fishclub.com,,,,not listed on site,not listed on site
California GC,,,"South San Fran, CA",,South San Fran,CA,,,,,,,
Calusa Pines Golf Club,*no email listed,(239) 348-7241,"2000 Calusa Pines Dr, Naples, FL",2000 Calusa Pines Dr, Naples,FL,34120,www.calusapinesgolfclub.com/,,,,,
Camargo Club,no email listed; website only for members,(513) 561-7213,"8605 Shawnee Run Rd, Cincinnati, OH ",8605 Shawnee Run Rd, Cincinnati,OH,45243,camargoclub.org/,,,,no account,no page found
Camp Creek,*no email listed,(850) 231-7600,WaterSound,,WaterSound,,32413,http://www.campcreekgolfclub.com/index.php,,,,@campcreekgc,https://www.facebook.com/pages/Camp-Creek-Golf-Club/101671653213864
Canterbury GC,no email listed,(216) 561-1000,"22000 S Woodland Rd, Cleveland, OH ",22000 S Woodland Rd, Cleveland,OH,44122,http://www.canterburygc.org,,,,@cburygolf,no page found
Cantigny,"(Mike Nass, Executive Director) mnass@cantigny.org",(630) 668-3323,"27W270 Mack Rd, Wheaton, IL",27W270 Mack Rd, Wheaton,IL,60189,http://www.cantignygolf.com,,,,@CantignyGolf,https://www.facebook.com/pages/Cantigny-Golf-and-Cantigny-Golf-Academy/203143484888
Canyon River,"*no email listed, contact form",(406) 721-0222,"1268 Bandmann Trail, Missoula, Mt",1268 Bandmann Trail, Missoula,MT,59801,http://canyonriverproperty.com,,,,,https://www.facebook.com/CanyonRiverGolfClub
Cape Cod National,*no email listed,(508) 240-6800,"174 S Orleans Rd, Brewster, MA",174 S Orleans Rd, Brewster,MA,02631,http://www.ccngolf.org,,,,no account,https://www.facebook.com/CapeCodNationalGolfClubLlc
Cape Fear CC,cfcc@capefearcountryclub.net,(910) 762-4751,"1518 Country Club Rd, Wilmington, NC",1518 Country Club Rd, Wilmington,NC,28403,https://www.capefearcountryclub.net,,,,@CFNgolf,https://www.facebook.com/CapeFearNational
Cape Fear National GC,info@capefearnational.com,(910) 383-3283,"1281 Cape Fear National Dr, Leland, NC",1281 Cape Fear National Dr, Leland,NC,28451,http://www.capefearnational.com,,,,not listed on site,https://www.facebook.com/CapeFearNational
Capitol Hill (Judge),CapitolHill@RTJGolf.com,334-285-1114,"2600 Constitution Ave, Prattville, AL",2600 Constitution Ave, Prattville,AL,36066,https://www.rtjgolf.com/capitolhill/,,,starts at $65,@RTJGolf,https://www.facebook.com/rossbridgeresort
Carolina GC,,,"Charlotte, NC",,Charlotte, NC,,,,,,,
Carter Plantation,"(Bill Caldwell, Director of Golf) bcaldwell@carterplantation.com",(225) 294-7555,"23475 Carter Cemetery Rd, Springfield, LA",23475 Carter Cemetery Rd, Springfield, LA,70462,http://www.carterplantation.com/course/,,,,no account,https://www.facebook.com/CarterPlantation
Cascata,cascatagolf@caesars.com,(702) 294-2005,"1 Cascata Dr, Boulder City, NV ",1 Cascata Dr, Boulder City, NV ,89005,http://www2.cybergolf.com/sites/courses/layout9.asp?id=1050&page=61755,,,,@CascataGolf,https://www.facebook.com/CascataGolfClub
Castle Pines GC,"(George Kahrhoff, head golf professional) gkahrhoff@ccofcastlepines.com",(303) 688-6000,"1000 Hummingbird Dr, Castle Rock, CO",1000 Hummingbird Dr, Castle Rock, CO,80108,http://www.ccatcastlepines.com/Club/Scripts/Home/home.asp,,,,no account,no actual page
CC of Buffalo,ccbinfo@ccofbuffalo.org,(716) 632-1100,"250 Youngs Rd, Buffalo, NY",250 Youngs Rd, Buffalo, NY,14221,https://www.ccofbuffalo.org,,,,no account,https://www.facebook.com/pages/Country-Club-of-Buffalo-Golf-Shop/206732242690094
CC of New Hampshire,*no email listed,(603) 927-4246,"178 Kearsarge Valley Rd, North Sutton, NH",178 Kearsarge Valley Rd, North Sutton, NH,03260,http://www.playgolfne.com/ccnh_home/,,,,,
CC of Scranton,info@ccscranton.com,(570) 586-2311,"1001 Morgan Highway Clarks Summit, PA",1001 Morgan Highway ,Clarks Summit, PA,18411,http://www.ccscranton.com,,,,no account,no page found
CC of South Carolina,"(Fred Burnett, General Manager) fburnett@countryclubsc.com",843-669-0920,"        3525 McDonald Blvd, Florence, SC ",        3525 McDonald Blvd, Florence, SC ,29506,http://www.countryclubsc.com,,,,@CountryClubofSC,https://www.facebook.com/TheCountryClubOfSouthCarolina
Century CC,centurymail@centurycc.org,(914) 761-0400,"233 Anderson Hill Rd, Purchase, NY",233 Anderson Hill Rd, Purchase, NY,10577,https://www.centurycc.org,,,,no account,no actual page
Challenge at Manele Bay,concierge.manele@fourseasons.com,1 (808) 565-2000,"1 Challenge Dr, Lanai City, HI ",1 Challenge Dr, Lanai City, HI ,96763,http://www.fourseasons.com/manelebay/services_and_amenities/golf/the_challenge_at_manele/?c=t&_s_icmp=mmenu,,,,@FSLanai,https://www.facebook.com/FourSeasonsResortsLanai
Chambers Bay,info@chambersbaygolf.com,(253) 460-4653,"        6320 Grandview Dr W, University Place, WA",        6320 Grandview Dr W, University Place, WA,98467,http://www.chambersbaygolf.com/-home,,,,@ChambersBayGolf,https://www.facebook.com/ChambersBayGolf
"Champion Lakes
",championlakes@comcast.net,(724) 238-5440,Bolivar,,Bolivar,,15923,http://www.pagolf.com,,,,no account,no actual page
"Champions GC (Cypress Creek)
",*no email listed,(281) 444-6262,"13722 Champions Dr.  Houston, TX",13722 Champions Dr. ,Houston, TX,77069,http://www.championsgolfclub.com,,,,no account,no page found
Chariot Run,*no email,(812) 969-6205,"8191 Chariot Run Dr SE , Laconia, IN",8191 Chariot Run Dr SE , Laconia, IN,47135,http://chariotrun.com,,,,@HorseshoeSI,https://www.facebook.com/chariotrungc
Charles River CC,,(617) 332-1320,"483 Dedham St, Newton, MA",483 Dedham St, Newton, MA,02459,http://www.charlesrivercc.org,,"Par- 72 // 6,657 yards",,,
Charlotte CC,no email listed for general infoâ€” just employment and membership,(704) 334-0836,"2465 Mecklenburg Ave, Charlotte, NC",2465 Mecklenburg Ave, Charlotte, NC,28205,http://www.charlottecountryclub.org/,,,,no account,no actual page
Chechesee Creek,,(843) 987-7000,"18 Schechesseee Creek Dr, Okatie, SC",18 Schechesseee Creek Dr, Okatie, SC,29909,http://www.chechesseecreekclub.com,,,,,
Chena Bend GC,*no listed email (email link ERROR),907-353-6223,"2092 Bldg Gafeney, Fort Wainwright, AK",2092 Bldg Gafeney, Fort Wainwright, AK,99703,http://ftwainwrightfmwr.com/chenabendgolf.html,,Par-72 // 6475 - 7012 yards,$26 - $42 for 18 holes //,not listed on site,not listed on site
Cherokee Hills GC,cherokee.golf@cnent.com,(918) 384-7600,"770 W Cherokee St, Catoosa, OK",770 W Cherokee St, Catoosa, OK,74015,http://www.hardrockcasinotulsa.com/golf/cherokee-hills/,,,,@TulsaHardRock,https://www.facebook.com/HardRockTulsa
Cherry Blossom GCC,cherryblossomgolf@yahoo.com,(502) 570-0530,Georgetown,,Georgetown,,40324,http://www.cherryblossomgolf.com,,,,@CherryBlossomGC,https://www.facebook.com/cherryblossomgolf?rf=175430785841269
Cherry Hills CC,,(303) 350-5200,"4125 S University Blvd, Englewood, CO",4125 S University Blvd, Englewood,,80113,http://www.chcc.com,,,,no account,no actual page
Chicago GC,,,"Wheaton, IL",,Wheaton, IL,,,,,,,
Chicago Highlands,info@chicagohighlands.com,(708) 947-2190,"2 Bluebird Trail, Westchester, IL",2 Bluebird Trail, Westchester,,,,,"Par-72 // 7,500+ yards",,no account,https://www.facebook.com/chihigh
Circling Raven,(Media / Public Relations) pr@cdacasino.com,1-800-523-2464,Worley,,Worley,,83876,https://www.cdacasino.com/golf/,,,,@CirclingRaven1,https://www.facebook.com/circling.raven
Clear Creek,,775-781-3304,"199 Old Clear Creek RoadCarson City, NV",199 Old Clear Creek Road,Carson City, NV,,http://www.clearcreektahoe.com,,,,no account,no page listed
Cliffs at Keowee Vineyards,,,"Sunset, SC",,Sunset, SC,,,,,,,
Cliffs at Mountain Park,,,"Travelers Rest, SC",,Travelers Rest, SC,,,,,,,
Club at Savannah Harbor,"(Dana Schultz, Director of Golf) dana.schultz@westin.com",(912) 201-2240,"2 Resort Dr, Savannah, GA ",2 Resort Dr, Savannah,,31421,http://www.theclubatsavannahharbor.com/index.php,,,,@SavannahHarbor,https://www.facebook.com/TheClubAtSavannahHarbor
Coeur d'Alene Resort,(Media contact) malauddin@blue541.com,208-765-4000,"115 S 2nd St, Coeur d'Alene, ID",115 S 2nd St, Coeur d'Alene,,83814,http://www.cdaresort.com/discover/golf,,,,@CDAResort,https://www.facebook.com/CDAResortGolf
Cog Hill (No. 4-Dubsdread),coghill@coghillgolf.com,866.264.4455,Lemont,,Lemont,,60439,http://www.coghillgolf.com/-home,,,,@CogHillGolf,https://www.facebook.com/pages/Cog-Hill-Golf-Country-Club/78931139310
Colbert Hills,"(Steve Lambert, Generl Manager) stevelambert@colberthills.com",(785) 776-6475,"5200 Colbert Hills Dr, Manhattan, KS ",5200 Colbert Hills Dr, Manhattan, KS ,66503,http://www.colberthills.com/-home,,,,@colbert_hills,https://www.facebook.com/pages/Colbert-Hills/94597926220?rf=156264571057751
Colonial CC,*no email listed,(817) 927-4201,"3735 Country Club Cir, Fort Worth, TX ",3735 Country Club Cir, Fort Worth, TX ,76109,https://www.colonialfw.com,,,,no account,no actual page
Colorado GC,"no email listed, no contact form",(303) 840-0090,"8000 Preservation Trail, Parker, CO",8000 Preservation Trail, Parker, CO,80134,http://www.coloradogolfclub.com/,,,,@ColoradoGC,https://www.facebook.com/ColoradoGolfClub
CommonGround GC,*no email listed,303-340-1520,"10300 E. Golfers Way, Aurora, CO",10300 E. Golfers Way, Aurora, CO,80010,http://www.commongroundgc.com,,,,@CommonGroundGC,https://www.facebook.com/CommonGroundGC
Concession GC,"(Dan Terlescki, head golf professional) dterlescki@concessiongolfclub.com",941.322.1922," 7700 Lindrick Lane, Bradenton, FL", 7700 Lindrick Lane, Bradenton, FL,34202,http://www.theconcession.com/Home.aspx,,,,no account,https://www.facebook.com/pages/The-Concession-Golf-Club/178531878875466
Conestoga GC,"*no email listed, contact form",702.346.4292,Mesquite,,Mesquite,,89034,http://www.conestogagolf.com/index.php,,,,,https://www.facebook.com/ConestogaGolfClub
Congressional CC,,301-469-2000,"8500 River Rd, Bethesda, MD",8500 River Rd, Bethesda, MD,20817,http://www.ccclub.org,,,,,
Conservatory at Hammock Beach,"*no email listed, contact form for guests",(386) 246-6710,"300 Conservatory Drive Palm Coast, FL ",300 Conservatory Drive ,Palm Coast, FL ,32137,"
http://www.hammockbeach.com/golf/hammock-beach-courses/conservatory-course",,,,@HammockResort,https://www.facebook.com/HammockBeachResort
Contraband Bayou GC at L'Auberge,,,Lake Charles,,Lake Charles,,,https://www.llakecharles.com/amenities/golf-course/,,,$39-$99,no account,no account
Coral Canyon,"(Mark Whetzel, Director of Golf) Mark@vanguardgolf.com",(435) 688-1700,"1925 Canyon Greens Dr, Washington, UT ",1925 Canyon Greens Dr, Washington, UT ,84780,http://www.coralcanyongolf.com/index.php,,,,no account,https://www.facebook.com/pages/Coral-Canyon-Golf-Course/106386712742166
CordeValle GC,"(Pieter Ruig, Media Contact) pruig@discovercrc.com",888 966 9511,San Martin,,San Martin,,95046,http://www.cordevallegolf.com,,,,@CordeValleGolf,https://www.facebook.com/cordevallegolf
Cordillera Ranch,*no email listed; contact form available,888-66-RANCH,"808 Hwy 46 East Boerne, TX",808 Hwy 46 ,East Boerne, TX,78006,http://www.cordilleraranch.com,,,,@CordilleraRanch,https://www.facebook.com/Cordillera.Ranch
Country Club of Birmingham (West),no email listed; site for members only,(205) 879-4611,"3325 Country Club Rd, Mountain Brook, AL",3325 Country Club Rd, Mountain Brook, AL,35213,http://www.ccbham.org/,,Par - 36 // 3218 yards,"starts at $125 for 2 players, (min. two players)",no account,no actual page
Country Club of Charleston,,(843) 795-8009,"1 Country Club Dr, Charleston, SC",1 Country Club Dr, Charleston, SC,29412,http://www.countryclubofcharleston.com/,,,,,
Country Club of Detroit,,(313) 881-8000,"220 Country Club Drive - Grosse Pointe Farms, MI",220 Country Club Drive,Grosse Pointe Farms, MI,,http://www.ccofd.com/,,,,,
Country Club of Fairfield,,(203) 259-1601,"936 Sasco Hill Rd, Fairfield, CT",936 Sasco Hill Rd, Fairfield, CT,06824,http://www.ccfairfield.com,,,,,
Country Club of Florida,tccf@ccfgolf.com,(561) 732-9771,"22 Country Rd, Golf, FL ",22 Country Rd, Golf, FL ,33436,http://www.ccfgolf.com,,,,,
Country Club of Rochester,ccofrochester@ccrochester.com,(585) 381-1800,"2935 East Ave, Rochester, NY",2935 East Ave, Rochester, NY,14610,http://www.ccrochester.org/,,,,no account,no actual page
Country Club of Troy,bducatte@countrycluboftroy.com,(518) 274-1000,"100 Troy Country Club Rd, Troy, NY ",100 Troy Country Club Rd, Troy, NY ,12180,http://countrycluboftroy.com,,,,@Troycc,https://www.facebook.com/CountryClubOfTroy
Cowboys,"(Hagen Cleek, General Manager) hcleek@eaglegolf.com",(817) 481-7277,"1600 Fairway Dr, Grapevine, TX ",1600 Fairway Dr, Grapevine, TX ,76051,http://www.cowboysgolfclub.com/-home,,,,not listed on site,not listed on site
Coyote Moon,"(Ed McGargill, General Manager) emcgargill@coyotemoongolf.com",(530) 587-0886,"10685 Northwoods Blvd, Truckee, CA",10685 Northwoods Blvd, Truckee, CA,96161,www.coyotemoongolf.com/,,,$100-$155,not listed on site,https://www.facebook.com/CoyoteMoonGolfCourse
Coyote Springs GC,*no email listed,(702) 422-1400,"3100 Nevada 168, Coyote Springs, NV",3100 Nevada 168, Coyote Springs, NV,89037,http://www.coyotesprings.com/index.html,,,,,https://www.facebook.com/pages/Coyote-Springs-Golf-Club/288271859939
Creek Club,no email listed,(516) 676-1405,"1 Horse Hollow Rd, Locust Valley, NY ",1 Horse Hollow Rd, Locust Valley, NY ,11560,http://www.creek.net,,,,no account,no actual page
Crooked Stick Golf Club,(website won't load),(317) 844-9938,"1964 Burning Tree Ln, Carmel, IN",1964 Burning Tree Ln, Carmel, IN,46032,http://www.crookedstick.org,,,,no account,no actual page
Crooks Creek,call,(740) 983-3636,"16405 U.S. 23, South Bloomfield, OH ",16405 U.S. 23, South Bloomfield, OH ,43103,"
http://www.cookscreek.com",,,,?,?
Crown Colony,"(Lin Lentz, General Manager) llentz@crown-colony.com",(936) 637-8811,"
        900 Crown Colony Dr, Lufkin, TXÂ ","
        900 Crown Colony Dr", Lufkin, TXÂ ,75901,http://www.crown-colony.com,,,,widget brings you to home page,https://www.facebook.com/lufkincrowncolony
Crumpin-Fox,crumpinfox@golfthefox.com,(413) 648-9101,"87 Parmenter Rd, Bernardston, MA",87 Parmenter Rd, Bernardston, MA,01337,http://golfthefox.com/crumpin-fox/,,,,no account,https://www.facebook.com/crumpinfoxclub
Crystal Downs,,(231) 352-9933,"249 Crystal Downs Dr, Frankfort, MI",249 Crystal Downs Dr, Frankfort, MI,49635,?,,,,,
Crystal Springs Resort (Ballyowen),*no email listed,(973) 827-5996,"137 Wheatsworth Rd, Hamburg, NJ",137 Wheatsworth Rd, Hamburg, NJ,07419,http://www.crystalgolfresort.com/Golf/,,,,,
Crystal Springs Resort (Wild Turkey),"*no email listed, contact form",(973) 827-5996,"1 Wild Turkey Way, Hamburg, NJ",1 Wild Turkey Way, Hamburg, NJ,07419,http://www.crystalgolfresort.com/content/article.aspx?SID=2&CID=183&AID=447,,,,@NJGolfResort,https://www.facebook.com/CrystalSpringsResort
Currahee Club,,(706) 827-1700,"Currahee Club Dr, Toccoa, GA",Currahee Club Dr, Toccoa, GA,30577,http://www.curraheeclub.com,,,,,
Cypress Point Club,,(831) 624-2223,"3150 17 Mile Dr, Pebble Beach, CA",3150 17 Mile Dr, Pebble Beach, CA,93953,http://www.montereypeninsulagolf.com/Cypress-Point-Club,,,,no account,no actual page
Dacotah Ridge,*no email listed,(507) 697-8007,"31042 County Highway 2, Morton, MN",31042 County Highway 2, Morton, MN,56270,http://www.dacotahridge.com,,,,@dacotahridge,https://www.facebook.com/dacotahridge
Dalhousie GC,"(Bill Morrow, GM of golf) Bill@dalhousiegolfclub.com",(573) 332-0818,"4700 Cords Way, Cape Girardeau, MO",4700 Cords Way, Cape Girardeau, MO,63701,http://www.dalhousiegolfclub.com,,"Par - 72 // 7,389 yards",,@DalhousieGC,https://www.facebook.com/DalhousieGolfClub
Dallas National GC,"(David Denley, GM) DDenley@DallasNationalGolfClub.com",(214) 331-4195,"1515 Knoxville Street, Dallas, TX",1515 Knoxville Street, Dallas, TX,75211,http://www.dallasnationalgolfclub.com,,,,no account,no actual page
Dancing Rabbit (Azaleas),Mpowell@pearlriverresort.com,(601) 663-0011,"13541 Mississippi 16, Philadelphia, MS",13541 Mississippi 16, Philadelphia, MS,39350,http://www.dancingrabbitgolf.com/azaleas.html,,,,no account,"no real page, but: https://www.facebook.com/pages/Dancing-Rabbit-Inn/286232621476648"
Dancing Rabbit (Oaks),Mpowell@pearlriverresort.com,(601) 663-0011,"13541 Mississippi 16, Philadelphia, MS",13541 Mississippi 16, Philadelphia, MS,39350,http://www.dancingrabbitgolf.com/oaks.html,,,,no account,"no real page, but: https://www.facebook.com/pages/Dancing-Rabbit-Inn/286232621476648"
DarkHorse,"(Geno Ivaldi, Director of Golf) geno@darkhorsegolf.com",(530) 269-7900,"24150 Darkhorse Dr, Auburn, CA",24150 Darkhorse Dr, Auburn, CA,95602,http://www.darkhorsegolf.com,,,,no account,link on website; not a real page
Deacon's Lodge,"*no email listed, contact form",1-800-432-3777,"9348 Arnold Palmer Dr, Breezy Point, MN",9348 Arnold Palmer Dr, Breezy Point, MN,56472,http://www.breezypointresort.com/,,,,no account,https://www.facebook.com/DeaconsLodge
Dedham Country & Polo Club,golf@dedhamclub.org,781 326-3090,"124 Country Club Road - Dedham, MA",124 Country Club Road,Dedham, MA,02026,http://www.dedhamclub.org/,,?,?,,https://www.facebook.com/pages/Dedham-Country-Polo-Club/570769536332167?rf=120110774672872
Deepdale GC,"(Scott Heaney, GM) scott@deepdalegolfclub.com",(516) 365-9111,"300 N Service Rd, Manhasset, NY ",300 N Service Rd, Manhasset, NY ,11030,http://www.deepdalegolfclub.com,,,,no account,no actual page
Deerfield Golf,dfinfo@deerfieldgolfclub.com,302-368-6640,Newark,,Newark,,19711,http://www.deerfieldgolfclub.com,,,,@DeerfieldGTC,https://www.facebook.com/deerfieldde
Delaware Springs GC,dsprings@cityofburnet.com,(512) 756-8471,"600 Delaware Springs Blvd. Burnet, TX",600 Delaware Springs Blvd.,Burnet, TX,78611,"
http://www.delawaresprings.com",,"Par 72, 6891-4931 yards",,not listed on site,https://www.facebook.com/delawarespringsgolfcourse
Desert Canyon,info@desertcanyon.com,(509) 784-1111,"1201 Desert Canyon Blvd, Orondo, WA",1201 Desert Canyon Blvd, Orondo, WA,98843,http://www.desertcanyon.com,,,,@DesertCanyonGC,https://www.facebook.com/pages/Desert-Canyon-Golf-Resort/112243078838358
Desert Forest Golf Club,"(Roger Bacon, club magager) rbacon@desertforestgolfclub.com",(480) 488-4589,"37207 N. Mule Train Road, Carefree, AZ",37207 N. Mule Train Road, Carefree, AZ,85377,http://www.desertforestgolfclub.com,,,,no account,no actual page
Desert Highlands,,,"Scottsdale, AZ",,Scottsdale, AZ,,http://www.deserthighlandsscottsdale.com/golf,,,,,
Devil's Thumb,"*no email listed, contact form (asks for phone number on form) ",(970) 874-6262,"3530 County Highway 83, Tabernash, CO ",3530 County Highway 83, Tabernash, CO ,81416,http://www.devilsthumbgolfclub.com,,,,@GolfDevilsThumb,https://www.facebook.com/devilsthumbgolf
Diamond Creek GC,"no email listed, but media contact -- jmcneely@diamondcreekgc.com",(828) 898-1800,"25 Rock Rose, Banner Elk, NC",25 Rock Rose, Banner Elk, NC,28604,http://www.diamondcreekgc.com,,,,no account,no actual page
Dismal River Club (Doak),genmail@dismalriver.com,308-546-2900,"Mullen, NE",,Mullen, NE,69152,,,,,@DismalRiver,https://www.facebook.com/DismalRiverGolfClub
Dismal River Club (Niklaus),,,"Mullen, NE",,Mullen, NE,,,,,,@DismalRiver,https://www.facebook.com/DismalRiverGolfClub
Dormie Club,"(Dean Allgeyer, Director of Golf) deana@dormieclub.com",(910) 947-3240,"6033 Beulah Hill Church Rd, West End, NC ",6033 Beulah Hill Church Rd, West End, NC ,27376,http://www.dormieclub.com,,,,not listed on site,https://www.facebook.com/DormieClub
Double Eagle GC,,(740) 548-4017,"6025 Cheshire Road, Galena, OH",6025 Cheshire Road, Galena, OH,43021,http://www.doubleeagleclub.net,,,,,
Duke University GC,"*no email listed, contact form",(919) 681-2288,"3001 Cameron Blvd, Durham, NC",3001 Cameron Blvd, Durham, NC,27705,http://golf.duke.edu,,,,not listed on site,not listed on site
Dunes Club,,(269) 469-5539,"10600 Marquette Dr, New Buffalo, MI",10600 Marquette Dr, New Buffalo, MI,49117,no website?,,,,,
"Dunes Golf, Beach Club",bgreenwood@thedunesclub.net,(843) 449-5236,"9000 N Ocean Blvd, Myrtle Beach, SC ",9000 N Ocean Blvd, Myrtle Beach, SC ,29572,http://www.thedunesclub.net,,,,not listed on site,https://www.facebook.com/TheDunesClub
Eagle Point Club,,,"Wilmingon, NC",,Wilmingon, NC,,,,,,,
Eagle Ridge (The General),*no email listed,(815) 777-5000,"109 Eagle Ridge Dr, Galena IL ",109 Eagle Ridge Dr, Galena,IL,61036,http://www.eagleridge.com/golf/courses-en.html,,,,@EagleRidge63,https://www.facebook.com/EagleRidgeResort
Eagleglen,*no listed email,907-552-3821,"4414 1st St, Joint Base Elmendorf-Richardson, AK",4414 1st St, Joint Base Elmendorf-Richardson, AK,99506,no website?,,,,no account,no actual page
EagleSticks GC,info@eaglesticks.com,(740) 454-4900,"2655 Maysville Pike, Zanesville, OH",2655 Maysville Pike, Zanesville, OH,43701,http://www.eaglesticks.com,,,,not listed on site,https://www.facebook.com/eaglesticksgolfclub
East Lake GC,administration@eastlakegolfclub.com,(404) 373-5722,"2575 Alston Dr SE, Atlanta, GA",2575 Alston Dr SE, Atlanta, GA,30317,http://www.eastlakegolfclub.com,,,,,
Eastward Ho!,,(508) 945-0003,"325 Fox Hill Rd, Chatham, MA",325 Fox Hill Rd, Chatham, MA,02633,http://www.eastwardho.org,,,,,
Edgewood Tahoe,edgewood@edgewoodtahoe.com,(775) 588-2787,Tahoe,,Tahoe,,89449,http://www.edgewoodtahoe.com,,,,@EdgewoodTahoe,https://www.facebook.com/EdgewoodTahoe
Ekwanok CC,clubhouse@ekwanok.com,(802) 362-2220,"3262 Main St, Manchester, VT",3262 Main St, Manchester, VT,05254,http://www.ekwanok.com/,,,,no account,no actual page
Elyria CC,"Doesn't say his title, just to contact him for info - Nick Fox - nickfox@pga.com",(440) 322-6391,"41625 Oberlin Elyria Rd, Elyria, OH",41625 Oberlin Elyria Rd, Elyria, OH,44035,http://www.elyriacc.com,,,,@ElyriaCC,https://www.facebook.com/pages/Elyria-Country-Club/160421497348162
Emerald Dunes,,(561) 687-1700,"2100 Emerald Dunes Dr, West Palm Beach, FL",2100 Emerald Dunes Dr, West Palm Beach, FL,33411,http://emeralddunesclub.com,,,,,
Engineers CC,contact@engineerscc.com,(516) 621-5350,"55 Glenwood Rd, Roslyn, NY",55 Glenwood Rd, Roslyn, NY,11576,http://www.engineerscc.com,,,,no account,no actual page
Entrada at Snow Canyon,"*no email listed, contact form",(435) 986-2200,"2537 W Entrada Trail, St George, UT ",2537 W Entrada Trail, St George, UT ,84770,"
http://www.golfentrada.com",,,,no account,no real page
Erin Hills,info@erinhills.com,(262) 670-8600,"7169 County Highway O, Hartford, WI",7169 County Highway O, Hartford, WI,53027,https://www.erinhills.com/default.aspx,,,,@ErinHillsGolf,https://www.facebook.com/ErinHillsGolf
Escondido,info@escondidotexas.com,(830) 598-6311,"9090 Farm to Market 2147, Horseshoe Bay, TX ",9090 Farm to Market 2147, Horseshoe Bay, TX ,78657,http://www.escondidotexas.com,,,,@GolfEscondido,https://www.facebook.com/EscondidoTexas
Essex CC,info@essexcc.org,978-526-7311,"Manchester-by-the-Sea, MA",,Manchester-by-the-Sea, MA,01944,http://www.essexcc.org/,,,,,
Essex County CC,DPereira@essexcountycc.com,(973) 731-1400,"350 Mt Pleasant Ave, West Orange, NJ",350 Mt Pleasant Ave, West Orange, NJ,07052,http://www.essexcountycc.com/,,,,,
Estancia,lwacaser@estanciaclub.com,480) 473-4400,"27998 N 99th Pl, Scottsdale, AZ",27998 N 99th Pl, Scottsdale, AZ,85262,http://www.estanciaclub.com,,,,no account,no account
Eugene CC,"(Bill Morach, head golf professional) billm@eugenecountryclub.com",(541) 345-0181,"255 Country Club Rd, Eugene, OR",255 Country Club Rd, Eugene, OR,97401,http://www.eugenecountryclub.com,,,,@EugeneCC,https://www.facebook.com/pages/Eugene-Country-Club/294833300589086
Fallen Oak,*no email listed,(228) 386-7015,"24400 Mississippi 15, Saucier, MS",24400 Mississippi 15, Saucier, MS,39574,http://www.fallenoak.com/-home,,,,,
Farm Neck,farmneckgolfclub@farmneck.net,(508) 693-3057,"1 Farm Neck Way, Martha's Vineyard, MA ",1 Farm Neck Way, Martha's Vineyard, MA ,02568,http://www.farmneck.net/Club/Scripts/Home/home.asp,,,,no account,https://www.facebook.com/FarmNeckCafe?rf=123867927664501
FarmLinks at Pursell,information@pursellfarms.com,877-292-3276,"        2200 Farm Links Blvd, Sylacauga, AL",        2200 Farm Links Blvd, Sylacauga, AL,35151,http://pursellfarms.com,Latitude : 33.117487  Longitude : -86.419754,"Par - 72 // 7,444 yards",?,@PursellFarms,https://www.facebook.com/pursellfarms
Fenway GC,no email listed,(914) 723-6000,"7 Old Mamaroneck Road â€¢ Scarsdale, NY",7 Old Mamaroneck Road,Scarsdale,NY,10583,http://www.fenwaygolfclub.com,,,,@FenwayGC,no actual page
Firekeeper GC,help@firekeepergolf.com,(785) 966-2100,"12524 150th Rd, Mayetta, KS",12524 150th Rd, Mayetta, KS,66509,http://www.firekeepergolf.com/-about-us,,,,@firekeepergolf,https://www.facebook.com/firekeepergolf
Firestone CC (South),*no email listed; contact form,(330) 644-8441,"452 E Warner Rd, Akron, OH ",452 E Warner Rd, Akron, OH ,44319,http://www.clubcorp.com/Clubs/Firestone-Country-Club,,,,,https://www.facebook.com/FirestoneCountryClub
Fishers Island GC,no email listed; website is for members only,(631) 788-7221,"20449 E Main Rd, Fishers Island, NY",20449 E Main Rd, Fishers Island, NY,06390,http://www.fishersislandclub.com,,,,no account,no actual page
Flint Hills National,denise_pitts@flinthillsnational.com,(316) 733-7272,"# 1 Flint Hills National Dr, Andover, KS",# 1 Flint Hills National Dr, Andover, KS,67002,http://flinthillsnational.com,,Par- 71 //,?,no account,no actual page
Flossmoor CC,,(708) 798-4700,"1441 Western Ave, Flossmoor, IL ",1441 Western Ave, Flossmoor, IL ,60422,http://www.flossmoorcc.org,,,,no account,https://www.facebook.com/flossmoorcountryclub
Forest Creek GC (North),no email listed; contact form available,(910) 693-1996,"200 Meyer Farm Dr, Pinehurst, NC ",200 Meyer Farm Dr, Pinehurst, NC ,28374,http://www.forestcreekgolfclub.com,,,,no account,no actual page
Forest Creek GC (South),no email listed; contact form available,(910) 693-1996,"200 Meyer Farm Dr, Pinehurst, NC ",200 Meyer Farm Dr, Pinehurst, NC ,28374,http://www.forestcreekgolfclub.com,,,,no account,no actual page
Forest Dunes,"*no email listed, contact form (asks for phone number and mailing address)",(989) 275-0700,"6376 Forest Dunes Dr, Roscommon, MI
",6376 Forest Dunes Dr, Roscommon," MI
",48653,http://www.forestdunesgolf.com,,,,@forestdunesgolf,https://www.facebook.com/fdunes?ref=br_tf
Forest Highlands (Canyon),"no email listed, contact form",(928) 525-5200,"2425 William Palmer, Flagstaff, AZ",2425 William Palmer, Flagstaff, AZ,86001,http://www.fhgc.com,,,,no account,https://www.facebook.com/fhgcusgirlsjunior
Forest Ridge GC,info@forestridge.com,(918) 357-2282,"7501 E Kenosha St, Broken Arrow, OK",7501 E Kenosha St, Broken Arrow, OK,74014,http://forestridgegolf.com,,"Par 71, 7083 yards; Par 72, 6826 - 5341 yards",$38 - $70,@ForestRidgeGC,https://www.facebook.com/forestridgegolfclub
Fort GC,,,,,,,,,,,,,
"Fox Chapel GC
",,,,,,,,,,,,,
Fox Hopyard,foxhopyard@golfthefox.com,(860) 434-6644,"Fox Hopyard Rd, East Haddam, CT",Fox Hopyard Rd, East Haddam, CT,06423,http://www.golfthefox.com,,,,not listed on site,https://www.facebook.com/pages/Fox-Hopyard-Golf-Club/189445497770534
Franklin HIlls CC,,,"Farmington Hills, MI",,Farmington Hills, MI,,,,,,,
Frederica GC,,(912) 634-6900,"100 Pikes Bluff Dr, St Simons Island, GA ",100 Pikes Bluff Dr, St Simons Island, GA ,31522,http://www.fredericaliving.com/frederica-golf-club,,,,,
French Lick Resort (Dye),?,888.936.9360,French Lick,,French Lick,,,http://www.frenchlick.com/golf/petedye,,,,@FrenchLickResor,https://www.facebook.com/golffrenchlick
French Lick Resort (Ross),?,888.936.9360,French Lick,,French Lick,,,http://www.frenchlick.com/golf/donaldross,,,,@FrenchLickResor,https://www.facebook.com/golffrenchlick
Friar's Head,*no email listed,(631) 722-5200,"3000 Sound Ave, Riverhead, NY ",3000 Sound Ave, Riverhead, NY ,11901,http://www.friarshead.org,,,,no account,no actual page
Galloway National Golf Club,,(609) 748-1000,"270 S New York Rd, Galloway, NJ",270 S New York Rd, Galloway, NJ,08205,http://www.gallowaynationalgolf.com,,,,no account,no actual page
Garden City GC,"(Sam Nerses, GM) SamNerses@gardencitycountryclub.org",(516) 747-2929,"Garden City, NY",,Garden City, NY,11530,http://www.gardencitycountryclub.org,,,,no account,no actual page
"Gasparilla Inn, Club ","*no email listed, contact form",(941) 964-4500,"500 Palm Ave, Boca Grande, FL",500 Palm Ave, Boca Grande, FL,33921,http://www.the-gasparilla-inn.com,,,,no account,https://www.facebook.com/GasparillaInn
Gateway National Golf Links,"*no email listed, contact form (asks for mailing address)",(618) 482-4653,"18 Golf Dr, Madison, IL",18 Golf Dr, Madison, IL,62060,http://gatewaynational.com,,,,@GatewayNational,https://www.facebook.com/gatewaynational
Gaylord Springs GL,amcclane-bunn@gaylordhotels.com,(615) 458-1730,"18 Springhouse Ln, Nashville, TN",18 Springhouse Ln, Nashville, TN,37214,http://www.gaylordsprings.com,,,,@GaylordSprings,https://www.facebook.com/GaylordSpringsGolf
"GC at Glen Mills
",inquiries@glenmillsgolf.com,(610) 558-2142,"221 Glen Mills Rd, Glen Mills, PA",221 Glen Mills Rd, Glen Mills, PA,19342,http://www.glenmillsgolf.com,,,,no account,https://www.facebook.com/pages/Golf-Course-At-Glen-Mills/100857876625561
GC at Sand Hollow (Championship),"*no email listed, contact form",(435) 656-4653â€Ž," 5662 W Clubhouse Drive Hurricane, Ut", 5662 W Clubhouse Drive ,Hurricane,UT,84737,http://www.sandhollowresorts.com/championship-course/,,"Par & yardage  72, 7400",Oct-May $55-$125 June-Sept $40-$70,widget doesn't work,https://www.facebook.com/SandHollowGolf
Geneva National GC (Gary Player),inns@gnresort.com,(262) 245-7000,"
        1221 Geneva National Ave S, Lake Geneva, WI","
        1221 Geneva National Ave S", Lake Geneva, WI,53147,http://www.genevanationalresort.com,,,,@GNationalGolf,https://www.facebook.com/genevanationalgolf
Genoa Lakes (Ranch),"(Lou Eiguren, Director of Golf) lou@genoalakes.com",775-782-7700,"1 Genoa Lakes Dr, Genoa, NV",1 Genoa Lakes Dr, Genoa, NV,89411,http://www.genoalakes.com/golf/,,,,@genoalakes,https://www.facebook.com/pages/Genoa-Lakes-Golf-Club-and-Resort/199570897243
George Wright Municipal GC,?,?,Boston,,Boston,MA,,,,,,?,?
"Giants Ridge Golf, Ski Resort (Quarry)",info@giantsridge.com,(800) 688-7669,"6325 Wynne Creek Dr, Biwabik, MN",6325 Wynne Creek Dr, Biwabik, MN,55708,http://www.giantsridge.com,,,,@GiantsRidge,https://www.facebook.com/GiantsRidge
Glenwild GC,*no email listed for golf,(435) 615-9966,"
7600 Glenwild Drive Park City, UT","
7600 Glenwild Drive ",Park City, UT,84098,http://www.glenwild.com/privategolfcourse/privategolfclub/,,"Par - 71 // 7,541 yards",,@GlenwildGolf,https://www.facebook.com/pages/Glenwild-Golf-Club-Spa/215463418481422
Gold Canyon Golf Resort (Dinosaur Mountain),"(Carlo Karim, Managing Partner)   carlok@gcgr.com",480-982-9090,"6100 S Kings Ranch Rd, Gold Canyon, AZ",6100 S Kings Ranch Rd, Gold Canyon, AZ,85118,http://www.gcgr.com/-dinosaur-mountain,,,,widget brings you to home page,https://www.facebook.com/GoldCanyonRVResort
Gold Mountain (Olympic),info@goldmt.com,(360) 415-5432,"7263 W Belfair Valley Rd, Bremerton, WA ",7263 W Belfair Valley Rd, Bremerton, WA ,98310,"
http://www.goldmountaingolf.com/-home",,,,@GoldMtGolf,https://www.facebook.com/goldmountaingolf
Golden Eagle GC at Tides Inn,golf@tidesinn.com,800.843.3746,"364 Clubhouse Rd, Irvington, VA ",364 Clubhouse Rd, Irvington, VA ,22480,http://www.tidesinn.com/golden-eagle-golf/,,,,no account,https://www.facebook.com/tidesinnvirginia
Golden Horseshoe (Gold),(Media contact) bbrown@cwf.org,(757) 220-7696,Williamsburg,,Williamsburg,,23185,http://www.colonialwilliamsburg.com/do/wellness-and-recreation/golf/golf-courses/gold-course/,,,,@colonialwmsburg,https://www.facebook.com/ColonialWilliamsburg
Golden Valley Golf & CC,info@gvgcc.com,(763) 732-4100,"7001 Golden Valley Rd, Golden Valley, MN",7001 Golden Valley Rd, Golden Valley, MN,55427,http://www.gvgcc.com/,,?,?,@GVGCC,https://www.facebook.com/GoldenValleyCountryClub
Golf Club at Cuscowilla,"*no email, contact form",(706) 484-0050,"126 Cuscowilla Dr, Eatonton, GA",126 Cuscowilla Dr, Eatonton, GA,31024,"
http://www.cuscowilla.com",,,,@Cuscowilla,https://www.facebook.com/pages/Cuscowilla-Lake-Resort-and-Golf-Club-On-Lake-Occone/266027783407638
Golf Club at Dove Mountain (Saguaro /Tortolita),"(Michael Rushing, General Manager) mrushing@gcdovemtn.com",888-603-7600,"Marana, AZ",,Marana, AZ,85658,http://www.thegolfclubatdovemountain.com,,not listed on site,not listed on site,@DoveMountain,https://www.facebook.com/TheGolfClubAtDoveMountain?ref=br_tf
Golf Club at Red Rock,"(Jason Young, Golf pro) Jasonyoung@pga.com",(605) 718-4710,Rapid City,,Rapid City,,57702,http://www.golfclubatredrock.com,,,,not listed on site,not listed on site
Golf Club of Estrella,"*no email listed, contact form","(623) 386-2600

","11800 S Golf Club Dr, Goodyear, AZ",11800 S Golf Club Dr, Goodyear, AZ,85338,"
http://www.estrellagolf.com/index.php",,,,no account,https://www.facebook.com/estrellagolf
Golf Club of Tennessee,"(Robby Watson, GM) RobbyWatson@TheGolfClubofTN.com",615-952-2025,"1000 Golf Club Drive Kingston Springs, TN",1000 Golf Club Drive ,Kingston Springs, TN,37082,http://www.thegolfcluboftn.com,,,,@TheGolfClubofTN,https://www.facebook.com/pages/The-Golf-Club-of-TN/388255463408
Gozzer Ranch GC,sales@gozzerranchclub.com,(208) 665-6600,"5945 S Buckrail Rd, Harrison, ID ",5945 S Buckrail Rd, Harrison, ID ,83833,http://gozzerranchclub.com,,,,@GozzerRanchGolf,no actual page
Grand Bear,*no email listed,(228) 539-7806,"12040 Grand Way Blvd, Saucier, MS",12040 Grand Way Blvd, Saucier, MS,39574,http://www.harrahs.com/golf/GrandBear/,,,,@GrandBearGolf,https://www.facebook.com/GrandBearGolfCourse
Grand Cypress (New),teetimes@grandcypress.com,Tee Times: (407)239-1909; Pro Shop: (407)239-3620,"One North Jacaranda, Orlando, FL",One North Jacaranda, Orlando, FL,32836,http://www.grandcypress.com,,"5,314 - 6,851 yards Par 72",$150 (January - April); $99 (May 1 - September 30); $125 (October 1 - December 31),@Grand_Cypress,https://www.facebook.com/grandcypressgolf
Grand Cypress (North /South),teetimes@grandcypress.com,Tee Times: (407)239-1909; Pro Shop: (407)239-3620,"One North Jacaranda, Orlando, FL",One North Jacaranda, Orlando, FL,32836,http://www.grandcypress.com/golf_club/orlando_golf_courses/,,"5,204 - 7,136 yards Par 72",$150 (January - April); $99 (May 1 - September 30); $125 (October 1 - December 31),@Grand_Cypress,https://www.facebook.com/grandcypressgolf
Grand National (Lake),grandnational@rtjgolf.com,334-749-9042,"3000 Robert Trent Jones Trail, Opelika, AL",3000 Robert Trent Jones Trail, Opelika, AL,36801,http://www.rtjgolf.com/grandnational/,,,starts at $65,@RTJGolf,https://www.facebook.com/rossbridgeresort
Grand National (Links),grandnational@rtjgolf.com,334-749-9042,"3000 Robert Trent Jones Trail, Opelika, AL",3000 Robert Trent Jones Trail, Opelika, AL,36801,http://www.rtjgolf.com/grandnational/,,,starts at $65,@RTJGolf,https://www.facebook.com/rossbridgeresort
Grandfather G&CC,no email listed; contact form available,(828) 898-4531,"2120 N Carolina 105, Linville, NC",2120 N Carolina 105, Linville, NC,28646,http://www.grandfatherclubnc.com,,,,no account,no actual page
Great River,*no email listed,(203) 876-8051,"130 Coram Ln, Milford, CT",130 Coram Ln, Milford, CT,06461,http://greatrivergolfclub.com,,,,@GreatRiver_Golf,https://www.facebook.com/pages/Great-River-Golf-Club/121352764556341
Greenville CC (Chanticleer),,,"Greenville, SC",,Greenville, SC,,,,,,,
Greyhawk (Raptor),"(Joe Shershenovich, Director of Golf) dog@grayhawkgolf.com",480.502.1800,"8620 E Thompson Peak Pkwy, Scottsdale, AZ",8620 E Thompson Peak Pkwy, Scottsdale, AZ,85255,http://grayhawkgolf.com/golf/raptor-course/,,,,@GrayhawkGolf,https://www.facebook.com/GrayhawkGolfClub
Greyhawk (Talon),"(Joe Shershenovich, Director of Golf) dog@grayhawkgolf.com",480.502.1800,"8620 E Thompson Peak Pkwy, Scottsdale, AZ",8620 E Thompson Peak Pkwy, Scottsdale, AZ,85255,http://grayhawkgolf.com/golf/talon-course/,,,,@GrayhawkGolf,https://www.facebook.com/GrayhawkGolfClub
Greystone,information@baltimoregolfing.com,(410) 887-1945,"2115 White Hall Rd, White Hall, MD",2115 White Hall Rd, White Hall, MD,21161,http://www.baltimoregolfing.com/-greystone,,,,not listed on site,https://www.facebook.com/BaltimoreCountyGolf
Greywalls at Marquette GC,"(Craig Moore, Grounds Superintendent) craig.moore@marquettegolfclub.com",906-225-0721,"1075 Grove St., Marquette, MI",1075 Grove St., Marquette, MI,49855,http://www.marquettegolfclub.com,,,,@MarquetteGolf,https://www.facebook.com/pages/Marquette-Golf-Club/197841070236990
Grove Park Inn,"(Tracey Johnston-Crum, media contact) tracey.johnston@omnihotels.com",(828) 252-2711,"290 Macon Ave, Asheville, NC",290 Macon Ave, Asheville, NC,28804,http://www.groveparkinn.com,,,,not listed on site,not listed on site
Gulph MIlls GC,,(610) 828-0717,"200 Swedeland Rd, Conshohocken, PA",200 Swedeland Rd, Conshohocken, PA,19428,,,,,,
Hamilton Farm,,(908) 901-4000,"1040 Pottersville Rd, Gladstone, NJ ",1040 Pottersville Rd, Gladstone, NJ ,07934,http://www.hamiltonfarmgolfclub.com,,,,,
Harbor Club,"(Brandon Matney, General Manager) bmatney@harborclub.com",(800) 505-4653,"
1111 Polo Circle, Suite 102, Greensboro, GA","
1111 Polo Circle, Suite 102", Greensboro, GA,30642,http://www.harborclub.com,,,,@theharborclub,https://www.facebook.com/HarborHills
Harborside International (Starboard),"(Dean Lytton, General Manager) dlytton@kempersports.com",(312) 782-7837,Chicago,,Chicago,IL,60617,http://www.harborsideinternational.com,,,,no account,https://www.facebook.com/HarborsideInternationalGolfCenter
Harbour Town GL,"*no email listed, contact form for future guests",(843) 363-8385,"11 Lighthouse Ln, Hilton Head Island, SC ",11 Lighthouse Ln, Hilton Head Island, SC ,29928,https://www.seapines.com/golf/harbour-town-golf-links.aspx,,,,not listed on site,https://www.facebook.com/seapinesresort
Harrison Hills,proshop@harrisonhills.com,765-762-1135,"413 East New Street, Attica, IN",413 East New Street, Attica, IN,47918,https://www.harrisonhills.com,,,,@HarrisonhillsCC,https://www.facebook.com/pages/Harrison-Hills/103995479646436
Hart Ranch GC,golf@hartranch.com,(605) 341-5703,"23645 Clubhouse Drive, Rapid City, SD ",23645 Clubhouse Drive, Rapid City, SD ,57702,https://www.hartranch.com,,,,not listed on site,https://www.facebook.com/HartRanchGolfCourse
Harvester,toddmpetersen@yahoo.com,(641) 227-4653,"833 Foster Dr, Rhodes, IA",833 Foster Dr, Rhodes, IA,50234,http://www.harvestergolf.com,,,,@TheHarvesterGC,https://www.facebook.com/pages/The-Harvester-Golf-Club/129473703770495?rf=162858620438097
Hawk Hollow (Eagle Eye),*no email listed,(517) 641-4570,Bath,,Bath,,48808,http://www.hawkhollow.com/eagle_eye_about.php,,,,@Hawkhollowgolf,https://www.facebook.com/pages/Eagle-Eye-and-Hawk-Hollow-Golf/194080646363
Hawk's Ridge,,,"Ball Ground, GA",,Ball Ground, GA,,,,,,,
Hawktree,"*no listed email, contact form (asks for address)",(701) 355-0995,"3400 Burnt Creek Loop, Bismarck, ND",3400 Burnt Creek Loop, Bismarck, ND,58503,http://www.hawktree.com/homepage/start_page.php,,,,not listed on site,not listed on site
Hawthorne Valley CC,bzeman@hawthornevalleycc.com,(440) 232-1400,"27840 Aurora Rd., Solon, OH",27840 Aurora Rd., Solon, OH,44139,http://www.hawthornevalleycc.com,,,,twitter link takes you to home page,https://www.facebook.com/pages/Hawthorne-Valley-Golf-Club/186580954723175
Haymaker,golf@haymakergolf.com,(970) 870-1846,"34855 U.S. 40, Steamboat Spgs, CO",34855 U.S. 40, Steamboat Spgs, CO,80487,https://www.haymakergolf.com,,,,@HaymakerGC,https://www.facebook.com/pages/Haymaker-Golf-Course/243377006309
Hazeltine National GC,*no email listed,(952) 556-5400,"1900 Hazeltine Blvd, Chaska, MN",1900 Hazeltine Blvd, Chaska, MN,55318,http://hazeltinenational.com,,,,@HazeltineNatlGC,https://www.facebook.com/HazeltineNationalGolfClub
Heritage Hill,"(Michael McDade, Director of Golf Operations) 
michael@hhgolfclub.com",(502) 531-0606,"1050 Valley View Dr, Shepherdsville, KY",1050 Valley View Dr, Shepherdsville, KY,40165,http://www.hhgolfclub.com,,,,@HHGolfResort,https://www.facebook.com/heritagehillsgolfclub
Hermitage (President's Reserve),*no email listed; contact form available,(615) 847-4001,"3939 Old Hickory Blvd, Old Hickory, TN ",3939 Old Hickory Blvd, Old Hickory, TN ,37138,http://hermitagegolf.com,,,,@HermitageGolf,https://www.facebook.com/HermitageGolfCourse
Heron Point by Pete Dye,*no email listed - used contact form for resort,1-866-561-8802,Hilton Head Island,,Hilton Head Island,SC,29928,https://www.seapines.com/golf/heron-point-by-pete-dye.aspx,,,,not listed on site,https://www.facebook.com/seapinesresort
Hershey CC (West),"(Ned Graff, General Manager and Director of Golf) ngraff@HersheyPA.com",717-533-2360,"1000 E Derry Rd, Hershey, PA ",1000 E Derry Rd, Hershey, PA ,17033,http://www.hersheycountryclub.com/golf/index.php,,,,no account,https://www.facebook.com/HersheyCountryClub
Hidden Creek GC,"(Lori Burke, general manager) lburke@hiddencreekclub.com",(609) 909-2990,"75 Asbury Rd, Egg Harbor Twp, NJ",75 Asbury Rd, Egg Harbor Twp, NJ,08234,http://www.hiddencreekclub.com,,,,@HiddenCreekGC,https://www.facebook.com/pages/Hidden-Creek-Golf-Club/123988830988586
"Hidden River Golf, Casting Club","(Jerry Roman, Golf Professional) jroman@boyne.com",(231) 529-4653,"7688 Maple River Rd, Brutus, MI",7688 Maple River Rd, Brutus, MI,49716,http://www.hiddenriver.com/-home,,,,no account,https://www.facebook.com/hiddenrivergolf
Hideout GC,"*no email listed, contact form (asks for phone number)",(435) 587-2200,"549 South Main Street, Monticello, Ut",549 South Main Street, Monticello, Ut,84535,http://www.hideoutgolf.com,,"Par 72, 6654-4895 yards",$42,no account,https://www.facebook.com/pages/The-Hideout-Golf-Club/299224370158315
Highland Course at Primland,golf@primland.com,(276) 222-3800,"2000 Busted Rock Rd, Meadows of Dan, VA ",2000 Busted Rock Rd, Meadows of Dan, VA ,24120,http://primland.com,,,,@primland,https://www.facebook.com/Primland
Highlands of Elgin,vogt_j@cityofelgin.org,(847) 931-5950,"875 Sports Way, Elgin, IL",875 Sports Way, Elgin, IL,60123,http://highlandsofelgin.com,,,,not listed on site,https://www.facebook.com/thehighlandsofelgin
Hillcrest GCC,hillcrestoffice@hillcrestyankton.com,(605) 665-4522," 2206 Mulberry St, Yankton, SD", 2206 Mulberry St, Yankton, SD,57078,http://www.hillcrestyankton.com,,,,@GolfHillcrest,https://www.facebook.com/Hillcrestgcc
Hollywood GC,info@hollywoodgolfclub.org,(732) 531-0900,"510 Roseld Ave, Deal, NJ ",510 Roseld Ave, Deal, NJ ,07723,http://www.hollywoodgolfclub.org/,,,,,
Holston Hills CC,"(Chris Dibble, head golf professional) cdibble@holstonhills.com",(865) 523-4119,"5200 Holston Hills Rd, Knoxville, TN",5200 Holston Hills Rd, Knoxville, TN,37914,http://www.holstonhills.com,,,,no account,https://www.facebook.com/holstonhills
Homestead Resort (Cascades),"(Laura Lopez, media contact) laura@hawkpr.com",(800) 838-1766,"1766 Homestead Dr, Hot Springs, VA ",1766 Homestead Dr, Hot Springs, VA ,24445,http://www.thehomestead.com/golf,,,,@OmniHomestead,https://www.facebook.com/OmniHomesteadResort
Honors Course,admin@honorscourse.net,423.238.4272,"9603 Lee Highway, Ooltewah, TN",9603 Lee Highway, Ooltewah, TN,37422,http://www.honorscourse.net/,,,,no account,no actual page
Hot Springs CC (Arlington),*no email listed,(501) 623-4981,"101 Country Club Dr, Hot Springs, AR",101 Country Club Dr, Hot Springs, AR,71901,http://www.hotspringscc.com/jclub/website.home,,,,@HotSpringsCVB,not listed on site
Hot Springs CC (Park),*no email listed,(501) 623-4981,"101 Country Club Dr, Hot Springs, AR",101 Country Club Dr, Hot Springs, AR,71901,http://www.hotspringscc.com/jclub/website.home,,,,@HotSpringsCVB,no real page
Hualalai GC (Emerald),,,Kona,,Kona,HI,,,,,,,
Hudson National,no email listed,914-271-7600,"40 Arrowcrest Dr - Croton on Hudson, NY",40 Arrowcrest Dr ,Croton on Hudson, NY,10520,http://www.hudsonnational.org/,,,,no account,no actual page
Huntingdon Valley CC,jstatton@hvccpa.org,(215) 657-1610,"2295 Country Club Dr, Huntingdon Valley, PA",2295 Country Club Dr, Huntingdon Valley, PA,19006,http://www.hvccpa.org,,,,no account,https://www.facebook.com/pages/Huntingdon-Valley-Country-Club-Huntingdon-Valley-Pa/171528342880465
Huntsman Springs,nfo@huntsmansprings.com,(208) 354-9660,"501 Huntsman Springs Dr, Driggs, ID",501 Huntsman Springs Dr, Driggs, ID,83422,www.huntsmansprings.com/,,,,@HuntsmanSpring1,https://www.facebook.com/HuntsmanSprings
Hyannisport Club,,,"2 Irving Ave, Hyannis Port, MA",2 Irving Ave, Hyannis Port, MA,02647,http://www.hyannisportclub.com,,,,,
Hyatt Chesapeake Bay (River Marsh),?,(410) 901-1234,"100 Heron Blvd, Cambridge, MD",100 Heron Blvd, Cambridge, MD,21613,http://www.chesapeakebay.hyatt.com/en/hotel/golf.html,,,,@HyattChesapeake,https://www.facebook.com/HyattRegencyChesapeakeBay
Idle Hour CC,julie@idlehour.cc,(859) 266-1121,"1815 Richmond Road, Lexington, Kentucky ",1815 Richmond Road, Lexington,KY,40502,https://www.idlehourky.com,,?,?,no account,no page found
Incline Village (Championship),"*no email listed, contact form",(775) 832 1143,"955 Fairway Blvd, Incline Village, NV 89451",955 Fairway Blvd, Incline Village, NV,89451,http://www.golfincline.com,,,,@Golf_Incline,https://www.facebook.com/inclinevillagegolf
Independence GC,"(Clif Denney, Director of Operations) cdenney@independencegolfclub.com",(804) 594-0261,"
600 Founders Bridge Blvd, Midlothian, VA","
600 Founders Bridge Blvd", Midlothian, VA,23113,http://www.independencegolfclub.com/-golf,,,,@IndependenceGC,https://www.facebook.com/pages/Independence-Golf-Club/111974981078
Indian Creek CC,,,"Miami Beach, FL",,Miami Beach, FL,,,,,,,
Indian Wells Golf Resort (Players),"(Steven Rosen, General Manager) srosen@iwgr.com",(760) 346 4653,Indian Wells,,Indian Wells,,92210,http://www.indianwellsgolfresort.com/index.php,,,,not listed on site,https://www.facebook.com/IndianWellsGolfResort
Indianwood CC (Old),,(248) 693-2598,"1081 Indianwood Rd, Orion Township, MI ",1081 Indianwood Rd, Orion Township, MI ,48361,http://www.indianwoodgolfandcountryclub.com,,,,,
Inn of the Mountain Gods,"*no email listed, contact form",(800) 545-9011,"287 Carrizo Canyon Rd, Mescalero, NM",287 Carrizo Canyon Rd, Mescalero, NM,88340,http://innofthemountaingods.com,,,,link takes you to home page,https://www.facebook.com/innofthemountaingods
Innisbrook (Copperhead),"*no email listed, contact form for guests","727-942-2000
","36750 Us Highway 19 N, Palm Harbor, FL",36750 Us Highway 19 N, Palm Harbor, FL,34683,http://www.innisbrookgolfresort.com,,,,@Innisbrook,https://www.facebook.com/innisbrook
Interlachen CC,info@interlachencc.org,(952) 929-1661,"6200 Interlachen Blvd, Minneapolis, MN ",6200 Interlachen Blvd, Minneapolis, MN ,55436,https://www.interlachencc.org,,,,@InterlachenClub,no actual page
Inverness Club,"(Derek Brody, PGA golf professional) dbrody@invernessclub.com",(419) 578-9000,"4601 Dorr St, Toledo, OH",4601 Dorr St, Toledo, OH,43615,http://www.invernessclub.com,,,,@INVERNESS_GOLF,no actual page
"Jackson Hole Golf, Tennis Club","(Matt Souther, media contact) msouther@gtlc.com",307-733-7787,Jackson Hole,,Jackson Hole,,83001,http://www.jhgtc.com,,,,no account,https://www.facebook.com/jacksonholegolfandtennisclub
Jay Peak,info@jaypeakresort.com,(802) 988-2611,"830 Jay Peak Rd, Jay, VT",830 Jay Peak Rd, Jay, VT,05859,http://www.jaypeakresort.com,,,,@jaypeakresort,https://www.facebook.com/JayPeakFan
Jewel GC,"*no email listed, contact form",651-345-2672,Lake City,,Lake City,,55041,"
http://jewelgolfclub.com",,,,@JewelGolfClub,https://www.facebook.com/jewelgolfclub
Jimmie Austin GC at the University of Oklahoma,jaougc@ou.edu,(405) 325-6716,"1 Par Dr, Norman, OK",1 Par Dr, Norman, OK,73019,"
http://www.ougolfclub.com",,,,@OUGolfClub,https://www.facebook.com/pages/Jimmie-Austin-OU-Golf-Club/179023566758
John's Island West,(Susan Hoover) hoover@johnsislandclub.org,(772) 231-1700,"3 John's Island Drive, Vero Beach, FL ",3 John's Island Drive, Vero Beach, FL ,32963,http://www.johnsislandclub.org,,,,no account,https://www.facebook.com/JohnsIslandClub
Journey at Pechanga,"(Ciara Green, Public Relations Manager) cigreen@pechanga.com",(951) 770-4653,"45000 Pechanga Pkwy, Temecula, CA",45000 Pechanga Pkwy, Temecula, CA,92592,https://www.pechanga.com/golf/,,,$49-$139,no account,https://www.facebook.com/journeyatpechanga?ref=br_tf
Juliette Falls GC,"(Travis Daniels, Head Golf Professional) travis@juliettefalls.com",352-522-0309,"
6933 SW 179th Ave Road Dunnellon, FLÂ ","
6933 SW 179th Ave Road",Dunnellon, FLÂ ,34432,http://www.juliettefalls.com,,,,@juliette_falls,https://www.facebook.com/juliettefalls
Jupiter Hills Club (Hills),*no email listed,(561) 746-5228,"11800 SE Hill Club Terrace, Tequesta, FL",11800 SE Hill Club Terrace, Tequesta, FL,33469,http://www.jupiterhillsclub.org,,,,no account,no actual page
Kahili GC,info@kahiligolf.com,(808) 242-4653,Wailuku,,Wailuku,HI,96793,http://www.kahiligolf.com,,,,no account,https://www.facebook.com/pages/Kahili-Golf-Course-Restaurant/233223426728739
Kankakee Elks Club,*no email listed,(815) 937-1228,Saint Anne,,Saint Anne,,60964,http://www.elksgolf627.com,,,,no account,https://www.facebook.com/K3ElksCC?ref=br_tf
Kansas City CC,info@kccc.com,(913) 362-8100,"6200 Indian Ln, Mission Hills, KS",6200 Indian Ln, Mission Hills, KS,66208,http://www.kccc.com/,,?,?,no account,https://www.facebook.com/pages/Flint-Hills-Golf-Course/370502609382
Kapalua (Plantation),,(877) 527-2582,Maui,,Maui,HI,,http://kapalua.com/golf/plantation-course,,,,widget brings you to home page,https://www.facebook.com/KapaluaGolf
Karsten Creek GC,"(Rob Land, Head Golf Professional) robland@karstencreek.com",(405) 743-1658,"1800 S Memorial Dr, Stillwater, OK",1800 S Memorial Dr, Stillwater, OK,74074,http://www.karstencreek.com,,,,@KarstenCreek,
Kauai Lagoons GC,Kathy.Richards@kauailagoonsgolf.com,(808) 241-6000,"3351 Ho'Olaulea Way, Kauai, HI ",3351 Ho'Olaulea Way, Kauai, HI ,96766,http://www.marriott.com/golf-hotels/lihkn-marriotts-kauai-lagoons-kalanipuu/kauai-lagoons-golf-club/5238786/home-page.mi,,,,no account,https://www.facebook.com/pages/Kauai-Lagoons-Golf-Club/115939681813316
Kearney Hill Golf Links,?,(859) 253-1981,"3403 Kearney Rd, Lexington, KY",3403 Kearney Rd, Lexington, KY,40511,?,,,,no account,https://www.facebook.com/pages/Kearney-Hill-Golf-Links/238759756197497
"Kebo Valley
",(Kebo's PGA professional) KeboPro@kebovalleyclub.com,(207) 288-3000,"136 Eagle Lake Rd, Bar Harbor, ME",136 Eagle Lake Rd, Bar Harbor, ME,04609,http://www.kebovalleyclub.com,,,,no account,https://www.facebook.com/pages/Kebo-Valley-Golf-Club/51433714626
Kiawah (Cassique),"Says reservations, but notes ""for general questions"" reservations@kiawahresort.com",(800) 654-2924,"1 Sanctuary Beach Dr, Kiawah Island, SC ",1 Sanctuary Beach Dr, Kiawah Island, SC ,29455,http://www.kiawahisland.com/island/clubs/island-club/,,,,@kiawahresort,https://www.facebook.com/KiawahResort
Kinderlou Forest GC,(Bill Robinson - brobinson@kinderlou.com),(229) 219-2300,"4005 Bear Lake Rd, Valdosta, GA ",4005 Bear Lake Rd, Valdosta, GA ,31601,http://www.kinderlou.com,,,,,
King Kamehameha GC,,,Maui,,Maui,HI,,,,,,,
Kingsley Club,"(Justin Mack, head golf professional) 
jmack@kingsleyclub.com",(231) 263-3000,"600 Niblick Trl, Kingsley, MI",600 Niblick Trl, Kingsley, MI,49649,http://www.kingsleyclub.com,,,,,
Kinloch Golf Club,"(Phil Owenby, director of PGA operation) powenby@kinlochgolfclub.com",804-784-8000,"100 Kinloch Lane, Manakin-Sabot, VA ",100 Kinloch Lane, Manakin-Sabot, VA ,23103,http://kinlochgolfclub.com,,,,no account,no actual page
Kirtland CC,info@kirtlandcc.org,(440) 942-4400,"39438 Kirtland Road Willoughby, OH",39438 Kirtland Road,Willoughby, OH,44094,https://www.kirtlandcc.org,,,,no account,https://www.facebook.com/pages/Kirtland-Country-Club/126023360760058
Kittansett Club,*no email listed,(508) 748-0148,"11 Point Rd, Marion, MA",11 Point Rd, Marion, MA,02738,http://www.kittansett.org,,,,,
Kiva Dunes,(Media contact) media@honoursgolf.com,251-540-7100," 815 Plantation Rd,Gulf Shores, Alabama", 815 Plantation Rd,Gulf Shores, AL,36542,kivadunes.com,,Par - 64 // 5849,$69-$89 until 7/31/14,@KivaDunesAl,https://www.facebook.com/KivaDunes
Knickerbocker CC,info@knickerbocker.cc,(201) 568-1460,"188 Knickerbocker Rd, Tenafly, NJ",188 Knickerbocker Rd, Tenafly, NJ,07670,http://www.knickerbocker.cc,,,,,
Ko'olau,General Manager - koolaugm@americangolf.com,808-236-4653,"45-550 Kionaole Rd, HI ",45-550 Kionaole Rd,, HI ,96744,http://www.koolaugolfclub.com,,,,@koolaugc,https://www.facebook.com/koolaugc
Kukio Golf & Beach Club,,(808) 325-4040,"87 Mile Marker Queen Kaahumanu Hwy, Kailua-Kona, HI",87 Mile Marker Queen Kaahumanu Hwy, Kailua-Kona, HI,96740,http://www.kukio.com,,,,,
Kukuiula,,,"Poipu, Hawaii",,Poipu,HI,,,,,,,
La Cantera Resort (Palmer),"*no email listed, contact form",(210) 558-2365,"17865 Babcock Rd, San Antonio, TX",17865 Babcock Rd, San Antonio, TX,78255,"
http://www.lacanteragolfclub.com/index.php",,,,@LaCanteraResort,https://www.facebook.com/LaCanteraResort
"La Costa Resort, Spa (Champions)","(Laura Millett, Media Contact) lmillett@murphyobrien.com",(800) 854-5000,"2100 Costa Del Mar Rd, Carlsbad, CA",2100 Costa Del Mar Rd, Carlsbad, CA,92009,http://www.lacosta.com,,,,@OmniLaCosta,https://www.facebook.com/OmniLaCostaResort
La Paloma GC (Ridge /Canyon),*no listed email,"
520-742-6100","3660 E Sunrise Dr, Tucson, AZ",3660 E Sunrise Dr, Tucson, AZ,85718,"
http://www.lapalomacc.com/index.php
",,,,no account,https://www.facebook.com/LaPalomaCountryClub
Lahontan GC,membership@lahontangolf.com,(530) 550-2400,"12700 Lodgetrail Dr, Truckee, CA",12700 Lodgetrail Dr, Truckee, CA,96161,http://www.lahontangolf.com,,,,no account,no actual page
Lake Las Vegas (SouthShore),,,"Henderson, NV",,Henderson, NV,,,,,,,
Lake of Isles (North),lais-concierge@troongolf.com,(888) 475-3746,"1 Clubhouse Dr, North Stonington, CT",1 Clubhouse Dr, North Stonington, CT,06359,http://www.lakeofisles.com/index.php,,,,@LakeofIsles,widget on page disabled; takes you to home page
Lake Presidential GC,"*no email listed, contact form (asks for phone number)",(301) 627-8577,"3151 Presidential Golf Club Dr, Upper Marlboro, MD",3151 Presidential Golf Club Dr, Upper Marlboro, MD,20774,"
http://www.lakepresidential.com",,,,no account,https://www.facebook.com/LakePresidential
Lakewood Shores Resort (Gailes),info@lakewoodshores.com,(989) 739-2073,"7751 Cedar Lake Rd, Oscoda, MI ",7751 Cedar Lake Rd, Oscoda, MI ,48750,"
http://www.lakewoodshores.com",,,,no account,https://www.facebook.com/pages/Lakewood-Shores-Resort/323696564166
Lakota Canyon,info@lakotacanyonranch.com,970-984-9700,"1000 Clubhouse Dr, New Castle, CO",1000 Clubhouse Dr, New Castle, CO,81647,http://lakotacanyonranch.com,,,,not listed on site,https://www.facebook.com/LakotaCanyonRanch
Lancaster CC,"(Andrea Giffing, clubhouse manager) awolpert@lancastercc.com",(717) 393-3886,"1466 New Holland Pike, Lancaster, PA",1466 New Holland Pike, Lancaster, PA,17601,http://www.lancastercc.com,,,,@LancasterCC1,https://www.facebook.com/LancasterCountryClubRestaurant
Lassing Pointe,*no email listed,859-384-2266,"2266 Double Eagle Dr, Union, KY",2266 Double Eagle Dr, Union, KY,41091,http://www.boonecountygolf.com,,,,no account,no actual page
Laughlin Ranch,(Golf Shop) todd@laughlinranch.com,(928) 754-1243,"1360 William Hardy Dr, Bullhead City, AZ",1360 William Hardy Dr, Bullhead City, AZ,86429,http://laughlinranch.com/,,,$65-$95,@LaughlinRanch,https://www.facebook.com/laughlinranch
Laurel Hill,Kirk.Mason@fairfaxcounty.gov,703-493-8849,"8701 Laurel Crest Dr, Lorton, VA",8701 Laurel Crest Dr, Lorton, VA,22079,http://www.fairfaxcounty.gov/parks/golf/lhgc/,,,,@LaurelHillGolf,https://www.facebook.com/pages/Laurel-Hill-Golf-Club/166577206701362
Laurel Valley GC,,(724) 238-9555,"175 Palmer Dr, Ligonier, PA",175 Palmer Dr, Ligonier, PA,15658,no site,,,,no account,no actual page
Lawsonia (Links),"(Jeff Kleinke, Director of Golf) jeffkleinke@lawsonia.com",920.294.3320,"W2615 S Valley View Dr, Green Lake, WI",W2615 S Valley View Dr, Green Lake, WI,54941,http://www.lawsonia.com,,,,no account,https://www.facebook.com/golflawsonia
Leatherstocking,"(Jaclyn Boschetti, media contact) Jaclyn@njfpr.com",(607) 544-2547,"60 Lake St, Cooperstown, NY",60 Lake St, Cooperstown, NY,13326,http://www.otesaga.com/leatherstocking-golf-course,,,,@OtesagaHotel,https://www.facebook.com/OtesagaResortHotel
Lederach,"*no email listed, contact form (asks for phone number)",(215) 513-3034,"900 Clubhouse Dr, Harleysville, PA",900 Clubhouse Dr, Harleysville, PA,19438,http://www.lederachgolfclub.com/golf,,,,no account,https://www.facebook.com/pages/Lederach-Golf-Club/164167686944909
Ledges GC,"(Doug Juhasz, General Manager) djuhasz@ledgesgc.com",413-532-2307,"18 Mulligan Dr, South Hadley, MA ",18 Mulligan Dr, South Hadley, MA ,01075,http://www.ledgesgc.com,,,,@ledgesgolf,https://www.facebook.com/pages/Ledges-Golf-Club/112560062089480
LedgeStone,*no email listed,(417) 335-8187,"1600 Ledgestone Way, Branson, MO ",1600 Ledgestone Way, Branson, MO ,65737,http://www.ledgestonegolf.com,,,,,https://www.facebook.com/pages/Ledgestone-Championship-Golf-Course/116596845033876
Legends Club at Chateau Elan,"(Sean Cain, Head Golf Professional) scain@chateauelan.net",(770) 307-4031,"6155 Golf Club Drive  Braselton, GA",6155 Golf Club Drive  ,Braselton, GA,30518,http://www.chateauelan.net/golf/legends-course.php,,,,@legendsgolfatl,https://www.facebook.com/TheLegendsatChateauElan
Legends Golf Complex (Moorland),"*no email listed, contact form for future guests",,"1500 Legends Dr, Myrtle Beach, SC",1500 Legends Dr, Myrtle Beach, SC,,http://www.legendsgolf.com,,,,not listed on site,https://www.facebook.com/MBLegendsGolf
Legends Golf Complex (The Heritage),"*no email listed, contact form for future guests",(843) 236-9318,"        478 Heritage Dr, Pawleys Island, SC ",        478 Heritage Dr, Pawleys Island, SC ,29579,http://www.legendsgolf.com,,,,not listed on site,https://www.facebook.com/MBLegendsGolf
Lehigh CC,"when you click on ""contact us"", this email comes up: jen@lehighcc.com",610-433-7443,"2319 S. Cedar Crest Blvd | Allentown, PA",2319 S. Cedar Crest Blvd,Allentown, PA,18103,http://www.lehighcc.com/,,,,no account,no actual page
Limestone Springs,info@limestonesprings.com,205-274-4653,"
        3000 Colonial Dr, Oneonta, AL","
        3000 Colonial Dr", Oneonta, AL,35121,http://www.limestonesprings.com/-home,,,Spring: $45 - $99 +tax,@LimestoneGolfAL,https://www.facebook.com/LimestoneSprings
Links at Hiawatha Landing,"*no email listed, contact form",(607) 687-6952,"2350 Marshland Rd, Apalachin, NY",2350 Marshland Rd, Apalachin, NY,13732,http://www.hiawathalinks.com,,,,not listed on site,not listed on site
Links at Lighthouse Sound,ruarkgolf@aol.com,410-641-1189,"12723 St Martins Neck Rd, Bishopville, MD",12723 St Martins Neck Rd, Bishopville, MD,21813,http://www.lighthousesound.com,,,,no account,https://www.facebook.com/pages/Lighthouse-Sound-Golf-Course/140954089296740
Links at Spanish Bay,"(Ryan Pierce, Media Contact) piercer@pebblebeach.com",(800) 654-9300,Pebble Beach,,Pebble Beach,,93953,http://www.pebblebeach.com/golf/the-links-at-spanish-bay,,,,@PebbleBeachCali,https://www.facebook.com/PebbleBeachResorts
Links at Union Vale,golfpro@thelinksatunionvale.com,(845) 223-1000,"153 N Parliman Rd, Lagrangeville, NY",153 N Parliman Rd, Lagrangeville, NY,12540,http://www.thelinksatunionvale.com,,,,not listed on site,not listed on site
Links of North Dakota,"(Jay Frank, General Manager) ",(701) 568-2600,"5153 109th Ave NW, Ray, ND",5153 109th Ave NW, Ray, ND,58849,http://www.thelinksofnorthdakota.com,,,,not listed on site,not listed on site
Linville GC,starr@eseeola.com,800-742-6717,Linville,,Linville,,28646,http://www.eseeola.com,,,,not listed on site,not listed on site
Little Mountain,jhanlin@littlemountaincc.com,(440) 358-7888,Concord,,Concord,,44077,http://www.littlemountaincc.com,,,,@LMCountryClub,not listed on site
Lodestone GC,info@wispresort.com,301.387.4000,McHenry,,McHenry,,21541,http://www.wispresort.com/lodestone-golf-course.php,,,,@WispresortMD,ok.com/pages/Deep-Creek-Lake-Lodestone-Golf-Club/322086448268?ref=br_tf
Long Cove Club,,(843) 686-1070,"399 Long Cove Drive,    Hilton Head Island, SC",399 Long Cove Drive,    Hilton Head Island, SC,29928,http://www.longcoveclub.org/Club/Scripts/Home/home.asp,,,,no account,no actual page
Longaberger,dackerman@longabergergolfclub.com,(740) 763-1100,"One Long Drive, Nashport, OH",One Long Drive, Nashport, OH,43830,http://www.longabergergolfclub.com,,Par 72; 7243 yards,$59-$99,not listed on site,https://www.facebook.com/LongabergerGolfClub
Longmeadow CC,,,"Longmeadow, MA",,Longmeadow, MA,,,,,,,
Longue Vue Club,"(Tod Pierce, club manager) tpierce@longuevue.org",(412) 793-2232,"400 Longue Vue Dr, Penn Hills, PA",400 Longue Vue Dr, Penn Hills, PA,15147,http://www.longuevue.org,,,,@Longuevueclub,no actual page
Lookout Mountain GC,,,"Lookout Mountain, GA",,Lookout Mountain, GA,,,,,,,
Loomis Trail,semiahmoogolf@gmail.com,(360) 332-8138,"        4342 Loomis Trail Rd, Blaine, WA ",        4342 Loomis Trail Rd, Blaine, WA ,98230,http://www.semiahmoogolf.com/loomis_trail.php,,,,@SemiahmooGolf,https://www.facebook.com/SemiahmooGolf
Los Angeles CC (North),,(310) 276-6104,"10101 Wilshire Blvd, Los Angeles, CA",10101 Wilshire Blvd, Los Angeles, CA,90024,https://www.thelacc.org,,,,no account,no actual page
Lost Dunes GC,info@lostdunes.com,(269) 465-9300,"9300 Red Arrow Hwy, Bridgman, MI",9300 Red Arrow Hwy, Bridgman, MI,49106,http://www.lostdunes.com,,,,no account,https://www.facebook.com/pages/Lost-Dunes-Golf-Club/175619742449139
Maidstone Club,no email listed; website only for members,(631) 604-5203,"29 Maidstone Ln, East Hampton, NY",29 Maidstone Ln, East Hampton, NY,11937,http://www.maidstoneclub.org,,,,,
Manufacturers' Golf & CC,*no email listed; contact form,(215) 886-3200,"511 Dreshertown Rd, Fort Washington, PA",511 Dreshertown Rd, Fort Washington, PA,19034,http://www.mg-cc.org,,,,no account,https://www.facebook.com/pages/Manufacturers-Golf-Country-Club/115861865101478
Martis Camp,,,"Truckee, CA",,Truckee, CA,,http://www.martiscamp.com/lake-tahoe-golf/,,,,,
Mauna Kea GC,*no email listed,(808) 882-5400,"62-100 Mauna Kea Beach Drive, Kohala Coast, Hawaii",62-100 Mauna Kea Beach Drive, Kohala Coast,HI,96743,http://www.princeresortshawaii.com/mauna-kea-golf-course/index.php,,,,@MaunaKeaGolf,https://www.facebook.com/maunakearesortgolf
Mauna Kea GC,,,"Kamuela, HI",,Kamuela, HI,,,,,,,
Mauna Lani (North),golf@maunalani.com,808-885-6655,"68-1400 Mauna Lani Dr, Kona",68-1400 Mauna Lani Dr, Kona,HI,96743,http://www.maunalani.com/golf/big-island-golf-courses,,,,@MaunaLaniBay,https://www.facebook.com/MaunaLaniBay
May River Course at Palmetto Bluff,gwrobel@montagehotels.com,,"476 Mt Pelia Rd, Bluffton, SC ",476 Mt Pelia Rd, Bluffton, SC ,,http://www.palmettobluff.com/golf.aspx,,,,Twitter link brings you to home page,https://www.facebook.com/PalmettoBluff
Mayacama Golf Club,info@mayacama.com,707.569.2900,"1240 Mayacama Club Drive, Santa Rosa, CAÂ ",1240 Mayacama Club Drive, Santa Rosa, CAÂ ,95403,http://www.mayacama.com,,,,no account,no actual page
McArthur,,(772) 545-3838,"6550 SE Osprey St, Hobe Sound, FL",6550 SE Osprey St, Hobe Sound, FL,33455,http://www.mcarthurgolf.com,,,,,
Meadow Brook GC,*no email listed; used contact form on site,(401) 539-8491,Richmond,,Richmond,,02898,http://www.meadowbrookgolfri.com/Club/Scripts/Home/home.asp,,,,@Meadowbrook_GCC),https://www.facebook.com/meadowbrookgolfri
Meadow Club,clubsec@meadowclub.com,(415) 462-0980,"1001 Bolinas Rd, Fairfax, CA ",1001 Bolinas Rd, Fairfax, CA ,94930,http://www.meadowclub.com,,not listed,,,
Meadowbrook,info@golfatmeadowbrook.com,(605) 394-4191,"        3625 Jackson Blvd, Rapid City, SD ",        3625 Jackson Blvd, Rapid City, SD ,57702,http://www.golfatmeadowbrook.com,,,$28-$40 / time of day,@Meadowbrook_GCC,https://www.facebook.com/MeadowbrookGolfCourse
Meadows at Mystic Lake,"(Ben Rosaasen, Director of Golf) ben.rosaasen@shakopeedakota.org",(952) 233-5533,"2400 Mystic Lake Blvd NW, Prior Lake, MN",2400 Mystic Lake Blvd NW, Prior Lake, MN,55372,http://www.mysticlakegolf.com,,,,@MysticLakeGolf,https://www.facebook.com/mysticlakegolf?ref=br_tf
Medicine Hole GC,call,(701) 764-4653,"10352 2nd St SW, Killdeer, ND",10352 2nd St SW, Killdeer, ND,58640,http://www.medicineholegolfcourse.com,,,,?,?
Medinah CC (No. 3),,,"Medinah, IL",,Medinah, IL,,,,,,,
Members Club at Aldarra,"(Fred Nadeau, Director of Golf) fred@aldarragc.com",(425) 222-7828,"29125 SE Duthie Hill Rd. Sammamish, WA ",29125 SE Duthie Hill Rd.,Sammamish, WA ,98075,http://www.aldarragolfclub.com,,,,@AldarraGolfClub,https://www.facebook.com/pages/Aldarra-Golf-Club/225379324217344
Merion GC,no email listed,(610) 642-5600,"450 Ardmore Ave, Ardmore, PA",450 Ardmore Ave, Ardmore, PA,19003,http://www.meriongolfclub.com,,,,@MerionGolfClub,no page found
Metedeconk National GC,,(732) 928-0111,"50 Hannah Hill Rd, Jackson, NJ",50 Hannah Hill Rd, Jackson, NJ,08527,http://www.metedeconk.org/,,,,,
Mid Pines,"(Graham Gilmore, General Manager) graham.gilmore@rossresorts.com",(910) 692-2114,"1010 Midland Rd, Southern Pines, NC",1010 Midland Rd, Southern Pines, NC,28387,http://www.pineneedles-midpines.com,,,,@PineNeedlesGolf,https://www.facebook.com/pineneedlesmidpines
Milwaukee CC,,,"Milwaukee, WI",,Milwaukee, WI,,website inactive,,,,,
Mimosa Hills G&CC,,(828) 437-2967,"611 Golf Course Rd, Morganton, NC",611 Golf Course Rd, Morganton, NC,28655,http://www.mimosahills.org,,,,,
Minikahda Club,,(612) 926-1601,"3205 Excelsior Blvd, Minneapolis, MN",3205 Excelsior Blvd, Minneapolis, MN,55416,http://www.minikahdaclub.org,,,,,
Mirimichi,"(Rich Peterson, General Manager) rpeterson@mirimichi.com",(901) 259-3800,"6195 Woodstock Cuba Rd, Millington, TNÂ ",6195 Woodstock Cuba Rd, Millington, TNÂ ,38053,http://www.mirimichi.com,,,,@Mirimichi,https://www.facebook.com/MirimichiGolf
Misquamicut GC,donna.bailey@themisquamicutclub.com,(401) 348-8577,"60 Ocean View Hwy, Westerly, RI ",60 Ocean View Hwy, Westerly, RI ,02891,https://www.themisquamicutclub.com,,,,no account,no page found
Mission Inn Resort (El Campeon),?,,Howey-in-the-Hills,,Howey-in-the-Hills,,,http://missioninnresort.com,,,,@Mission_Inn,https://www.facebook.com/MissionInnResortandClub
Mohegan Sun CC at Pautipaug,"(Dave Troyer, Director of Golf) dtroyer@commongroundgc.com",860-862-9660,"7 Dows Ln, Baltic, CT",7 Dows Ln, Baltic, CT,06330,http://mohegansun.com,,,,@MoheganSun,https://www.facebook.com/mohegansungolfclub
Monroe GC,no email listed,(585) 586-3440,"155 Golf Ave, Pittsford, NY ",155 Golf Ave, Pittsford, NY ,14534,http://www.monroegolfclub.com,,,,no account,no actual page
Montauk Downs State Park,call,(631) 668-5000,"50 S Fairview Ave, Montauk, NY",50 S Fairview Ave, Montauk, NY,11954,http://nysparks.com/golf-courses/8/details.aspx,,,,not listed on site,not listed on site
Montaup CC,"(Stephen Diemoz, Golf Professional) golfpro@montaupcc.com",401-683-0955,Portsmouth,,Portsmouth,,02871,http://www.montaupcc.com,,,,no account,https://www.facebook.com/pages/Montaup-Country-Club/133463630028253
Monterey Peninsula,info@montereypeninsulagolf.com,x,Pebble Beach,,Pebble Beach,,93953,http://www.montereypeninsulagolf.com,,,,no account,https://www.facebook.com/MontereyPeninsulaGolf
Moose Run (Creek),mooserungolfcourse@gmail.com,907-428-3942,"27000 Arctic Valley Rd, Anchorage, AK",27000 Arctic Valley Rd, Anchorage, AK,99505,http://www.mooserungolfcourse.com/CreekCourse.htm,,"Par - 72 // 7,324 yards ",,not listed on site,https://www.facebook.com/mooserungolfcourse
Moraine CC,phil@morainecountryclub.com,(937) 294-6200,"4075 Southern Blvd, Dayton, OH",4075 Southern Blvd, Dayton, OH,45429,https://www.morainecountryclub.com,,,,,
Mount Washington,"*no email listed, contact form",(603) 278-4653,"210 Mt Washington Hotel Rd, Bretton Woods, NH ",210 Mt Washington Hotel Rd, Bretton Woods, NH ,03575,http://brettonwoods.com/activities/golf/overview,,,,,
Mountain Lake GC,,(863) 676-3494,"2300 N Scenic Hwy, Lake Wales, FL",2300 N Scenic Hwy, Lake Wales, FL,33898,http://www.mountainlakecc.com,,,,no account,no actual page
Mountain Ranch CC,rory@tannenbaumgolf.com,(501) 884-3400,Fairfield Bay,,Fairfield Bay,,72088,http://www.tboxgolf.net,,,$35-$49 until Aug.,no account,https://www.facebook.com/MountainRanch.Tannenbaum
Mountain Ridge GC,reception@mountainridgecc.org,(973) 575-8200,"713 Passaic Ave, West Caldwell, NJ",713 Passaic Ave, West Caldwell, NJ,07006,https://www.mountainridgecc.org,,,,,
Mountaintop Golf & Lake Club,salessupport@mountaintopgolfclub.com,(828) 743-7353,"1638 High Mountain Dr, Cashiers, NC",1638 High Mountain Dr, Cashiers, NC,28717,http://www.mountaintopgolfclub.com,,,,no account,no actual page
Muirfield Village GC,,(614) 889-6700,"5750 Memorial Dr, Dublin, OH ",5750 Memorial Dr, Dublin, OH ,43017,http://www.nicklaus.com/design/muirfieldvillage/,,,,,
Muskegon CC,info@muskegoncc.com,(231) 755-3737,"2801 Lakeshore Dr, Muskegon, MI ",2801 Lakeshore Dr, Muskegon, MI ,49441,http://www.muskegoncc.com,,,,,
Musket Ridge,info@musketridge.com,(301) 293-9930,"3555 Brethren Church Rd, Myersville, MD",3555 Brethren Church Rd, Myersville, MD,21773,http://www.musketridge.com/Club/Scripts/Home/home.asp,,,,,https://www.facebook.com/MusketRidge
Myopia Hunt Club,,,"Hamilton, MA",,Hamilton, MA,,,,,,,
Nanea Golf club,,,Kona,,Kona,,,,,,,,
Nantucket GC,,,"Siaconsett, MA",,Siaconsett, MA,,,,,,,
Naples National GC,,(239) 775-3468,"Naples, FL",,Naples, FL,,http://www.nngc.net,,,,,
National Golf Links of America,no email listed,(631) 283-0410,"325 Sebonac Inlet Rd, Southampton, NY",325 Sebonac Inlet Rd, Southampton, NY,11968,https://www.natgolflinks.org,,,,no account,no actual page
NCR CC (South),no email listed; contact form available,(937) 299-3571,"4435 Dogwood Trail, Kettering, OH ",4435 Dogwood Trail, Kettering, OH ,45429,https://www.ncrcountryclub.com,,,,@ncrcc,https://www.facebook.com/pages/NCR-Country-Club/107360009336041
Nemacolin Woodlands (Mystic Rock),birds.of.a.feather@nemacolin.com%20,(724) 329-8555,"1001 Lafayette Dr, Farmington, PA",1001 Lafayette Dr, Farmington, PA,15437,http://www.nemacolin.com/golf/mystic-rock,,,,@Nemacolin,https://www.facebook.com/Nemacolin
Neshanic Valley,"(Robert Ransone, Deputy Director Golf Division) rransone@scparks.org",(908) 369-8200,"2301 S Branch Rd, Neshanic Station, NJ",2301 S Branch Rd, Neshanic Station, NJ,08853,"
http://www.somersetcountyparks.org/parksfacilities/nvgc/golf/golf.htm",,,,,
New Haven CC,,,"Hamden, CT",,Hamden, CT,,,,,,,
Newport CC,,(401) 846-0461,"280 Harrison Ave, Newport, RI",280 Harrison Ave, Newport, RI,00284,no site,,,,,
Newport National,info@newportnational.com,401-846-1489,"324 Mitchells Ln, Middletown, RI ",324 Mitchells Ln, Middletown, RI ,02842,http://www.newportnational.com,,,,no account,https://www.facebook.com/newportnational
North Shore CC,no email listed,(516) 676-0500,"500 Shore Road, Glen Head, NY",500 Shore Road, Glen Head, NY,11545,https://nsccli.com,,,,no account,no page found
Northland CC,,,"Duluth, MN",,Duluth, MN,,,,,,,
Oak Hill CC (East),info@oakhillcc.com,(585) 586-1660,"145 Kilbourn Rd, Rochester, NY",145 Kilbourn Rd, Rochester, NY,14618,http://www.oakhillcc.com,,,,no account,no actual page
Oak Hill CC (West),info@oakhillcc.com,(585) 586-1660,"145 Kilbourn Rd, Rochester, NY",145 Kilbourn Rd, Rochester, NY,14618,http://www.oakhillcc.com,,,,no account,no actual page
Oak Hills CC,*no email listed,(210) 349-5151,"5403 Fredericksburg Rd, San Antonio, TX",5403 Fredericksburg Rd, San Antonio, TX,78229,http://www.oakhillscc.com,,,,no account,no page found
Oak Tree National Golf Club,"(Steve Kimmel, director of golf) skimmel@oaktreenational.com",405-348-2004,"1515 West Oak Tree Drive, Edmond, OK",1515 West Oak Tree Drive, Edmond, OK,73025,http://www.oaktreenational.com/index.php/,,,,@OakTreeNational,no actual page
Oakland Hills CC (South),,(248) 644-2500,"3951 W Maple Rd, Bloomfield Hills, MI ",3951 W Maple Rd, Bloomfield Hills, MI ,48301,https://www.oaklandhillscc.com,,,,,
Oakmont Country Club,no email listed,(412) 828-8000,"1233 Hulton Rd, Oakmont, PA",1233 Hulton Rd, Oakmont, PA,15139,http://www.oakmont-countryclub.org,,,,no account,no actual page
Ocean Course at Hammock Beach,"(Matt Owen, Media Contact) mowen@salamanderhotels.com",(386) 447-4611,Palm Coast,,Palm Coast,,32137,http://www.hammockbeach.com/golf/hammock-beach-courses/ocean-course,Latitude: 29.6054750    Longitude: -81.1893720,,,@HammockResort,https://www.facebook.com/HammockBeachResort
Ocean Course at Kiawah Island,reservations@kiawahresort.com,(800) 654-2924,"1 Sanctuary Beach Dr, Kiawah Island, SC",1 Sanctuary Beach Dr, Kiawah Island, SC,29455,http://www.kiawahresort.com,,,,@kiawahresort,https://www.facebook.com/KiawahResort
Ocean Forest GC,,,"Sea Island, GA",,Sea Island, GA,,,,,,,
Ocean Ridge (Leopard's Chase),teetimes@oceanridge.com,(910) 287-1717,Sunset Beach,,Sunset Beach,,28469,http://www.bigcatsgolf.com/leopards-chase/,,,,@LeopardsChase,https://www.facebook.com/OceanRidgePlantationGolf
Ocean Ridge (Tiger's Eye),teetimes@oceanridge.com,(910) 287-1717,"360 Ocean Ridge Pkwy SW, Ocean Isle Beach, NC",360 Ocean Ridge Pkwy SW, Ocean Isle Beach, NC,28469,http://www.bigcatsgolf.com/tigers-eye/,,,,@LeopardsChase,https://www.facebook.com/OceanRidgePlantationGolf
Okemo Valley GC,*no email listed; contact form,(802) 228-1396,"Okemo Mountain Resort, 77 Okemo Ridge Rd, Ludlow, VT", 77 Okemo Ridge Rd, Ludlow, VT,05149,http://okemogolf.com,,,,@OkemoMountain,https://www.facebook.com/okemogolf
Old American GC,"(Mike McCabe, General Manager) mmccabe@oldamericangolfclub.com",(972) 370-4653,"1001 Lebanon Rd, The Colony, TX",1001 Lebanon Rd, The Colony, TX,75056,http://www.theoldamericangolfclub.com,,,,@OldAmericanGC,https://www.facebook.com/OldAmericanGolfClub
Old Elm,,(847) 432-6270,"800 Old Elm Rd, Highland Park, IL",800 Old Elm Rd, Highland Park, IL,60035,http://www.oldelmclub.com,,,,no account,https://www.facebook.com/oldelm?rf=107347225988244
Old Macdonald,"(Jake Sestero, Golf Professional) jsestero@bandondunesgolf.com",888-345-6008,"57744 Round Lake Drive
Bandon, OR ",57744 Round Lake Drive,Bandon, OR ,97411,http://www.bandondunesgolf.com/pages/old_macdonald/96.php,,,,@BandonDunesGolf,https://www.facebook.com/BandonDunesGolf
Old Memorial,,(813) 926-8888,"13600 Hixon Rd, Tampa, FL",13600 Hixon Rd, Tampa, FL,33626,http://www.oldmemorialgolfclub.com,,,,,
Old Sandwich,"*no email listed, contact form",(508) 209-2200,"41 Double Brook Rd, Plymouth, MA",41 Double Brook Rd, Plymouth, MA,02360,http://www.osgolfclub.com/Club/Scripts/Home/home.asp,,,,no account,no account
Old Silo,"*no email listed, contact form",859-498-4697,Mount Sterling,,Mount Sterling,,40353,http://www.oldsilo.com,,,,@OldSiloGolf,https://www.facebook.com/OldSilo
Old Town Club,otc@oldtownclub.org,(336) 723-5533,"2875 Old Town Club Rd, Winston-Salem, NC",2875 Old Town Club Rd, Winston-Salem, NC,27106,http://www.oldtownclub.org/,,,,no account,no actual page
Old Waverly GC,,,"West Point, MS",,West Point, MS,,,,,,,
Old Works,"(Ryan Stemsrud, General Manager and Director of Golf) rstemsrud@troongolf.com",(406) 563-5989,"1205 Pizzini Way, Anaconda, Mt ",1205 Pizzini Way, Anaconda, Mt ,59711,http://www.oldworks.org/index.php,,,,,https://www.facebook.com/OldWorksGC
Olde Farm GC,"(Marc Eubanks, club manager) meubanks@theoldefarm.com)",(276) 669-1042,"16639 Old Jonesboro Road, Bristol, VA",16639 Old Jonesboro Road, Bristol, VA,24202,http://www.theoldefarm.com,,,,@OldeFarmGCM,https://www.facebook.com/TheOldeFarm
Olde Stonewall,oldestonewall@zoominternet.net,(724) 752-4653,"1495 Mercer Rd, Ellwood City, PA",1495 Mercer Rd, Ellwood City, PA,16117,http://www.oldestonewall.com,,,,no account,https://www.facebook.com/pages/Olde-Stonewall-Golf-Club/282758848511902?rf=118528474829294
Olympia Field CC (South),,(708) 748-0495,"2800 Country Club Dr, Olympia Fields, IL",2800 Country Club Dr, Olympia Fields, IL,60461,http://www.ofcc.info,,"Par-72 // 7,114 yards",,no account,no page found
Olympia Fields CC (North),,,"Olympia FIelds, IL",,Olympia FIelds, IL,,,,,,,
Olympic Club (Lake),,(415) 345-5100,"599 Skyline Blvd, San Francisco, CA ",599 Skyline Blvd, San Francisco, CA ,94132,,,,,,
Omaha CC,omahacc@omahacc.org,(402) 571-7777,"6900 Country Club Rd, Omaha, NE",6900 Country Club Rd, Omaha, NE,68152,http://www.omahacc.org,,,,@OmahaCC,https://www.facebook.com/OmahaCountryClub?fref=ts
Orchards GC,"*no email listed, contact form (asks for phone number)",(586) 786-7200,"62900 Campground Rd, Washington, MI",62900 Campground Rd, Washington, MI,48094,http://www.orchards.com,,,,no account,https://www.facebook.com/TheOrchardsGolfClub
Osprey Meadows GC,info@tamarackidaho.com,208.325.1000,Donnelly,,Donnelly,,83615,http://tamarackidaho.com/summer_adventure/golf/,,,,@Ski_Tamarack,https://www.facebook.com/tamarackresortidaho
Oxmoor Valley,OxmoorValley@RTJGolf.com,305-942-1177,"100 Sunbelt Pkwy, Birmingham, AL",100 Sunbelt Pkwy, Birmingham, AL,35211,https://www.rtjgolf.com/oxmoorvalley/,,,starts at $65,@RTJOxmoorValley,https://www.facebook.com/RTJOxmoorValley
Oyster Harbors,oysterharborsclub@oysterharborsclub.org,(508) 428-3131,"170 Grand Island Dr, Osterville, MA",170 Grand Island Dr, Osterville, MA,02655,http://www.oysterharborsclub.org,,,,,
Paa-Ko Ridge,paakoinfo@paakoridge.com,(505) 281-6000,"1 Club House Dr, Sandia Park, NM",1 Club House Dr, Sandia Park, NM,87047,http://www.paakoridge.com,,,,@paakoridgegc,https://www.facebook.com/pages/Paa-Ko-Ridge-Golf-Club/202114036910
Pablo Creek,,(904) 992-6900,"5660 San Pablo Rd S, Jacksonville, FL",5660 San Pablo Rd S, Jacksonville, FL,32224,,,,,,
Pacific Dunes,"(Jake Sestero, Golf Professional) jsestero@bandondunesgolf.com",888-345-6008,"57744 Round Lake Drive
Bandon, OR ",57744 Round Lake Drive,Bandon, OR ,97411,http://www.bandondunesgolf.com/pages/pacific_dunes/50.php,,,,@BandonDunesGolf,https://www.facebook.com/BandonDunesGolf
Paiute (Wolf),"(Chad Gunier, General Manager) cgunier@lvpaiute.com",702.658.1400,"10325 Nu-Wav Kaiv Boulevard, Las Vegas, NV",10325 Nu-Wav Kaiv Boulevard, Las Vegas, NV,89124,http://www.lvpaiutegolf.com,,,,@realpuregolf,https://www.facebook.com/lvpaiutegolf?ref=br_tf
Palmetto Club,,,"Aiken, SC",,Aiken, SC,,http://www.palmettoclub.org,,,,,
Palmilla Beach Golf Club,"*no email listed, contact form",361-749-4653,"258 Snapdragon, Port Aransas, TX",258 Snapdragon, Port Aransas, TX,78373,http://palmillabeach.com,,"Par 71 -6,821 yards",$69-99 year round- depending day/time/season,@palmillabeachgc,http://www.facebook.com/newportdunesgolf
Palouse Ridge,http://www.palouseridge.com/m-contacts/6-general-information,(509) 335-4342,"1260 Palouse Ridge Dr, Pullman, WA",1260 Palouse Ridge Dr, Pullman, WA,99164,http://www.palouseridge.com,,"Par 72. 7,308 yards",$20 for juniors to $99 for non-residents,no account,https://www.facebook.com/pages/Palouse-Ridge-Golf-Club/124263884280256
Paramount CC,no email listed; contact form available,(845) 634-4626,"60 Zukor Rd, New City, NY",60 Zukor Rd, New City, NY,10956,http://www.paramountcountryclub.com,,,,no account,https://www.facebook.com/pages/Paramount-Country-Club/303511407784
Pasatiempo,"(Scott Hoyt, General Manager) shoyt@pasatiempo.com",(831) 459-9169,"20 Clubhouse Rd, Santa Cruz, CA",20 Clubhouse Rd, Santa Cruz, CA,95060,http://www.pasatiempo.com,,,,@PasatiempoGolf,https://www.facebook.com/PasatiempoGolfClub
Patriot Golf Club,golfshop@patriotgolfclub.com,(918) 272-1260,"5790 N Patriot Dr, Owasso, OK ",5790 N Patriot Dr, Owasso, OK ,74055,http://thepatriotgolfclub.com,,,,no account,https://www.facebook.com/pages/The-Patriot-Golf-Club-Owasso-OK/209427442432927
Payne Stewart GC,"(Dan Davis, General Manager) ddavis@troongolf.com",(417) 337-2963,"100 Payne Stewart Dr, Branson, MO",100 Payne Stewart Dr, Branson, MO,65616,http://www.paynestewartgolfclub.com,,,,,https://www.facebook.com/PayneStewartGolfClub
Peachtree GC,,(404) 233-4426,"4600 Peachtree Blvd, Atlanta, GA",4600 Peachtree Blvd, Atlanta, GA,30319,?,,,,,
Pebble Beach Golf Links,"(Ryan Pierce, Media Contact) piercer@pebblebeach.com",(800) 654-9300,"700 17 Mile Dr, Pebble Beach, CA",700 17 Mile Dr, Pebble Beach, CA,93953,http://www.pebblebeach.com/golf/pebble-beach-golf-links,,,,@PebbleBeachCali,https://www.facebook.com/PebbleBeachResorts
Peninsula GC,,,San Mateo,,San Mateo,,,,,,,,
Pete Dye Golf Club,dmitchell@pacificlinks.com,(304) 842-2801,"801 Aaron Smith Dr, Bridgeport, WV",801 Aaron Smith Dr, Bridgeport, WV,26330,https://www.pacificlinks.com/petedye,,,,@PacificLinksINT,https://www.facebook.com/PacificLinksInternational
Pete Dye River Course of Virginia Tech,Play@petedyerivercourse.com,1-888-Pete-Dye," 8400 River Course Drive, Radford, VA", 8400 River Course Drive, Radford, VA,24141,http://www.petedyerivercourse.com,,"5,142 to 7,685 yards",$25-$80,,www.facebook.com/petedyerivercourse
"PGA National Resort, Spa (Champion)","*no email listed, contact form",(561) 627-2000,"400 Ave of the Champions, Palm Beach Gardens, FL",400 Ave of the Champions, Palm Beach Gardens, FL,33418,http://www.pgaresort.com/golf/pga-champion-golf-course,,"Par 72; Yardage: 7,048",$191-$373,@PGANatl,https://www.facebook.com/PGAresort
PGA West (Stadium),pgawest@pgawest.com,(760) 564-3914,La Quinta,,La Quinta,,92253,http://www.pgawest.com/Club/Scripts/Home/home.asp,,,,@PGAWESTGOLF,https://www.facebook.com/GolfPGAWEST
Philadelphia CC (Spring Mill),?,?,?,?,,,?,,,,,,
Philadelphia Cricket Club (Wissahickon),,(215) 247-6113,"6025 West Valley Green Road Flourtown, PA",6025 West Valley Green Road,Flourtown, PA,19031,http://www.philacricket.com/,,,,no account,https://www.facebook.com/PCCGolf
Pilgrim's Run,*no email listed,(231) 937-7505,"11401 Newcosta Ave, Pierson, MI",11401 Newcosta Ave, Pierson, MI,49339,http://pilgrimsrun.com,,,,no account,https://www.facebook.com/pages/Pilgrims-Run-Golf-Club/101148763289169
"Pine Dunes Resort, GC",info@pinedunes.com,(903) 876-4336,"159 Private Road 7019, Frankston, TX",159 Private Road 7019, Frankston, TX,75763,http://www.pinedunes.com,,,,no account,https://www.facebook.com/pinedunesgolf
Pine Lakes CC,"*no email listed, contact form",(843) 315-7700,"        5603 Granddaddy Dr, Myrtle Beach, SC",        5603 Granddaddy Dr, Myrtle Beach, SC,29577,http://www.pinelakes.com,,,,?,?
Pine Meadow,*no email listed,(847) 566-4653,"1 Pine Meadow Ln, Mundelein, IL ",1 Pine Meadow Ln, Mundelein, IL ,60060,http://www.pinemeadowgc.com/-home,,,,no account,https://www.facebook.com/pages/Pine-Meadow-Golf-Club/147320725304914?v=wall
Pine Needles CC,"(Graham Gilmore, General Manager) graham.gilmore@rossresorts.com",(910) 692-7111,"1005 Midland Rd, Southern Pines, NC ",1005 Midland Rd, Southern Pines, NC ,28387,http://www.pineneedles-midpines.com/index.cfm,,,,@PineNeedlesGolf,https://www.facebook.com/pineneedlesmidpines
Pine Tree,,(561) 732-6404,"10600 Pine Tree Terrace, Boynton Beach, FL",10600 Pine Tree Terrace, Boynton Beach, FL,33436,http://www.pinetreegolfclub.net,,,,,
Pine Valley Golf Club,,(856) 783-3000,"E Atlantic Ave, Pine Valley, NJ",E Atlantic Ave, Pine Valley, NJ,08021,,,,,,
Pinehills (Jones),"(John Tuffin, Director of Golf) jtuffin@pinehillsgolf.com",(508) 209-3000,"54 Clubhouse Dr, Plymouth, MA ",54 Clubhouse Dr, Plymouth, MA ,02360,http://www.pinehillsgolf.com,,,,no account,https://www.facebook.com/pages/Pinehills-Golf-Club/299663103856
Pinehills (Nicklaus),,,Plymouth,,Plymouth,MA,,,,,,@pinehillsgolfMA,https://www.facebook.com/pages/Pinehills-Golf-Club/299663103856
Pinehurst No. 2,inquiries@pinehurst.com,855-235-8507,"1 Carolina Vista Dr, Pinehurst, NC    ??",1 Carolina Vista Dr, Pinehurst, NC,28374,http://www.pinehurst.com/golf/courses/no-2/,,,,@PinehurstResort,https://www.facebook.com/PinehurstResort
Pinehurst No. 4,inquiries@pinehurst.com,?,Pinehurst,,Pinehurst,NC,,http://www.pinehurst.com/golf/courses/no-4/,,,,@PinehurstResort,https://www.facebook.com/PinehurstResort
Pinehurst No. 8,inquiries@pinehurst.com,?,"80 Carolina Vista Dr, Pinehurst, NC",80 Carolina Vista Dr, Pinehurst, NC,,http://www.pinehurst.com/golf/courses/no-8/,,,,@PinehurstResort,https://www.facebook.com/PinehurstResort
PiÃ±on Hills GC,"*no email listed, contact form",(505) 326-6066,"2101 Sunrise Pkwy, Farmington, NM ",2101 Sunrise Pkwy, Farmington, NM ,87401,http://www.pinonhillsgolf.com,,,,link takes you to tweets that are #pinehills instead of twitter profile,https://www.facebook.com/pinonhillsgolf
Piping Rock,,,"Locust Valley, NY",,Locust Valley, NY,,,,,,,
Pittsburgh Field Club,no email listed; site only for members,(412) 963-8500,"121 Field Club Rd, Pittsburgh, PA ",121 Field Club Rd, Pittsburgh, PA ,15238,http://fieldclub.org,,,,no account,no page found
Plainfield CC,"(Scott Paris, director of golf) scottp@plainfieldcc.com",(908) 757-1800,"Woodland Ave, Woodbridge Township, NJ",Woodland Ave, Woodbridge Township, NJ,08863,http://www.plainfieldcc.com,,,,no account,https://www.facebook.com/pages/Plainfield-Country-Club/178161332254134
Point O'Woods Golf & CC,"(Paul Spencer, club manager) pspencer@pointowoods.com",(269) 944-1433,"1516 Roslyn Rd, Benton Harbor, MI ",1516 Roslyn Rd, Benton Harbor, MI ,49022,http://pointowoods.com,,,,no account,https://www.facebook.com/pages/Point-O-Woods-Golf-and-Country-Club/164943060211684
Poipu Bay GC,*no email listed,(808) 742-9489," 2250 Ainakoa St, Kauai, HI ", 2250 Ainakoa St, Kauai, HI ,96756,http://www.poipubaygolf.com,,,,no account,https://www.facebook.com/PoipuBayGolfCourse
Portland GC,(Tim Hval) thval@portlandgolfclub.com,(503) 292-2651,"5900 SW Scholls Ferry Rd, Portland, OR",5900 SW Scholls Ferry Rd, Portland, OR,97225,http://www.portlandgolfclub.com/,,,,no account,https://www.facebook.com/PortlandGolfClub
Portsmouth CC,*no email listed,(603) 436-9791,"80 Country Club Ln, Greenland, NH ",80 Country Club Ln, Greenland, NH ,00384,http://www.portsmouthcc.net,,,,,
Pound Ridge GC,info@poundridgegolf.com,(914) 764-5771,"18 High Ridge Rd, Pound Ridge, NY ",18 High Ridge Rd, Pound Ridge, NY ,10576,"
http://www.poundridgegolf.com",,,,no account,https://www.facebook.com/pages/Pound-Ridge-Golf-Club/317601068290112
Prairie Club (Dunes),Info@ThePrairieClub.com,402.376.1361,"88897 Nebraska St. Hwy. 97, Valentine, NE",88897 Nebraska St. Hwy. 97, Valentine, NE,69201,http://www.theprairieclub.com/dunes-course.html,,"Par 73 & 5,752 to 8,058 yards",$97.50 to $185,@theprairieclub,https://www.facebook.com/pages/The-Prairie-Club/107755661228
Prairie Club (Pines),Info@ThePrairieClub.com,402.376.1361,"88897 Nebraska St. Hwy. 97, Valentine, NE",88897 Nebraska St. Hwy. 97, Valentine, NE,69201,http://www.theprairieclub.com/pines-course.html,,"Par 73 & 5,435 to 7,403 yards",$97.50 to $185,@theprairieclub,https://www.facebook.com/pages/The-Prairie-Club/107755661228
Prairie Dunes CC,,(620) 662-0581,"4812 E 30th Ave, Hutchinson, KS",4812 E 30th Ave, Hutchinson, KS,67502,http://www.prairiedunes.com,,,,,
Prairie Highlands,info@prairiehighlands.com,(913) 856-7235,"14695 Inverness St, Olathe, KS ",14695 Inverness St, Olathe, KS ,66061,http://www.prairiehighlands.com/-home,,,,@PHighlands,https://www.facebook.com/PrairieHighlandsGolfCourse
Presidio GC,*no email listed,(415) 561-4653,"300 Finley Rd, San Francisco, CA ",300 Finley Rd, San Francisco, CA ,94129,http://www.presidiogolf.com,,Blue - 6414 yards // White (m & w) - 6096 yards // Red (m & w) - 5996,,@GolfPresidio,https://www.facebook.com/PresidioGolf
Princeville (Prince),info@princeville.com,(808) 826-5001,"5-3900 Kuhio Hwy, Princeville, HI ",5-3900 Kuhio Hwy, Princeville, HI ,96722,http://www.princeville.com/golf,,,,@GoPrinceville,https://www.facebook.com/princevilleathanalei
Princeville Makai GC,makaigolf@troongolf.com,(808) 826-1912,"4080 Lei O Papa Rd, Princeville, HI",4080 Lei O Papa Rd, Princeville, HI,96722,http://www.makaigolf.com/index.php,," Par 72 , Yardage 7223",Standard Rate: $239 / Twilight Rate: $159,@PVille_MakaiMan,facebook.com/makaigolfclub
Promontory (Painted Valley),,435-333-4600,"Park City, UT",,Park City, UT,,,,,,,
Pronghorn (Fazio),"*no email listed, contact form ",866-320-5024,"65600 Pronghorn Club Drive, Bend, OR",65600 Pronghorn Club Drive, Bend, OR,97701,http://www.pronghornclub.com/faziocourse.html,,,,@PronghornAR,https://www.facebook.com/pronghornclub?v=wall
Pronghorn (Nicklaus),"*no email listed, contact form ",(541) 693-5300,"65600 Pronghorn Club Drive, Bend, OR",65600 Pronghorn Club Drive, Bend, OR,97701,http://www.pronghorn.aubergeresorts.com/,," 7,379-yard, par-72",$70-$210,@PronghornAR,https://www.facebook.com/pronghornclub
Pumpkin Ridge (Ghost Creek),info@pumpkinridge.com,503.647.9977,Cornelius,,Cornelius,,97133,http://www.pumpkinridge.com,,,,@PumpkinRidgeGC,https://www.facebook.com/pumpkinridgegc
Pumpkin Ridge GC (Witch Hollow),*no email listed; contact form,(503) 647-4747,"12930 NW Old Pumpkin Ridge Rd, North Plains, OR ",12930 NW Old Pumpkin Ridge Rd, North Plains, OR ,97133,http://www.pumpkinridge.com/witch-hollow,,,,@PumpkinRidgeGC,https://www.facebook.com/pumpkinridgegc
Quail Hollow Club,*no email listed,(704) 552-1800,"        3700 Glen Eagles Rd, Charlotte, NC",        3700 Glen Eagles Rd, Charlotte, NC,28210,http://www.quailhollowclub.com,,,,@QuailGolf,no actual page
Quaker Ridge,quakerridge@quakerridge.org,(914) 725-1100,"146 Griffen Ave, Scarsdale, NY ",146 Griffen Ave, Scarsdale, NY ,10583,https://www.quakerridgegc.org,,,,no account,no actual page
Quarry at La Quinta,*no emai listed; contact form,(760) 777-1100,"1 Quarry Ranch Rd, La Quinta, CA",1 Quarry Ranch Rd, La Quinta, CA,92253,http://www.thequarrygc.com,,,,,
Quarry GC,*no email listed,(330) 488-3178,Canton,,Canton,,44730,http://www.quarrygolfclubggp.com,,,,widgets on site don't work,widgets on site don't work
Quarry Oaks,*no email listed,(402) 944-6000,"Quarry Oaks Dr, Ashland, NE",Quarry Oaks Dr, Ashland, NE,68003,http://www.quarryoaks.com/-home,,,,,https://www.facebook.com/pages/Quarry-Oaks-Golf-Club/102674873105313
Quintero GC,info@quinterogolf.com,928-501-1500,"16752 Arizona 74, Peoria, AZ",16752 Arizona 74, Peoria, AZ,85383,http://www.quinterogolf.com,,not listed on site,not listed on site,@QuinteroGolf,https://www.facebook.com/Quinterogolf
Rancho Santa Fe GC,,(858) 756-1182,"5827 Via De La Cumbre, Rancho Santa Fe, CA",5827 Via De La Cumbre, Rancho Santa Fe, CA,92067,http://www.rsfgolfclub.com/Club/Scripts/Splash/,,,,,
Ravenwood,mroeder@ravenwoodgolf.com,(585) 924-6711,"929 Lynaugh Rd, Victor, NY ",929 Lynaugh Rd, Victor, NY ,14564,http://www.ravenwoodgolf.com,,,,@ravenwood,https://www.facebook.com/RavenwoodGolf
Ravenwood Golf Course at Snowshoe Mountain,*no email listed; contact form,304.572.6500,"10 Snowshoe Drive, Snowshoe, West Virginia",10 Snowshoe Drive, Snowshoe,WV,26209,http://www.snowshoemtn.com/raven/our-course/index.aspx,,,,widget on site brings you to home page,https://www.facebook.com/SnowshoeMountainResort
Ravisloe CC,"(Mike Hainline, Head Golf Professional) mhainline@ravisloecountryclub.com",(708) 798-5600,"18231 S Park Ave, Homewood, IL",18231 S Park Ave, Homewood, IL,60430,http://www.ravisloecountryclub.com,,,,no account,https://www.facebook.com/Ravisloecountryclub
Red Ledges GC,*no email listed; contact form,(435) 615-9966,"1851 E. Center Street Herber City, UT",1851 E. Center Street,Herber City, UT,84032,http://www.redledges.com,,,,@RedLedges,https://www.facebook.com/redledges
Red Sky (Fazio),"(Mike Gibbs, Club Director) mgibbs@vailresorts.com",888-873-3759,"1099 Red Sky Rd, Wolcott, CO",1099 Red Sky Rd, Wolcott, CO,81655,http://www.redskygolfclub.com,,,,no account,https://www.facebook.com/pages/Red-Sky-Golf-Club/228895987182311?rf=159773440712362
Red Sky (Norman),"(Mike Gibbs, Club Director) mgibbs@vailresorts.com",1-866-873-3759,Wolcott,,Wolcott,,,http://www.redskygolfclub.com/info/crs.norman.asp,,,,no account,https://www.facebook.com/pages/Red-Sky-Golf-Club/228895987182311?rf=159773440712362
Red Tail,mail@redtailgolf.net,(978) 772-3273,"15 Bulge Rd, Devens, MA",15 Bulge Rd, Devens, MA,01434,http://www.redtailgolf.net,,,,@redtailgc,https://www.facebook.com/pages/Red-Tail-Golf-Club/120478287969477
Redlands Mesa,info@redlandsmesa.com,(970) 263-9270,"2325 W Ridges Blvd, Grand Junction, CO",2325 W Ridges Blvd, Grand Junction, CO,81507,http://www.redlandsmesa.com,,,,@RedlandsMesa,https://www.facebook.com/TheGolfClubatRedlandsMesa
Resort at Pelican HIll (Ocean North),"(Kate Starr, Public Relations) kstarr@pelicanhill.com",(855) 315-8214,Newport Coast,,Newport Coast,,92657,"
http://www.pelicanhill.com",,,,no account,no real page
Resort at Pelican Hill (Ocean South),"(Kate Starr, Public Relations) kstarr@pelicanhill.com",(855) 315-8214,Newport Coast,,Newport Coast,,92657,"
http://www.pelicanhill.com",,,,no account,no real page
Reunion Resort (Watson),"*no email listed, contact form for guests",(407) 662-1000,"7593 Gathering Dr, Kissimmee, FL",7593 Gathering Dr, Kissimmee, FL,34747,http://www.reunionresort.com/golf/courses/watson,,,,@ReunionResort,https://www.facebook.com/ReunionResort
Reynolds Plantation (Great Waters),"na (golfweek contact only: Jason Murray, jmurray@barulegroup.com)",800-800-5250,"112 Plantation Dr, Eatonton, GA ",112 Plantation Dr, Eatonton, GA ,30642,https://www.reynoldsplantation.com/play-here/our-courses/great-waters,,"Par 72 - maximum yardage 7,073","Reynolds Plantation packages start at $279/person per night; play restricted to members, their guests and resort guests.",@reynoldsgolf,https://www.facebook.com/reynoldsplantation
Reynolds Plantation (National),"na (golfweek contact only: Jason Murray, jmurray@barulegroup.com)",800-800-5250,"1000 Vista Dr, Greensboro, GA",1000 Vista Dr, Greensboro, GA,30642,https://www.reynoldsplantation.com/play-here/our-courses/national,,,"Reynolds Plantation packages start at $279/person per night; play restricted to members, their guests and resort guests.",@reynoldsgolf,https://www.facebook.com/reynoldsplantation
Reynolds Plantation (Oconee),"na (golfweek contact only: Jason Murray, jmurray@barulegroup.com)",800-800-5250,"1000 Vista Dr, Greensboro, GA",1000 Vista Dr, Greensboro, GA,30642,https://www.reynoldsplantation.com/play-here/our-courses/oconee,,"Par 72 - maximum yardage 7,029","Reynolds Plantation packages start at $279/person per night; play restricted to members, their guests and resort guests.",@reynoldsgolf,https://www.facebook.com/reynoldsplantation
Reynolds Plantation (The Landing),"na (golfweek contact only: Jason Murray, jmurray@barulegroup.com)",800-800-5250,Greensboro,,Greensboro,,30642,https://www.reynoldsplantation.com/play-here/our-courses/landing,,"Par 72 - maximum yardage 7,048","Reynolds Plantation packages start at $279/person per night; play restricted to members, their guests and resort guests.",@reynoldsgolf,https://www.facebook.com/reynoldsplantation
Rhode Island CC,"(Kevin Callahan, clubhouse manager) kevin@ricc.org",(401) 245-5700,"150 Nayatt Rd, Barrington, RI",150 Nayatt Rd, Barrington, RI,02806,http://www.ricc.org/,,,,no account,https://www.facebook.com/ProvidenceCountryClub
Ridgewood CC (Championship),"(Eban Ross, club manager) eross@rcc1890.com",(201) 599-3900,"96 W Midland Ave, Paramus, NJ",96 W Midland Ave, Paramus, NJ,76520.1,http://www.rcc1890.com,,,,,
Rio Secco,rioseccogolf@caesars.com,(702) 777-2400,"2851 Grand Hills Dr, Henderson, NV ",2851 Grand Hills Dr, Henderson, NV ,89052,http://www.riosecco.net/-home,,,,@RioSecco,https://www.facebook.com/RioSeccoGolfClub
Riverfront GC at Harbor View,"(Tim Newsome, Director of Operations) newsompga@gmail.com",(757) 484-2200,Suffolk,,Suffolk,,23435,"
http://www.riverfrontgolf.com/default.aspx?view=home",,,,no account,https://www.facebook.com/TheRiverfrontatHarbourView
Riveria CC,,(310) 454-6591,"1250 Capri Dr, Pacific Palisades, CA",1250 Capri Dr, Pacific Palisades, CA,90272,http://www.therivieracountryclub.com/,,,,,
Riverwood GC,bisparks@bisparks.org,(701) 222-6462,Bismark,,Bismark,,58504,no website?,,,,no account,no actual page
Robert Trent Jones GC,"(Eric Rhodes, GM) tnevin@rtjgc.com",(703) 754-4050,"1 Turtle Point Dr, Gainesville, VA ",1 Turtle Point Dr, Gainesville, VA ,20155,http://www.rtjgc.com/,,,,,
Rock Creek Cattle Company,"(Louie Bartoletti, general manager) lbartoletti@rockcreekcattlecompany.com",406 846 3474,"105 Pauly Drive, Deer Lodge, Montana",105 Pauly Drive, Deer Lodge,MT,59722,http://www.rockcreekcattlecompany.com/golf,,,,no account,https://www.facebook.com/rockcreekcattlecompany
"Rocky Gap Lodge, Golf Resort","*no email listed, contact form",(301) 784-8400,"16701 Lakeview Rd NE, Cumberland, MD",16701 Lakeview Rd NE, Cumberland, MD,21502,http://www.rockygapresort.com,,,,@RockyGapCasino,https://www.facebook.com/RockyGap
Rolling Green GC,lydia.withers@rggc.org,(610) 544-4500,"280 N State Rd, Springfield, PA ",280 N State Rd, Springfield, PA ,19064,http://www.rollinggreengc.com,,,,no account,
Ross Bridge,rossbridge@rtjgolf.com,205-949-3085,"        4000 Grand Ave, Hoover, Alabama",        4000 Grand Ave, Hoover, AL,35226,https://www.rtjgolf.com/rossbridge/,,,starts at $120,@RTJGolf,https://www.facebook.com/rossbridgeresort
Round Hill Club,,(203) 869-2350,"33 Round Hill Club Rd, Greenwich, CT",33 Round Hill Club Rd, Greenwich, CT,06831,,,,,,
Royal Ka'anapali GC (North),emailus@kaanapaligolfcourses.com,(866) 454-4653,"2290 Kaanapali Pkwy, Lahaina, HI",2290 Kaanapali Pkwy, Lahaina, HI,96761,http://www.kaanapali-golf.com/-home,,,,@kaanapaliresort,https://www.facebook.com/KaanapaliGolf?rf=151831044942258
Royal Links,*no email listed,(702) 450-8181,"5995 E Vegas Valley Dr, Las Vegas, NV",5995 E Vegas Valley Dr, Las Vegas, NV,89142,http://www.royallinksgolfclub.com,,,,@RoyalLinksGC,https://www.facebook.com/RoyalLinks
Royal New Kent,"(Lester Poole, Head Golf Professional) lpoole@traditionalclubs.com",(804) 966-7023,Providence Forge,,Providence Forge,,23140,http://www.royalnewkent.com/-home,,,,no account,https://www.facebook.com/pages/The-Tradition-Golf-Club-at-Royal-New-Kent/195399270488358
Running Y Ranch,ryfrontdesk@runningy.com,(800) 569-0029,Klamath Falls,,Klamath Falls,,97601,http://www.runningy.com,,,,@Running_Y_Ranch,https://www.facebook.com/RunningY
Rush Creek,jenny@rushcreek.com,(763) 494-8844,"7801 County Road 101, Maple Grove, MN",7801 County Road 101, Maple Grove, MN,55311,http://www.rushcreek.com,,,,@RushCreekGC,https://www.facebook.com/rushcreekgolfclub
Rustic Canyon,"*no email listed, contact form (asks for phone number on form) ",(805) 530-0221,"1119 Wilshire Blvd, Santa Monica, CA",1119 Wilshire Blvd, Santa Monica, CA,93021,http://www.rusticcanyongolfcourse.com,,,,not listed on site,https://www.facebook.com/pages/Rustic-Canyon-Golf-Course/141272575930000
Rutland CC,beckyrcc@sover.net,802-773-7061,"275 Grove St. Rutland, VT",275 Grove St.,Rutland, VT,05702,http://www.rutlandcountryclub.com,,,,no account,https://www.facebook.com/rutlandcountryclub/info
"Saddle Creek 
","(Bob Higgins, General Manager) bhiggins@castlecooke.com",(209) 785-3700,Copperoolis,,Copperoolis,,95228,http://www.saddlecreek.com,,,,not listed on site,not listed on site
Sagamore GC,"(Dave Bergquist, Course Superintendent) dbergquist@sagamoregolf.com",603-964-5341,Bolton Landing,,Bolton Landing,,03862,http://www.sagamoregolf.com/sagamore-hampton-golf-club,,,,@SagamoreGolfInc,https://www.facebook.com/sagamoregolf
Sage Valley GC,no email listed; site under construction,(803) 663-0900,"2240 Sage Valley Dr, Graniteville, SC",2240 Sage Valley Dr, Graniteville, SC,29829,http://www.sagevalleygolf.com,,,,no account,no actual page
Sakonnet GC,cflanagan@sakonnetgc.com,401.635.4821,"79 Sakonnet Point Rd Little Compton, RI ",79 Sakonnet Point Rd ,Little Compton, RI ,02837,http://sakonnetgc.com,,,,no account,no page found
Salem CC,gcincotta@salemcountryclub.org,(978) 538-5400,"133 Forest St, Peabody, MA ",133 Forest St, Peabody, MA ,01960,http://www.salemcountryclub.org/,,,,,
Salish Cliffs,http://www.salish-cliffs.com/contact-us.html,(360) 462-3673,"91 West State Route 108, Shelton, WA",91 West State Route 108, Shelton, WA,98584,http://www.salish-cliffs.com,,,,widget brings you to hom page,https://www.facebook.com/SalishCliffs
San DIego CC,,,"Chula Vists, CA",,Chula Vists, CA,,,,,,,
San Francisco GC,,(415) 469-4100,"1310 Junipero Serra Blvd, San Francisco, CA",1310 Junipero Serra Blvd, San Francisco, CA,94132,?,,,,,
Sanctuary GC,,,"Sedalia, CO",,Sedalia, CO,,,,,,,
Sand Barrens GC,"(Doug Delaney, Head Golf Professional) DougD@SandBarrensGolf.com",(609) 465-3555,"1765 U.S. 9, Swainton, NJ",1765 U.S. 9, Swainton, NJ,08210,"
http://www.sandbarrensgolf.com",,,,@SandBarrens,https://www.facebook.com/SandBarrensGolf?rf=187875584589826
Sand Creek Station,"(Chris Tuohey, General Manager) ctuohey@kempersports.com",(316) 284-6161,"920 Meadowbrook Dr, Newton, KS ",920 Meadowbrook Dr, Newton, KS ,67114,http://www.sandcreekgolfclub.com/-home,,,,no account,https://www.facebook.com/sandcreekstation
Sand Hills GC,,(308) 546-2237,"36410 Sand Hills Road, Mullen, NE",36410 Sand Hills Road, Mullen, NE,69152,no website?,,,,no account,no actual page
Sand Ridge GC,info@mayfieldsandridge.com,(440) 285-8088,"12150 Mayfield Rd, Chardon, OH",12150 Mayfield Rd, Chardon, OH,44024,http://www.mayfieldsandridge.com,,,,no account,page not found
Sandestin Resort (Burnt Pine),"(Ryszard Jurkiericz, General Manager) RyszardJurkiewicz@sandestin.com",(850) 267-6500,"9300 U.S. Highway 98 W, Destin, FL ",9300 U.S. Highway 98 W, Destin, FL ,32550,http://www.burntpinegolfclub.com/burnt_pine/,,,,@DeltonaClub,https://www.facebook.com/deltonaclub
Sandia GC,"(Matt Molloy, Director of Golf) mmolloy@sandiacasino.com",(505) 798-3990,"30 Rainbow Rd, Albuquerque, NM",30 Rainbow Rd, Albuquerque, NM,87113,http://www.sandiagolf.com,,,,@SandiaGolf,https://www.facebook.com/SandiaGolf
Sanford CC,info@sanfordcountryclub.com,(207) 324-5462,Sanford,,Sanford,,04073,http://sanfordcountryclub.com,,,,no account,https://www.facebook.com/SanfordCountryClub
Sankaty Head Golf Club,,(508) 257-6655,"100 Sankaty Rd, Siasconset, MA ",100 Sankaty Rd, Siasconset, MA ,02564,http://www.sankatyheadgc.com,,,,,
Saratoga National,"(Peter Tevares, Director of Golf) 
ptavares@golfsaratoga.com",(518) 583-4653,"458 Union Ave, Saratoga Springs, NY",458 Union Ave, Saratoga Springs, NY,12866,http://www.golfsaratoga.com,,,,@golfsaratoga,https://www.facebook.com/GolfSaratoga
Saucon Valley CC,*no email listed,(610) 758-7150,"2050 Saucon Valley Rd, Bethlehem, PAÂ ",2050 Saucon Valley Rd, Bethlehem, PAÂ ,18015,http://www.sauconvalleycc.org/Club/Scripts/Home/home.asp,,,,no account,no actual page
Saucon Valley CC (Grace),no email listed,(610) 758-7150 â€Ž,"2050 Saucon Valley Rd | Bethlehem, PA",2050 Saucon Valley Rd,Bethlehem, PA,18015,http://www.sauconvalleycc.org/,,"Par - ?? // 7,051 yards",,no account,no page found
Scotio CC,no email listed,614.486.4341,"2196 Riverside Drive | Columbus, OH",2196 Riverside Drive,Columbus, OH,43221,http://www.sciotocc.com,,,,no account,no page found
Scotland Run,superintendent@scotlandrun.com,(856) 863-3737,"2626 Fries Mill Rd, Williamstown, NJ",2626 Fries Mill Rd, Williamstown, NJ,08094,http://www.scotlandrun.com,,,,no account,no actual page
Sea Island GC (Plantation),,912-638-5118,"100 Retreat Avenue, St. Simons Island, GA",100 Retreat Avenue, St. Simons Island, GA,,http://www.seaisland.com/golf/,,"Par 72; Six tee areas; 5,194 to 7,058 yards",$175-$210,@seaislandresort,https://www.facebook.com/seaisland
Sea Island GC (Retreat),"(Eric Colnon, Media Contact) Erinc@NJFPR.com",912-638-5118,"100 Retreat Avenue, St. Simons Island, GA",100 Retreat Avenue, St. Simons Island, GA,31561,http://www.seaisland.com/golf/,,"Par 72; Six tee areas; 5,082 to 7,106 yards",$175-$210,@seaislandresort,https://www.facebook.com/seaisland
Sea Island GC (Seaside),"*no email, contact form",912-638-5118,"100 Retreat Avenue, St. Simons Island, GA",100 Retreat Avenue, St. Simons Island, GA,31522,http://www.seaisland.com/golf/,,"Par 70; Six tee areas; 5,048 to 7,005 yards",$225-$295,@seaislandresort,https://www.facebook.com/seaisland
Seattle GC,*no email listed,(206) 363-544,"210 NW 145th Street Seattle, WA",210 NW 145th Street,Seattle, WA,98177,http://www.seattlegolfclub.com,,,,no account,https://www.facebook.com/pages/Seattle-Golf-Club/463368373775142
Sebonack Golf Club,*no email listed,(631) 287-4444,"405 Sebonac Rd, Southampton, NY",405 Sebonac Rd, Southampton, NY,11968,,,,,no account,no actual page
Semiahmoo,info@semiahmoo.com,(360) 318-2000,Blaine,,Blaine,,98230,http://www.semiahmoo.com,,,,@SemiahmooGolf,https://www.facebook.com/SemiahmooResort
Seminole GC,,(561) 626-0280,"901 Seminole Blvd, Juno Beach, FL",901 Seminole Blvd, Juno Beach, FL,,,,,,,
Settlers Bay,"*no listed email, contact form",907-376-5466,"7307 Frontier Dr, Wasilla, AK ",7307 Frontier Dr, Wasilla, AK ,99654,http://www.settlersbay.com,,,$36-$47,@SettlersBayGC,https://www.facebook.com/SettlersBayGolfCourse
Sewailo,"(Dan LaRouere, General Manager) 
DLarouere@troongolf.com",520-838-6623,Tucson,,Tucson,,85757,http://www.sewailogolfclub.com,,,,@sewailo,https://www.facebook.com/Sewailo
Shadow Creek GC,*no email listed,(702) 399-7111,"3 Shadow Creek Dr, North Las Vegas, NV",3 Shadow Creek Dr, North Las Vegas, NV,89031,http://www.shadowcreek.com/pages/index_main.asp,,,,,
Shadow Ridge,*no email listed,(760) 674-2700,Palm Desert,,Palm Desert,,92211,http://www.marriott.com/golf-hotels/ctdsr-marriotts-shadow-ridge-i-the-villages/shadow-ridge/5224671/home-page.mi,,,,no account,https://www.facebook.com/pages/Marriotts-Shadow-Ridge-Golf-Club/174167365973638
Shady oaks,info@shadyoaksclub.com,817.732.3333,"320 Roaring Springs Rd.   Ft. Worth, TX ",320 Roaring Springs Rd.,Ft. Worth, TX ,76114,http://www.shadyoaksclub.com,,,,@ShadyOaksGolf,https://www.facebook.com/ShadyOaksGolfCourse?rf=102918196436579
Shaker Run,"(Kenton Hobbs, Head Golf Professional) khobbs@shakerungolfclub.com",(513) 727-0007,"1320 Golf Club Drive, Lebanon, OH",1320 Golf Club Drive, Lebanon, OH,45036,http://www.shakerrungolfclub.com,,,,twitter link takes you to home page,https://www.facebook.com/ShakerRunGolfClub
Shell Landing,"(Steve Chaney, PGA Professional) Schaney@shelllanding.com",(228) 497-5683,"3499 Shell Landing Blvd, Gautier, MS",3499 Shell Landing Blvd, Gautier, MS,39553,http://www.shelllandinggolf.com/-home,,,,@SHELLLANDING,https://www.facebook.com/pages/Shell-Landing-Golf-Club/287346245045
Shelter Harbor GC,"(Gerard O'Callaghan, general manager) gocallaghan@shgcri.com",(401) 322-0600,"1 Golf Club Dr, Charlestown, RI",1 Golf Club Dr, Charlestown, RI,02813,http://www.shgcri.com,,,,no account,no actual page
Shinnecock Hills GC,KLeno@ShinnecockHills.US,(631) 283-1310,"200 Tuckahoe Rd, Southampton, NY",200 Tuckahoe Rd, Southampton, NY,11968,http://www.shinnecockhillsgolfclub.org,,,,no account,no actual page
Shoal Creek,*no email listed,(816)407-7242,Kansas City,,Kansas City,,64157,http://www.shoalcreekgolf.com/-home,,,,@ShoalCreekGolf,https://www.facebook.com/pages/Shoal-Creek-Golf-Course/55854204797
Shooting Star Golf Club,"*no email listed, contact form",(307) 739-3260,"N Crystal Springs Dr, Teton Village, WY",N Crystal Springs Dr, Teton Village, WY,83025,http://www.shootingstarjh.com,,,,no account,no account
Shore Gate,"(Harry Bittner, Director of Golf) hbittner@shoregategolf.com",(609) 624-8337,"35 Schoolhouse Ln, Ocean View, NJ",35 Schoolhouse Ln, Ocean View, NJ,08230,http://www.shoregategolf.com,,,,no account,https://www.facebook.com/shoregategolf
Shoreacres,,(847) 234-1470,"1601 Shore Acres Rd, Lake Bluff, IL",1601 Shore Acres Rd, Lake Bluff, IL,60044,,,,,,
Shuttle Meadow CC,,,"Kensington, CT",,Kensington, CT,,,,,,,
Sierra del Rio,"(Jerry Traweek, Course Superintendent) jerry@sdrgolf.com",(575) 744-4653,"101 Clubhouse Dr, Elephant Butte, NM ",101 Clubhouse Dr, Elephant Butte, NM ,87935,"
http://www.sierradelriogolf.com",,,,@TurtlebackMt,https://www.facebook.com/TurtlebackMtn
"Silverado Resort, Spa (North)",Golf@SilveradoResort.com,707-257-0200,Napa,,Napa,,94558,http://www.silveradoresort.com,,not listed on site,$59-$209,@SilveradoResort,https://www.facebook.com/silveradoresort
Siwanoy,(David Cecil - GM) dcecil@siwanoycc.com,(914) 337-3840,"351 Pondfield Rd, Bronxville, NY",351 Pondfield Rd, Bronxville, NY,10708,https://www.siwanoycc.com,,,,no account,no page found
Skokie CC,,(847) 835-0600,"500 Washington Ave, Glencoe, IL",500 Washington Ave, Glencoe, IL,60022,http://www.skokiecc.com,,,,,
Sleepy Hollow CC,"(Tom Nevin, GM) tnevin@sleepyhollowcc.org",(914) 941-8070,"777 Albany Post Rd, Briarcliff Manor, NY",777 Albany Post Rd, Briarcliff Manor, NY,10510,http://www.sleepyhollowcc.org/,,,,no account,https://www.facebook.com/pages/Sleepy-Hollow-Golf-Course/113747301987599
Sleepy Hollow GC,call,(440) 526-4285,"9445 Brecksville Rd, Cleveland, OH",9445 Brecksville Rd, Cleveland, OH,44141,http://www.sleepyhollowclyde.com,,"Par - 71 // 6,723 yards",,,https://www.facebook.com/SleepyHollowClyde?ref=stream&fref=nf
Soldier Hollow (Gold),info@soldierhollow.com,(435) 654-2002,"2002 Soldier Hollow Dr, Midway, UT",2002 Soldier Hollow Dr, Midway, UT,84049,http://soldierhollow.com,,,,not listed on site,https://www.facebook.com/pages/Soldier-Hollow-Golf-Course/144107639092624
Somerset Hills CC,SomersetHillsCC@somersetcc.org,(908)766-0043,"Bernardsville, NJ",,Bernardsville, NJ,07924,http://www.somersetcc.org,,,,,
Sonoma Ranch,"*no email listed, contact form (asks for phone number)",(575) 521-1818,"1274 Golf Club Rd, Las Cruces, NM",1274 Golf Club Rd, Las Cruces, NM,88011,http://www.sonomaranchgolf.com,,,,@SonomaRanchGolf,https://www.facebook.com/sonomaranchgolfcourse
South Mountain GC,jbrewster@slco.org,(385) 468-1480,"1247 E Mike Weir Dr, Draper, UT ",1247 E Mike Weir Dr, Draper, UT ,84020,http://www.slco.org/slcountygolf/cSouthMountain/,,,,no account,no account
Southern Dunes GC,"(Shane Trice, General Manager) shane@southerndunes.com",(863) 421-4653,Haines City,,Haines City,,33844,http://www.southerndunes.com,,,,@SouthernDunesGC,https://www.facebook.com/SouthernDunesGCC
Southern Highlands,no email listed; contact form available,(702) 263-1000,"1 Robert Trent Jones Ln, Las Vegas, NV ",1 Robert Trent Jones Ln, Las Vegas, NV ,89141,http://www.southernhighlands.com,,,,@SHCollegiate,https://www.facebook.com/pages/Southern-Highlands-Golf-Course-Community/447695008695317
Southern Hills,"(Jason Happe, golf course superintendent) golfsupt@goldenwest.net",(605) 745-6400,"1130 Clubhouse Dr, Hot Springs, SD",1130 Clubhouse Dr, Hot Springs, SD,57747,http://www.hotspringssdgolf.com,,,,@hotspringssd,https://www.facebook.com/SouthernHillsGolfCourseHotSpringsSD
Southern HIlls CC,calvarez@southernhillscc.org,(918) 492-3351,"2636 E 61st St, Tulsa, OK",2636 E 61st St, Tulsa, OK,74136,http://www.southernhillscc.com,,,,no account,no actual page
Southern Pines GC,"(Doug Thompson, Director of Golf) 
thompson@southernpinesgc.com",(910) 692-6551,"290 Country Club Cir, Southern Pines, NC",290 Country Club Cir, Southern Pines, NC,28387,"
http://southernpinesgc.com",,,,widgets on site don't work,widgets on site don't work
Southhampton GC,no email listed,(631) 283-0623,"1005 County Road 39, Southampton, NY",1005 County Road 39, Southampton, NY,11968,http://southamptongolfclub.com,,,,,
Spanish Oaks GC,"(Amy Denton, General Info) adenton@spanishoaks.com",(512) 421-8530,"13001 Spanish Oaks Club Blvd, Austin, TX ",13001 Spanish Oaks Club Blvd, Austin, TX ,78738,http://spanishoaksgc.com,,,,@SpanishOaksTx,https://www.facebook.com/SpanishOaksRealty
Spirit Hollow,"*no email listed, contact form (asks for phone number)",(319) 752-0004,"5592 Club House Dr, Burlington, IA",5592 Club House Dr, Burlington, IA,52601,http://www.spirithollowgolfcourse.com,,,,@SpiritHollow,https://www.facebook.com/pages/Spirit-Hollow-Golf-Course/738303772869240?rf=146156742074438
Spring Creek Ranch,golfshop@springcreekranch.org,(901) 853-5650,"149 Chinquapin Dr, Collierville, TN ",149 Chinquapin Dr, Collierville, TN ,38017,http://join.springcreekranch.org,,,,@springcrkranch,https://www.facebook.com/springcrkranch
Spring Hill GC,,(952) 473-1500,"725 County Road 6, Wayzata, MN",725 County Road 6, Wayzata, MN,55391,http://springhillgc.com,,,,no account?,no actual page found
Spring Island /Old Tabby Links,*no email listed; contact form available,(843) 987-2200,"42 Mobley Oaks Ln, Okatie, SC",42 Mobley Oaks Ln, Okatie, SC,29909,http://www.springisland.com/golf.html,,,,no account,https://www.facebook.com/pages/Old-Tabby-Links/181016566074
Spyglass Hill,"(Ryan Pierce, Media Contact) piercer@pebblebeach.com",(831) 625-8563,"1700 17 Mile Dr, Pebble Beach, CA",1700 17 Mile Dr, Pebble Beach, CA,93953,http://www.pebblebeach.com/golf/spyglass-hill-golf-course,,,,@PebbleBeachCali,https://www.facebook.com/PebbleBeachResorts
Squire Creek,,(318) 768-7000,"289 Squire Creek Pkwy, Choudrant, LA",289 Squire Creek Pkwy, Choudrant, LA,71227,http://www.squirecreek.com,,"Par-72 // 7,105 yards",,,
St. George Golf & Country Club,webmaster@stgeorges.org,(631) 751-0388,"134 Lower Sheep Pasture Rd, Setauket- East Setauket, NY",134 Lower Sheep Pasture Rd, Setauket- East Setauket, NY,11733,https://www.stgeorgesgolf.com,,,,no twitter,no actual page
St. Louis CC,,,"St. Louis, MO",,St. Louis, MO,,,,,,,
Stanford GC,(Shannon Donlon - GM) sdonlon@stanford.edu,,"198 Junipero Serra Blvd, Stanford, CA",198 Junipero Serra Blvd, Stanford, CA,94305,http://golfcourse.stanford.edu,,,,,
Stanwich Club,,(203) 869-0555,"888 North Street, Greenwich, CT ",888 North Street, Greenwich, CT ,06831,http://www.stanwich.com/,,,,,
Stevens Park,"(Jim Henderson, Director of Golf) hendersonj@sbcglobal.net",(214) 670-7506,"1005 N Montclair Ave, Dallas, TX",1005 N Montclair Ave, Dallas, TX,75208,http://www.stevensparkgolf.com,,,,@StevensParkGolf,https://www.facebook.com/pages/Stevens-Park-Golf-Course/148812148478053
Stevinson Ranch,info@stevinsonranch.com,(209) 664-6450,"2700 N Van Clief Rd, Stevinson, CA",2700 N Van Clief Rd, Stevinson, CA,95374,http://www.stevinsonranch.com,,,$47-$65 until August,no account,https://www.facebook.com/pages/Stevinson-Ranch/112808268754736
Stone Canyon,info@stonecanyongolfclub.com,1-816-228-3333,"22415 E. 39th Street, Blue Spring, MO",22415 E. 39th Street, Blue Spring, MO,64015,http://www.stonecanyongolfclub.com,,,,@Stone_Canyon,https://www.facebook.com/stonecanyongolfclub
Stone Eagle GC,,(760) 773-6223,"72500 Stone Eagle Dr, Palm Desert, CA",72500 Stone Eagle Dr, Palm Desert, CA,92260,http://www.stoneeaglegolf.com,,,,,
Stonehenge,whuddleston@fairfieldglade.cc,(931) 484-3731,"        222 Fairfield Blvd , Crossville, TN ",        222 Fairfield Blvd , Crossville, TN ,38558,http://www.fairfieldglade.cc/Golf/Courses/Stonehenge.aspx,,,,@seann2golf,https://www.facebook.com/fairfieldgladecc
Stonelick Hills,mike@stonelickhills.com,(513) 735-4653,"3155 Sherilyn Ln, Batavia, OH 4",3155 Sherilyn Ln, Batavia, OH,45103,http://www.stonelickhills.com,,,,not listed on site,https://www.facebook.com/stonelickhills
"StoneRidge
","*no email listed, contact form (requires phone number)",(651) 436-4653,"13600 N Hudson Blvd, Stillwater, MN",13600 N Hudson Blvd, Stillwater, MN,55082,http://www.stoneridgegc.com,,,,@StoneRidgeGC,https://www.facebook.com/StoneRidgeGolfClub
Stonewall GC,"(Paul Mauer, general manager) pmauer@stonewalllinks.com",610-286-3030,"375 Bulltown Road 
Elverson, Pennsylvania",375 Bulltown Road,Elverson,PA,19520,http://www.stonewalllinks.com/index.html,,,,no account,no actual page
Stonewall Orchard GC,info@stonewallorchard.com,(847) 740-4890,"25675 Illinois 60, Grayslake, IL",25675 Illinois 60, Grayslake, IL,60030,http://www.stonewallorchard.com,,,,@StonewallOrch,https://www.facebook.com/stonewallorchard
Stonewall Resort,"(Bryan Brown, Media Contact) bryan@browncomm.com",(304) 269-7400,"940 Resort Dr, Roanoke, WV ",940 Resort Dr, Roanoke," WV 
",26447,http://www.stonewallresort.com,,,,@stonewallresort,https://www.facebook.com/stonewallresort
Stowe Mountain Club,*no email listed; contact form,(802) 253-3563,"5781 Mountain Rd, Stowe, VT",5781 Mountain Rd, Stowe, VT,05672,"
http://www.stowemountainlodge.com/stowe-vermont-golf-resort.php",,,,@StoweMtnLodge,https://www.facebook.com/stowemountainresort
Streamsong (Blue),"(Scott Wilson, Director of Golf) scott.wilson@streamsongresort.com",863.428.1000,"1000 Streamsong Drive, Streamsong, Fl",1000 Streamsong Drive, Streamsong, Fl,33834,http://www.streamsongresort.com/best-florida-golf/streamsong-blue/,,,,@StreamsongGolf,https://www.facebook.com/streamsongresort
Streamsong (Red),"(Scott Wilson, Director of Golf) scott.wilson@streamsongresort.com",863.428.1000,"1000 Streamsong Drive, Streamsong, Fl",1000 Streamsong Drive, Streamsong, Fl,33834,http://www.streamsongresort.com/best-florida-golf/streamsong-red/,,,,@StreamsongGolf,https://www.facebook.com/streamsongresort
Succession GC,no email listed,843.522.4600,"100 Islands Causeway | Beaufort, SC",100 Islands Causeway,Beaufort, SC,29907,http://www.secessiongolf.com,,,,no account,no actual page
Sun Valley (Trail Creek),golf@sunvalley.com,208-622-2251,"Trail Creek Rd, Sun Valley, ID ",Trail Creek Rd, Sun Valley, ID ,83340,http://www.sunvalley.com/golf/trailcreek/,,,,@sunvalley,https://www.facebook.com/sunvalley
Sunbrook GC (Point /Woodbridge),colby.cowan@sgcity.org,(435) 627-4400,"2366 W Sunbrook Dr, St George, UT ",2366 W Sunbrook Dr, St George, UT ,84770,http://www.stgeorgecitygolf.com/sunbrook.php,,,,no account,https://www.facebook.com/pages/Sunbrook-Golf-Course/206796876038837
Sunday River,info@harrisgolfonline.com,(207) 824-4653,"18 Championship Dr, Newry, ME",18 Championship Dr, Newry, ME,04261,http://www.harrisgolfonline.com/sundayrivergolfclub_index.php,,,,@sundayriver,https://www.facebook.com/SundayRiverGolfClub
Sunnehanna CC,Frontdesk@sunnehannacountryclub.com,814.255.4121,"1000 Sunnehanna Dr. Johnstown, PA",1000 Sunnehanna Dr.,Johnstown, PA,15905,http://www.sunnehannacountryclub.com,,,,no account,https://www.facebook.com/sunnehanna
SunRidge Canyon,"(Wes Neal, Head Golf Professional) wes.neal@sunridgegolf.com",480-837-5100,"13100 Sunridge Dr, Fountain Hills, AZ",13100 Sunridge Dr, Fountain Hills, AZ,85268,http://www.sunridgegolf.com,,"Par - 71 // 6,823 yards",$70-$190,@SunRidgeCanyon,https://www.facebook.com/SunRidgeCanyonGolf
Sunriver (Crosswater),ryandavis@pga.com,1-800-801-8765,Sunriver,,Sunriver,,97707,http://www.sunriver-resort.com/crosswater-golf-course-oregon.php,,,,@SunriverResort,https://www.facebook.com/SunriverResort
Sweetgrass,info@islandresortandcasino.com,(877) 475-4733,"W-399 U.S. 2, Harris, MI",W-399 U.S. 2, Harris, MI,49845,http://sweetgrassgolfclub.com,,,,"
@SweetgrassGolf",https://www.facebook.com/sweetgrassgolfclub
Swope Memorial GC,swopememorial@orion-mgmt.com,(816) 513-8910,"6900 Swope Memorial Dr, Kansas City, MO ",6900 Swope Memorial Dr, Kansas City, MO ,64132,http://www.swopememorialgolfcourse.com,,,,,https://www.facebook.com/pages/Swope-Memorial-Golf-Course/147459725609
Taconic gc,"*no email listed , contat form",(413) 458-3997,"19 Meacham St, Williamstown, MA",19 Meacham St, Williamstown, MA,01267,http://taconicgolf.com,,,,,
Talking Stick (North),"(Brian Kolehma, Head Golf Professional) bkolehma@troongolf.com",(480) 860-2221,"9998 E Indian Bend Rd, Scottsdale, AZ",9998 E Indian Bend Rd, Scottsdale, AZ,85256,"http://www.talkingstickgolfclub.com/index.php
",,not listed on site,not listed on site,@talking_stickgc,https://www.facebook.com/pages/Talking-Stick-Golf-Club/167012922545
Tallgrass GC,infoattallgrass@gmail.com,(631) 209-9359,"24 Cooper St, Shoreham, NY ",24 Cooper St, Shoreham, NY ,11786,http://www.tallgrassgc.com,,,,@TallGrassGC,https://www.facebook.com/pages/Tallgrass-Golf-Course/134836893218303
Tamarack CC,,(203) 531-7300,"55 Locust Rd, Greenwich, CT ",55 Locust Rd, Greenwich, CT ,06831,http://www.tamarackcountryclub.com/,,,,,
Taos GC,"*no email listed, contact form (asks for phone number)",575.758.7300,Rnchos de Taos,,Rnchos de Taos,,87557,http://www.taoscountryclub.com,,,,no account,https://www.facebook.com/pages/Taos-Country-Club/334089349245
Tetherow,"(Chris Condon, Golf Course Superintendent) ccondon@tetherow.com",(541) 388-2582,"61240 Skyline Ranch Rd, Bend, OR",61240 Skyline Ranch Rd, Bend, OR,97702,http://www.tetherow.com,,,,@TetherowGolf,https://www.facebook.com/TetherowGolf
Teton Pines,info@tetonpines.com,(307) 733-1005,"        3450 Clubhouse Dr, Wilson, WY",        3450 Clubhouse Dr, Wilson, WY,83014,http://www.tetonpines.com/Club/Scripts/Home/home.asp,,,,@TetonPines,https://www.facebook.com/TetonPinesCountryClub
Texas Star,texasstar@eulesstx.gov,(817) 685-7888,"1400 Texas Star Pkwy, Euless, TX",1400 Texas Star Pkwy, Euless, TX,76040,http://www.texasstargolf.com,,,,@TexasStarGolf,https://facebook.com/texasstargolf?_rdr
Thanksgiving Point,*no email listed,(801) 768-4999," 3900 Garden Dr, Lehi, UT", 3900 Garden Dr, Lehi, UT,84043,http://www.thanksgivingpoint.org/visit/golf,,,$31-$51 depending on day / season,"no specific account for golf, but updates on: @ThanksPoint",https://www.facebook.com/ThanksgivingPointGolf
The Bear's Club,info@thebearsclub.com,(561) 626-2327,"250 Bears Club Dr, Jupiter, FL",250 Bears Club Dr, Jupiter, FL,33477,http://www.thebearsclub.com,,,,,
The Bluffs Golf Resort,"(Tom Agazzi, Head Golf Professional) tagazzi@thebluffs.com",(225) 634-5757,"14233 Sunrise Way, St Francisville, LA",14233 Sunrise Way, St Francisville, LA,70775,http://www.thebluffs.com,,,,@BluffsGolf,https://www.facebook.com/pages/The-Bluffs-Golf-Course/295149335814
The Breakers (Rees Jones Course),"*no email listed, contact form",(561) 653-6320,"1550 Flagler Pkwy, West Palm Beach, FL ",1550 Flagler Pkwy, West Palm Beach, FL ,33411,http://www.membershipsbythebreakers.com/breakers-west/membership,,,,no account,https://www.facebook.com/JWGABreakers
The Bridges GC at Hollywood Casino,*no email listed,(228) 463-4047,"711 Hollywood Blvd, Bay St Louis, MS ",711 Hollywood Blvd, Bay St Louis, MS ,39520,http://www.hollywoodcasinobsl.com,,"Par - 72 // 6,900 yards",,,https://www.facebook.com/GolfTheBridges
The Broadmoor (East),reservations@broadmoor.com,(877) 751-5492,"1 Lake Ave, Colorado Springs, CO",1 Lake Ave, Colorado Springs, CO,80906,http://www.broadmoor.com/east-golf-course/,,"Par: 72 Yardage: 7,355",$130 - $260,@thebroadmoor,http://facebook.com/thebroadmoor
The Broadmoor (West),reservations@broadmoor.com,(877) 751-5492,"1 Lake Ave, Colorado Springs, CO",1 Lake Ave, Colorado Springs, CO,80906,http://www.broadmoor.com/west-golf-course/,,"Par: 72 Yardage: 7,355",$130 - $260,@thebroadmoor,http://facebook.com/thebroadmoor
The Bull at Pinehurst Farms,info@golfthebull.com,(920) 467-1500,"1 Long Dr, Sheboygan Falls, WIÂ ",1 Long Dr, Sheboygan Falls, WIÂ ,53085,http://www.golfthebull.com,,,,@TheBullatPF,https://www.facebook.com/golfthebull
The Classic at Madden's Lake,"*no email listed, contact form",(218) 829-2811,"11266 Pine Beach Peninsula, Brainerd, MN",11266 Pine Beach Peninsula, Brainerd, MN,56401,http://www.maddens.com,,,,widget leads to home page,https://www.facebook.com/pages/The-Classic-At-Maddens/140204376023026
The Club at Ravenna,,,"11118 Caretaker Rd Littleton, CO",11118 Caretaker Rd,Littleton, CO,80125,http://www.ravennagolf.com,,,,,
The Country Club,mail@thecountryclub.com,(216) 831-9200,"2825 Lander Road | Pepper Pike, OH ",2825 Lander Road,Pepper Pike, OH ,44124,http://www.thecountryclub.com,,,,,
The Country Club,admin@saltlakecountryclub.com,(801) 466-8751,"2400 Country Club Dr, Salt Lake City, UT",2400 Country Club Dr, Salt Lake City, UT,84109,http://www.saltlakecountryclub.com,,,,no account,https://www.facebook.com/pages/Salt-Lake-Country-Club/132763196805237
The Country Club (Composite),,,"Brookline ,MA",,Brookline ,MA,,,,,,,
The Course at Yale,,(203) 392-2377,"200 Conrad Dr, New Haven, CT",200 Conrad Dr, New Haven, CT,06515,http://thecourseatyale.org,,,,no account,https://www.facebook.com/pages/The-Course-at-Yale/385077244900083
The Deltona Club,Info@TheDeltonaClub.com,(386) 789-3911,"1120 Elkcam Blvd, Deltona, FL",1120 Elkcam Blvd, Deltona, FL,32725,http://www.thedeltonaclub.com/index.html,,,,@DeltonaClub,https://www.facebook.com/deltonaclub
The Farm GC,,,"Dalton, GA",,Dalton, GA,,,,,,,
The Georgia Club,info@thegeorgiaclub.com,(770) 725-8100,"
1050 Chancellors Drive Statham, GA","
1050 Chancellors Drive",Statham, GA,30666,http://www.thegeorgiaclub.com,,,,@TheGeorgiaClub,https://www.facebook.com/thegeorgiaclub
The Glen Club,"(Howard Johnston III, General Manager) hjohnston@theglenclub.com",(847) 724-7272,"2901 W Lake Ave, Glenview, IL ",2901 W Lake Ave, Glenview, IL ,60026,http://www.theglenclub.com/-home,,,,@TheGlenClub,https://www.facebook.com/pages/The-Glen-Club/105401779502727
The Golf Club,no website?,(614) 855-1564,"4522 Kitzmiller Rd, New Albany, OH ",4522 Kitzmiller Rd, New Albany, OH ,43054,no website?,,,,,
The Golf Club at Bear Dance,"(Mark Pfingston, Head Golf Professional) mark@beardancegolf.com",(303) 681-4653,"6630 Bear Dance Dr, Larkspur, CO",6630 Bear Dance Dr, Larkspur, CO,80118,http://www.beardancegolf.com,,,,@BearDanceGolf,https://www.facebook.com/bear.dance.77?fref=ts
The Golf Club at Black Rock,,(208) 676-8999,"18168 S Kimberlite Dr, Coeur d'Alene, ID ",18168 S Kimberlite Dr, Coeur d'Alene, ID ,83814,https://www.blackrockidaho.com,,,,,
The Golf Club at Equinox,cluckey@troongolf.com,(802) 362-7870,"108 Union St, Manchester, VT ",108 Union St, Manchester, VT ,05254,http://www.equinoxresort.com,,,,not linked to site,https://www.facebook.com/EquinoxResortandSpa
The Grand GC,"(Marguarite Clark, Public Relations) pr@thegranddelmar.com",858.314.2000,"5200 Grand Del Mar Way, San Diego, CA",5200 Grand Del Mar Way, San Diego, CA,92130,https://www.thegranddelmar.com,,,,Twitter link brings you to home page,https://www.facebook.com/thegranddelmar
The Greenbrier GC (Old White TPC),"(Jeff Kmiec, President and Managing Director)  jeff_kmiec@greenbrier.com",(855) 453-4858,"Greenbrier Resort, 300 W Main St, WV", 300 W Main St,White Sulphur Springs, WV,24986,http://www.greenbrier.com/Golf/The-Golf-Club/The-Old-White-TPC.aspx,,,,@The_Greenbrier,https://www.facebook.com/TheGreenbrierClassic
The International GC,specialevents@theinternational.com,(978) 779-6911,"159 Ballville Road
Bolton, Massachusetts 01740",159 Ballville Road,Bolton,MA,01740,?,,,,no account,https://www.facebook.com/IGCBolton
The Ledges GC,info@theledges.com,(435) 634-4640,"1585 W Ledges Parkway, St. George, UT",1585 W Ledges Parkway, St. George, UT,84770,"
https://www.ledges.com",,Par 72/Yardage 7145 from Black tees and 6230 from White tees,$45-$75 depending on day/season (9-hole and twilight rates also available),@ledgesgolfclub,https://www.facebook.com/LedgesofSt.George
The Madison Club,,(760) 777-9320,"53rd Ave, La Quinta, CA",53rd Ave, La Quinta, CA,92253,http://madisonclubca.com,,,,,
The Oaks,"(Russ Bloom, General Manager) rbloom@theoaksgolfclub.com",(228) 452-0909,"24384 Club House Dr, Pass Christian, MS",24384 Club House Dr, Pass Christian, MS,39571,http://www.theoaksgolfclub.com/-home,,,,,https://www.facebook.com/TheOaksGolf
The Oaks Golf Links,"(Shaun Bishop, Director of Golf) sbishop@theoaksgolflinks.com",603-692-6257,Somersworth,,Somersworth,,03878,http://www.theoaksgolflinks.com/-home,,,,@TheOaksGolfLink,
The Powder Horn (Mountain /Stag),clubhouse@thepowderhorn.com,(307) 673-4800,Sheridan,,Sheridan,,82801,http://www.thepowderhorn.com/-home,,,,@ThePowderHornWY,https://www.facebook.com/PowderHornGolfCommunity
The Preserve,,(831) 620-6870,"19 E Pronghorn Run, Carmel, CA",19 E Pronghorn Run, Carmel, CA,93923,http://www.santaluciapreserve.com,,,,,
The Preserve GC,"(Stephen Miles, Director of Operations) stephenm@preservegc.com",(228) 386-2500,Vancleave,,Vancleave,,39565,http://www.preservegc.com/-home,,,,@PRESERVEGOLF,
The Ranch CC,"(Hope E. Kelley, Head Golf Professional) Hope@TheRanchGolfClub.com",(413) 569-9333,"11887 Tejon St, Southwick, CO ",11887 Tejon St, Southwick, CO ,01077,http://www.theranchgolfclub.com,,,,no account,https://www.facebook.com/TheRanchGolfClub
The Ranch Club,nmckethen@ranchclub.com,(406) 532-1000,"8501 Ranch Club Rd, Missoula, Mt",8501 Ranch Club Rd, Missoula, Mt,59808,http://www.ranchclub.com,,,,,
The Ranches GC,"*no email listed, contact form",(801) 789-8100,"        4128 E Clubhouse Ln, Eagle Mountain, UT",        4128 E Clubhouse Ln, Eagle Mountain, UT,84005,http://www.theranchesgolfclub.com,,,,@TheRanchesGolf,https://www.facebook.com/theranchesgolfclub
The Rawls Course at Texas Tech,"*no email listed, contact form",(806) 742-4653,"3720 4th St, Lubbock, TX ",3720 4th St, Lubbock, TX ,79415,http://www.therawlscourse.com/index.php,,,,not listed on site,https://www.facebook.com/TheRawlsCourse
The Refuge,info@refugegolfclub.com,(763) 753-8383,"21250 Yellow Pine St NW, Oak Grove, MN",21250 Yellow Pine St NW, Oak Grove, MN,55011,http://www.refugegolfclub.com,,,,@refugegolf,https://www.facebook.com/RefugeCountyClub
The Resort at Glade Spring (Cobb),"*no email listed, contact form",(304) 763-2050,"255 Resort Dr, Daniels, WV",255 Resort Dr, Daniels, WV,25832,http://www.gladesprings.com/cobb-golf-course.php,,,,@GladeSpringsWV,https://www.facebook.com/GladeSpringsWV
The Resort at Glade Spring (Stonehaven),info@gladesprings.com,(866) 562-8054," 255 Resort Drive | Daniels, West Virginia", 255 Resort Drive,Daniels,WV,25832,http://www.gladesprings.com/stonehaven-golf-course.php,,,,@GladeSpringsWV,https://www.facebook.com/GladeSpringsWV
The Rim,"no email listed, contact form",(928) 472-1470,"300 S Rim Club Dr, Payson, AZ",300 S Rim Club Dr, Payson, AZ,85541,http://rimgolf.com,,,,no account,https://www.facebook.com/TheRimGolfClub
The Shoals,TheShoals@RTJGolf.com,256-446-5111,"990 Sunbelt Pkwy, Muscle Shoals, Alabama",990 Sunbelt Pkwy, Muscle Shoals,AL,35661,https://www.rtjgolf.com/theshoals/,,,starts at $65,@RTJGolf,https://www.facebook.com/rtjgolf
The Stock Farm,membershipdirector@stockfarm.com,(406) 375-1887,"1428 Stock Farm Road | Hamilton, Mont",1428 Stock Farm Road,Hamilton,MT,59840,http://www.stockfarm.com,,,,,
The Tribute GC,tributegm@americangolf.com,(972) 370-5465,"1000 Lebanon Road, The Colony, TX",1000 Lebanon Road, The Colony, TX,75056,http://www.thetributegc.com,,,,@TheTributeGolf,https://www.facebook.com/thetributegolf
The Verrado Golf Club,*no listed email,623-388-3000,"4242 N Golf Dr, Buckeye, AZ",4242 N Golf Dr, Buckeye, AZ,85396,http://www.ravenatverrado.com,,not listed on site,$29-$49,@VerradoGolfClub,https://www.facebook.com/pages/Verrado-Golf-Club/113071372051626
Three Crowns GC,"(Christopher Moore, Genera Manager) cmoore@threecrownsgolfclub.com",(307) 472-7696,"1601 King Blvd, Casper, WY",1601 King Blvd, Casper, WY,82604,http://www.threecrownsgolfclub.com/-home,,,,@ThreeCrowns,https://www.facebook.com/pages/Three-Crowns-Golf-Club/194270516277
Thunder Bayou Golf Links,"*no email listed, contact form (asks for phone number on form) ",(870) 532-2621,"124 W Walnut St, Blytheville, AR",124 W Walnut St, Blytheville, AR,72315,http://www.thunderbayougolflinks.com,,,$20-$33,no account,https://www.facebook.com/pages/Thunder-Bayou-Golf-Links/151316671567655
ThunderHawk,thunderhawk@LCFPD.org,(847) 968-4295,"39700 N Lewis Ave, Beach Park, IL",39700 N Lewis Ave, Beach Park, IL,60099,http://www.thunderhawkgolfclub.org,,,,@ThunderHawkGolf,https://www.facebook.com/ThunderhawkGolf
Tidewater Plantation GC,"*no email listed, contact form for future guests",(843) 913-2424,"1400 Tidewater Dr, North Myrtle Beach, SC ",1400 Tidewater Dr, North Myrtle Beach, SC ,29582,http://tidewatergolf.com,,,,@TidewaterGolfMB,https://www.facebook.com/TidewaterGolfClub
Timberline,*no listed email,205-668-7888,"300 Timberline Trail, Calera, AL",300 Timberline Trail, Calera, AL,35040,http://timberlinegc.com/,,"Par-71 // 4,808 to 6,745 yards",$32 - $58 for 18 holes // $26 - $31 for 9 holes,@TimberlineGolf,https://www.facebook.com/Timberline.Golf
TimberStone GC,*no email listed,(906) 776-0111,Iron Mountain,Iron Mountain,,,49801,http://www.pinemountainresort.com/golf,,,,no account,https://www.facebook.com/pages/TimberStone-Golf-Course/164745846911562
Timberton GC,*no email listed,(601) 584-4653,"22 Clubhouse Dr, Hattiesburg, MS",22 Clubhouse Dr, Hattiesburg, MS,39401,http://www.timbertongolf.com,,,,,https://www.facebook.com/pages/Timberton-Golf-Club/120959137954276
Timuquana GC,timuquanacc@timuquana.net,(904) 388-2664,"4028 Timuquana Rd, Jacksonville, FL",4028 Timuquana Rd, Jacksonville, FL,32210,https://www.timuquana.net,,,,,
Tobacco Road,info@tobaccoroadgolf.com,(919) 775-1940,"442 Tobacco Rd, Sanford, NC",442 Tobacco Rd, Sanford, NC,27332,http://www.tobaccoroadgolf.com,,,,@TobaccoRoadGolf,https://www.facebook.com/TobaccoRoadGolfClub?ref=sgm
Tom's Run,golf@chestnutridgeresort.com,(724) 459-7191,"132 Pine Ridge Road | Blairsville, PA",132 Pine Ridge Road | Blairsville, PA,,15717,http://www.chestnutridgeresort.com/trgc.php,,,,@CRResort,https://www.facebook.com/chestnutridgeresort
Torrey Pines,*no email listed,(858) 581-7171,"1480 Torrey pines park Rd, San Diego, CA",1480 Torrey pines park Rd, San Diego, CA,92037,http://www.torreypinesgolfcourse.com/_tpgallery/index.html,,,,no account,not listed on site
Torrey Pines Municipal GC,,(858) 581-7171,"11480 Torrey pines park Rd, San Diego, CA",11480 Torrey pines park Rd, San Diego, CA,92037,no website?,,,,,
TPC at Myrtle Beach,,,Murrells Inlet,Murrells Inlet,,,,,,,,?,?
TPC Four Seasons Las Colinas,,,Irving,Irving,,,,,,,,,
TPC Harding Park,*no email listed,(415) 664-4690,"99 Harding Rd, San Francisco, CA",99 Harding Rd, San Francisco, CA,94132,https://www.tpc.com/tpc-harding-park,,,,@TPCHardingPark,https://www.facebook.com/TPCHardingPark
TPC Las Vagas,*no email listed,(702) 256-2000,"9851 Canyon Run Dr, Las Vegas, NV ",9851 Canyon Run Dr, Las Vegas, NV ,89144,https://www.tpc.com/tpc-las-vegas,,,,@tpclv,https://www.facebook.com/TPCLasVegas
TPC of Lousiana at Fairfield,*no email listed,(504) 436-8721,"11001 Lapalco Blvd, Avondale, LA",11001 Lapalco Blvd, Avondale, LA,70094,https://www.tpc.com/tpc-louisiana,,,,@TPCLA,https://www.facebook.com/TPCLouisiana
TPC San Antonio (ATT Canyons),,(210) 491-5800,"23808 Resort Pkwy, San Antonio, TX ",23808 Resort Pkwy, San Antonio, TX ,78261,http://www.tpc.com/sanantonio,,,$32-$47,@TPCSanAntonio,"""unavailable"""
TPC San Antonio (ATT Oaks),used events contact form,(210) 491-5800,"23808 Resort Pkwy, San Antonio, TX",23808 Resort Pkwy, San Antonio, TX,78261,http://www.tpc.com/sanantonio/atandt-oaks-course,,,,not listed on site,Facebook link says ERROR
TPC Sawgrass (Players Stadium),*no email listed,(904) 273-3235,"110 Championship Way, Ponte Vedra, FL",110 Championship Way, Ponte Vedra, FL,32082,https://www.tpc.com/tpc-sawgrass,,,,@TPCSawgrass,"widget on page says ""ERROR"""
TPC Scottsdale (Stadium),*no email listed,(480) 585-4334,"17020 N Hayden Rd, Scottsdale, AZ",17020 N Hayden Rd, Scottsdale, AZ,85255,http://www.tpc.com/scottsdale-the-stadium-course,,not listed on site,$39-$49,@PlayTPC,https://www.facebook.com/tpcscottsdale
TPS at Deere Run,*no email listed,(309) 796-6000,"3100 Heather Knoll, Silvis, IL ",3100 Heather Knoll, Silvis, IL ,61282,https://www.tpc.com/tpc-deere-run,,,,,
Tradition at La Quinta,info@traditiongc.com,(760) 564-8723,"78505 52nd Ave, La Quinta, CA ",78505 52nd Ave, La Quinta, CA ,92253,http://www.traditiongc.com,,,,,
Treetops (Premier),info@treetopsgolfresort.com,(866) 348-5249,"3962 Wilkinson Rd, Gaylord, MI",3962 Wilkinson Rd, Gaylord, MI,49735,http://treetops.com/courses/,,,,@Treetopsgc,
Treetops (Signature),info@treetopsgolfresort.com,(866) 348-5249,Gaylord,,Gaylord,,49735,http://treetops.com/courses/,,,,@Treetopsgc,
Treetops North (Smith),info@treetopsgolfresort.com,(352) 259-2313,"175 Rolling Acres Rd, Lady Lake, FL",175 Rolling Acres Rd, Lady Lake, FL,32159,http://treetops.com/golf/,,,,@Treetopsgc,https://www.facebook.com/TreetopsResortGolf
Triggs Memorial GC,info@triggs.necoxmail.com,(401) 521-8460,"1533 Chalkstone Ave, Providence, RI",1533 Chalkstone Ave, Providence, RI,02909,http://triggs.us,,,,@TriggsGolf,https://www.facebook.com/pages/Triggs-Memorial-Golf-Course/104943596215518
Troon North (Monument),"*no email listed, contact form",480-585-7700,"10320 E Dynamite Blvd, Scottsdale, AZ",10320 E Dynamite Blvd, Scottsdale, AZ,85262,http://www.troonnorthgolf.com/index.php,,not listed on site,not listed on site,@TroonNorthGC,https://www.facebook.com/TroonNorthGolfClub
Troon North (Pinnacle),"*no email listed, contact form",480-585-7700,"10320 E Dynamite Blvd, Scottsdale, AZ",10320 E Dynamite Blvd, Scottsdale, AZ,85262,http://www.troonnorthgolf.com/index.php,,not listed on site,not listed on site,@TroonNorthGC,https://www.facebook.com/TroonNorthGolfClub
Trophy Club,*no email listed,(765) 482-7272,"3887 U.S. 52, Lebanon, IN",3887 U.S. 52, Lebanon, IN,46052,http://www.thetrophyclubgolf.com,,,,"no account, @TrophyClubGov",https://www.facebook.com/trophyclubgolf?v=page_getting_started
"Trophy Lake Golf, Casting",lancef@trophylakegolf.com,(360) 874-8337,"        3900 SW Lake Flora Rd, Port Orchard, WA",        3900 SW Lake Flora Rd, Port Orchard, WA,98367,http://www.trophylakegolf.com,,,,no account,no real page
True Blue,truebluegolf@sccoast.net,(843) 235-0900,Pawleys Island,,Pawleys Island,,,http://www.fishclub.com,,,,not listed on site,not listed on site
Trump National Doral (Blue Monster),Info@TrumpHotels.com,(305) 592-2000,"4400 Northwest 87th Avenue, Miami, FL",4400 Northwest 87th Avenue, Miami, FL,33178,http://www.trumphotelcollection.com/miami/,,,,@TrumpDoral,https://www.facebook.com/TrumpDoral
Trump National GC,,,,,,,,,,,,,
Trump National GC Los Angeles,"Lili Amini, General Manager) lamini@trumpnational.com 

",(310) 265-5000,"1 Trump National Dr, Rancho Palos Verdes, CA",1 Trump National Dr, Rancho Palos Verdes, CA,90275,http://www.trumpnationallosangeles.com,,,,@TrumpGolfLA,https://www.facebook.com/pages/Trump-National-Golf-Club-Los-Angeles/162011417190258
"Tullymore GC
","(Gary Lewandowski, Head Golf Professional) gary@tullymoregolf.com",(231) 972-8821,Stanwood,Stanwood,,,49346,"
http://www.tullymoregolf.com/tullymoregolf/start_page.php",,,,@GolfTullymore,https://www.facebook.com/TullymoreGolfResort
Tumble Creek,"*no golf email, but resort and event emails listed; contact form available",(509) 649-6400,"3600 Suncadia Trail, Cle Elum, WA ",3600 Suncadia Trail, Cle Elum, WA ,98922,http://www.suncadiaresort.com/golf/tumble-creek?DB_OEM_ID=30200,,,,no account,https://www.facebook.com/pages/Suncadia-Resort/84199043168
Turnberry Isle Resort (Miller),"*no email listed, contact form",305-933-6929,"
19999 West Country Club Drive Aventure, FL","
19999 West Country Club Drive",Aventure, FL,,http://www.turnberryislemiami.com/activities/golf,,,,@TIsleMiami,https://www.facebook.com/TurnberryIsleMiami
Turnberry Isle Resort (Soffer),"*no email listed, contact form",(305) 933-6929,"
19999 West Country Club Drive Aventure, FL","
19999 West Country Club Drive",Aventure, FL,33180,http://www.turnberryislemiami.com/activities/golf,,,,@TIsleMiami,https://www.facebook.com/TurnberryIsleMiami
Turning Stone Resort (Atunyote),(Media Contact) bstagnitti@oneida-nation.org,(800) 771-7711,"5218 Patrick Rd, Verona, NY",5218 Patrick Rd, Verona, NY,13478,http://turningstone.com/golf/atunyote,,,,@TurningStone,https://www.facebook.com/TurningStoneResort
Turning Stone Resort (Kaluhyat),(Media Contact) bstagnitti@oneida-nation.org,(800) 771-7711,"5218 Patrick Rd, Verona, NY",5218 Patrick Rd, Verona, NY,13478,http://turningstone.com/golf/kaluhyat,,,,@TurningStone,https://www.facebook.com/TurningStoneResort
Turning Stone Resort (Shenendoah),(Media Contact) bstagnitti@oneida-nation.org,,Verona,,Verona,,,http://www.turningstone.com/,,,,@TurningStone,https://www.facebook.com/TurningStoneResort
Turtle Bay Resort (Arnold Palmer),info@turtlebaygolf.com,808-293-8574,Oahu,,Oahu,,96731,http://www.turtlebayresort.com/hawaii_golf/palmer_course/,,,,@TurtleBayResort,https://www.facebook.com/turtlebayresort
Twin Warriors,info@santaanagolf.com,(505) 771-6155,Sant Ana Pueblo,,Sant Ana Pueblo,,87004,http://mynewmexicogolf.com/twin_home/,,,,@TwinWarriors,https://www.facebook.com/TwinWarriorsGolfClub
Twisted Dune,"*no email listed, contact form (asks for phone number)",(609) 653-8019,"2101 Ocean Heights Ave, Egg Harbor Township, NJ ",2101 Ocean Heights Ave, Egg Harbor Township, NJ ,08234,http://www.twisteddune.com,,,,,
University of Georgia GC,golf@uga.edu,(706) 369-5739,"2600 Riverbend Rd, Athens, GA ",2600 Riverbend Rd, Athens, GA ,30605,"
http://golfcourse.uga.edu",,,,@UGAgolfcourse,https://www.facebook.com/ugagolfcourse
University of Michigan GC,*no email listed,(734) 615-4653,"Ann Arbor, MI",,Ann Arbor, MI,48104,http://www.mgoblue.com/facilities/golf-course.html,,,,@umichgolf,https://www.facebook.com/UofMGolfCourse
University of New Mexico (South),info@unmgolf.com,(505) 277-4546,"3601 Spirit Dr SE, Albuquerque, NM",3601 Spirit Dr SE, Albuquerque, NM,87106,http://www.unmgolf.com,,,,@unmgolf,https://www.facebook.com/pages/UNM-Championship-Golf-Course-OFFICIAL/258011677567547
University Ridge,universityridge@uwbadgers.com,(608) 845-7700,"        9002 County Road Pd, Madison, WI 
",        9002 County Road Pd, Madison," WI 
",53593,http://www.universityridge.com,,,,@URidgeGolf,https://www.facebook.com/UniversityRidgeGC
Valhalla GC,"(Keith Reese, general manager) kreese@pgahq.com",(502)245-4475,"15503 Shelbyville Road, Louisville, KY",15503 Shelbyville Road, Louisville, KY,40253,http://valhalla.pgalinks.com,,,,@ValhallaGolf,no actual page
Valley Club of Montecito,,(805) 969-4681,"1901 E Valley Rd, Montecito, CA",1901 E Valley Rd, Montecito, CA,93108,,,,,,
Ventana Canyon  (Mountain),(Bob O'Brian - director of golf) bobrian@thelodgeatventanacanyon.com,"520-577-1400

","6200 N Club House Ln, Tucson, AZ",6200 N Club House Ln, Tucson, AZ,85750,"
http://www.ventanacanyonclub.com",,not listed on site,$29-$49,not listed on site,no account
Ventana Canyon (Canyon),(Bob O'Brian - director of golf) bobrian@thelodgeatventanacanyon.com,(520) 577-1400,"6200 N Club House Ln, Tucson, AZ",6200 N Club House Ln, Tucson, AZ,85750,http://www.ventanacanyonclub.com/Default.aspx?p=DynamicModule&pageid=231487&ssid=82488&vnf=1,,,,not listed on site,https://www.facebook.com/LoewsVentanaCanyon
Vesper CC,,(978) 458-8731,"185 Pawtucket Blvd, Tyngsborough, MA ",185 Pawtucket Blvd, Tyngsborough, MA ,01879,https://www.vespercc.com,,,,,
Victoria Hills,"(Matt Payne, General Manager) mpayne@victoriahillsgolf.com",(386) 738-6000,"300 Spalding Way, DeLand, FL",300 Spalding Way, DeLand, FL,32724,"
http://www.victoriahillsgolf.com/index.php",,,,widget brings you to home page,https://www.facebook.com/victoriahillsgc
Victoria National GC,info@victorianational.com,(812) 858-8230,"2000 Victoria National Blvd, Newburgh, IN ",2000 Victoria National Blvd, Newburgh, IN ,47630,http://www.victorianational.com,,,,@GolfVNGC,https://www.facebook.com/VictoriaNational
Wade Hampton Club,*no email; contact form,(828) 743-5950,"N Carolina 107, Cashiers, NC",N Carolina 107, Cashiers, NC,28717,http://www.wadehamptongc.com,,,,no account,no actual page
Wailea (Gold),info@waileagolf.com,(808) 875-7450,"100 Wailea Golf Club Dr, Kihei, HI",100 Wailea Golf Club Dr, Kihei, HI,96753,http://waileagolf.com/index.php?linksid=4,,,,@WaileaGolf,https://www.facebook.com/waileagolf
Wailea GC (Emerald),info@waileagolf.com,808-875-7450,Maui,Maui,,HI,96753,http://www.waileagolf.com/index.php?linksid=13,,,,@WaileaGolf,https://www.facebook.com/waileagolf
Wannamoisett CC,"(Greens manager, Mark Daniels) mdaniels@wannamoisett.com",(401) 434-1200,"96 Hoyt Ave, Rumford, RI",96 Hoyt Ave, Rumford, RI,02916,http://www.wannamoisett.com,,,,@Wannamoisett,no page found
Warren GC at Notre Dame,warrengc@nd.edu,(574) 631-4653,"110 Warren Golf Course Clubhouse, Notre Dame, IN ",110 Warren Golf Course Clubhouse, Notre Dame, IN ,46556,"
http://warrengolfcourse.com",,,,@WarrenGCatND,https://www.facebook.com/WarrenGCatND
Waverley CC,lynda@waverley.cc,(503) 654-6521,"1100 SE Waverly Dr, Portland, OR",1100 SE Waverly Dr, Portland, OR,97222,http://www.waverley.cc/,,,,no account,https://www.facebook.com/pages/Waverley-Country-Club/115592375130639?sk=info
We-Ko-Pa (Cholla),"(Matt Barr, General Manager) mbarr@wekopa.com

",480-836-9000,"Fort McDowell, ",Fort McDowell, ,,85264,"
http://wekopa.com/golf/cholla-course/",,not listed on site,not listed on site,@wekopa,https://www.facebook.com/wekopagolfclub
We-Ko-Pa (Saguaro),"(Matt Barr, General Manager) mbarr@wekopa.com
",480-836-9000,"Fort McDowell, ",Fort McDowell, ,,85264,http://wekopa.com/golf/saguaro-course/,,not listed on site,not listed on site,@wekopa,https://www.facebook.com/wekopagolfclub
WeaverRidge,*no email listed,(309) 691-3344,"5100 N Weaverridge Blvd, Peoria, IL ",5100 N Weaverridge Blvd, Peoria, IL ,61615,http://www.weaverridge.com,,,,@weaverridge,https://www.facebook.com/pages/WeaverRidge-Golf-Club/320490458049
Wee Burn,,(203) 655-1477,"410 Hollow Tree Ridge Rd â€¢ Darien, CT",410 Hollow Tree Ridge Rd,Darien, CT,06820,http://www.weeburn.org,,,,,
Westchester CC (West),no email listed,(914) 967-6000,"99 Biltmore Ave, Rye, NY ",99 Biltmore Ave, Rye, NY ,10580,http://www.wccclub.org,,,,no account,https://www.facebook.com/pages/Westchester-Country-Club/126085064080381
Westhampton CC,no email listed,(631) 288-1148,"35 Potunk Ln, Westhampton Beach, NY ",35 Potunk Ln, Westhampton Beach, NY ,11978,http://www.westhamptoncc.org,,,,no account,no page found
Whippoorwill CC,no email listed,(914) 273-3011,"150 Whippoorwill Rd, Armonk, NY ",150 Whippoorwill Rd, Armonk, NY ,10504,https://www.whippoorwillclub.org,,,,no account,no actual page
Whirlwind GC (Cattail),whirlwindgolfclub@outlook.com,480-940-1500,Chandler,Chandler,,,85226,http://www.whirlwindgolf.com/index.php,,,$34-$60 until Aug.,@WhirlwindGolf,https://www.facebook.com/pages/Whirlwind-Golf-Club-at-Wild-Horse-Pass/171457898427
Whirlwind GC (Devil's Claw),whirlwindgolfclub@outlook.com,480-940-1500,"5692 W North Loop Rd, Chandler, AZ ",5692 W North Loop Rd, Chandler, AZ ,85226,http://www.whirlwindgolf.com/index.php,,,$34-$60,@WhirlwindGolf,https://www.facebook.com/pages/Whirlwind-Golf-Club-at-Wild-Horse-Pass/171457898427
Whiskey Creek,"(Ted Goodenow, General Manager) tgoodenow@kempersports.com",301-694-2900,"4804 Whiskey Ct, Ijamsville, MD",4804 Whiskey Ct, Ijamsville, MD,21754,http://www.whiskeycreekgolf.com/-home,,,,@WhiskeyCreek,https://www.facebook.com/WhiskeyCreekGolfClub
Whisper Rock (Lower),,,"Scottsdale, AZ",,Scottsdale, AZ,,no website?,,,,,
Whisper Rock (Upper),,(480) 575-8700,"32000 N Old Bridge Rd, Scottsdale, AZ",32000 N Old Bridge Rd, Scottsdale, AZ,85266,,,,,,
Whispering Pines Golf Club,,(936) 594-4980,"1532 Whispering Pines Dr, Trinity, TX",1532 Whispering Pines Dr, Trinity, TX,75862,,,,,no account,https://www.facebook.com/WhisperingPinesGC
Whistling Straits (Irish),"(Leslie Stachowiak, Media Director)  leslie.stachowiak@kohler.com",(800) 618-5535," N8501 County Road LS, Sheboygan, WIÂ ", N8501 County Road LS, Sheboygan, WIÂ ,53083,http://www.americanclubresort.com/golf/ws/irish_detail.html,,,,widget on site brings you to home page,https://www.facebook.com/GolfKohler
Whistling Straits (Straits),"(Leslie Stachowiak, Media Director)  leslie.stachowiak@kohler.com",(800) 618-5535,"N8501 County Road LS, Sheboygan, WI ",N8501 County Road LS, Sheboygan, WI ,53083,http://www.americanclubresort.com/golf/ws/straits_detail.html,,,,@TheAmericanClub,https://www.facebook.com/americanclub
White Bear Yacht Club,"(Joyce Halama, General Manager) joyce@wbyc.com",(651) 429-4567,"56 Dellwood Ave, Dellwood, MN",56 Dellwood Ave, Dellwood, MN,55110,http://www.wbyc.com,,,,no account,https://www.facebook.com/pages/White-Bear-Yacht-Club/151017534909528?cropsuccess
"White Clay Creek
","(Ryan Kidwell, Executor Director of Golf) ryan.kidwell@delawarepark.com",(302) 994-6700,"777 Delaware Park Blvd, Wilmington, DE",777 Delaware Park Blvd, Wilmington, DE,19804,http://www.whiteclaycreekgolfcourse.com/HTML/index.html,,,,?,
White Manor CC,,(610) 647-1070,"831 Providence Rd, Malvern, PA",831 Providence Rd, Malvern, PA,19355,http://www.whitemanorcc.com,,,,,
Whiteface Club,info@whitefaceclubresort.com,(518) 523-2551,"373 Whiteface Inn Ln, Lake Placid, NY",373 Whiteface Inn Ln, Lake Placid, NY,12946,http://www.whitefaceclubresort.com,,,,not listed on site,not listed on site
Whitefish Lake (South),,(406) 862-5960,"1200 U.S. 93, Whitefish, Mt ",1200 U.S. 93, Whitefish, Mt ,59937,https://golfwhitefish.com/south-course/,,,,,
Whitehawk Ranch,"(Tod McCormick, head golf professional) tad@golfwhitehawk.com",(530) 836-0394,"768 Whitehawk Dr, Clio, CA",768 Whitehawk Dr, Clio, CA,96106,http://www.golfwhitehawk.com,,,$85-$125,no account,https://www.facebook.com/pages/Lodge-at-Whitehawk-Ranch/108061592576821
Whitetail Club,*no email listed,(208) 634-1725,"501 W Lake St, McCall, ID",501 W Lake St, McCall, ID,83638,http://whitetailclub.com,,,,@WhitetailClub,https://www.facebook.com/WhitetailGolf
Whitinsville GC,"(PGA professional, Matt Griffith) mattgriffith@pga.com",(508) 234-6210,"179 Fletcher St, Whitinsville, MA",179 Fletcher St, Whitinsville, MA,01588,http://www.whitinsvillegolfclub.net,,,,,
Wild Horse,gm@playwildhorse.com,(308) 537-7700,"41150 Rd. 768, Gothenburg, NE",41150 Rd. 768, Gothenburg, NE,69138,http://www.playwildhorse.com,,,,,https://www.facebook.com/pages/Wild-Horse-Plains-Golf-Course/424889680878314
Wild Rock GC,info@wildrockgolf.com,(608) 253-4653,"
856 Canyon Rd, Wisconsin Dells, WI","
856 Canyon Rd", Wisconsin Dells, WI,53965,http://www.wildrockgolf.com,,,,@WildRockGolf,https://www.facebook.com/pages/Wild-Rock-Golf-Club/81631148958
Wilderness at Fortune Bay,"(Tom Beaudry, General Manager) tbeaudry@kempersports.com",(800) 992-4680,"1450 Bois Forte Rd, Tower, MN",1450 Bois Forte Rd, Tower, MN,55790,http://www.golfthewilderness.com/-home,,,,@WildernessGolf,https://www.facebook.com/pages/The-Wilderness-at-Fortune-Bay/98657942818
Wilderness Club,"*no listed email, contact form",(406) 889-6501,"1885 Sophie Lake Rd, Eureka, Mt",1885 Sophie Lake Rd, Eureka, Mt,59917,http://www.thewildernessclub.com,,,,@twildernessclub,https://www.facebook.com/thewildernessclub?ref=br_tf
Winchester CC,,(781) 729-1181,"468 Mystic St, Winchester, MA",468 Mystic St, Winchester, MA,02474,http://winchestercc.org,,?,?,no account,no actual page
Windance Country Club,,,,,,,,,,,,,
Windsong Farms,,,"Independence, MN",,Independence, MN,,,,,,,
Wine Valley,mail@winevalleygolfclub.com,(509) 525-4653,"176 Wine Valley Road, Walla Walla, WA",176 Wine Valley Road, Walla Walla, WA,99362,https://www.winevalleygolfclub.com,,,,no account,https://www.facebook.com/WineValleyGolfClub
Winged Foot GC (East),frontdesk@wfgc.org,(914) 698-8400,"851 Fenimore Rd, Mamaroneck, NY",851 Fenimore Rd, Mamaroneck, NY,10543,http://www.wfgc.org/,,,,no account,no actual page
Winged Foot GC (West),frontdesk@wfgc.org,(914) 698-8400,"851 Fenimore Rd, Mamaroneck, NY",851 Fenimore Rd, Mamaroneck, NY,10543,http://www.wfgc.org/,,,,no account,no actual page
Winnapaug GCC,winnapaugcountryclub@gmail.com,(401) 596-1237,Westerly,,Westerly,,02891,http://www.winnapaugcountryclub.com,,,,no account,no real page
WinStar Golf Club,"*no email listed, contact form (asks for phone number)",1-800-622-6317,Thackerville,,Thackerville,,73459,http://winstarworldcasino.com/golf,,,,@WinStarWorld,http://www.facebook.com/WinStarWorldCasino
Wintonbury Hills,*no email listed,(860) 242-1401,"206 Terry Plains Rd, Bloomfield, CT",206 Terry Plains Rd, Bloomfield, CT,06002,http://www.wintonburyhillsgolf.com,,,,no account,no account
Wolf Creek,reservations@golfwolfcreek.com,(702) 346-1670,"403 Paradise Pkwy, Mesquite, NV",403 Paradise Pkwy, Mesquite, NV,89027,"
http://www.golfwolfcreek.com/-home",,,,,https://www.facebook.com/pages/Wolf-Creek-Golf-Club-Mesquite-NV/125209116504
Wolf Run,"(Ryan Brontrager, head golf professional) ryan@wolfrungc.com",(317) 769-5260,"601 S 900 E, ZIONSVILLE, IN",601 S 900 E, ZIONSVILLE, IN,46077,http://wolfrungc.com/,,,,@WolfRunGolfClub,https://www.facebook.com/officialwolfrungolfclub
Wolfdancer,"*no email listed, contact form",(512) 308-4770,"575 Hyatt Lost Pines Rd, Cedar Creek, TX",575 Hyatt Lost Pines Rd, Cedar Creek, TX,78612,http://www.wolfdancergolfclub.com,,"72 and 7,205yards from back tee","$149 Peak, $119 off peak",@WDGolfClub,https://www.facebook.com/pages/Wolfdancer-Golf-Club/160102554038473
Woodway CC,,(203) 322-1661,"540 Hoyt St, Darien, CT ",540 Hoyt St, Darien, CT ,06820,http://www.woodway.org/,,,,,
Worcester CC,,,"Worcester, MA",,Worcester, MA,,,,,,,
World Woods (Pine Barrens),"*no email listed, contact form",(352) 796-5500,"17590 Ponce De Leon Blvd, Brooksville, FL",17590 Ponce De Leon Blvd, Brooksville, FL,34614,http://www.worldwoods.com/golf/pine-barrens,,,,no account,https://www.facebook.com/pages/World-Woods-Golf-Club/288307731263862
World Woods (Rolling Oaks),"*no email listed, contact form",(352) 796-5500,"17590 Ponce De Leon Blvd, Brooksville, FL",17590 Ponce De Leon Blvd, Brooksville, FL,34614,http://www.worldwoods.com/golf/rolling-oaks,,,,no account,https://www.facebook.com/pages/World-Woods-Golf-Club/288307731263862
Worthington Manor,"*no email listed, contct form",(301) 874-5400,"8329 Fingerboard Rd, Urbana, MD",8329 Fingerboard Rd, Urbana, MD,21704,http://www.worthingtonmanor.com,,,,@WorthingtonGolf,https://www.facebook.com/WORTHINGTONMANORGOLF
Wykagyl CC,"(Robert Kasara, GM) rkasara@wykagylcc.org",(914) 636-8700,"1195 North Avenue, New Rochelle, NY",1195 North Avenue, New Rochelle, NY,10804,http://www.wykagylcc.org,,,,no account?,no actual page
Wyncote,wyncote@wyncote.com,(610) 932-8900,"50 Wyncote Dr, Oxford, PA ",50 Wyncote Dr, Oxford, PA ,19363,http://www.wyncote.com,,,,no account,https://www.facebook.com/pages/Wyncote-Golf-Club-Oxford-Pa/183049925067589
Wynn GC,pr@wynnlasvegas.com,(702) 770-4653,Las Vagas,,Las Vagas,NV,89109,http://www.wynnlasvegas.com/Activities/Golf/WynnGolfCourse,,,,,
Yeamans Hall Club,no email listed; site only for members,(843) 747-8855,"900 Yeamans Hall Rd, Hanahan, SC",900 Yeamans Hall Rd, Hanahan, SC,29410,https://www.yeamanshallclub.com,,,,no account,no actual page
